name,company,city,address,latitude,longitude
أليانز المغرب، الدارالبيضاء.,ALLIANZ,"Casablanca, Morocco","166 Bd Mohamed Zerktouni, Casablanca 20060, Morocco",33.5864346,-7.630316499999999
Assurances Porte D'anfa : Allianz Maroc,ALLIANZ,"Casablanca, Morocco","41 Rue Mohamed Sediki, Casablanca 20250, Morocco",33.5931262,-7.634505099999999
Allianz Taawid Auto Siège,ALLIANZ,"Casablanca, Morocco","168 Bd Mohamed Zerktouni, Casablanca 20060, Morocco",33.5862074,-7.630227199999998
Allianz,ALLIANZ,"Casablanca, Morocco","31 Av. des FAR, Fès 20250, Morocco",33.5966579,-7.615322
California Insurance Agency - Allianz Morocco,ALLIANZ,"Casablanca, Morocco","Bd El Qods, Casablanca, Morocco",33.5337605,-7.6122488
Bureau Direct Allianz Bourgogne,ALLIANZ,"Casablanca, Morocco","125 Bd de Bourgogne, Casablanca 20250, Morocco",33.59739449999999,-7.645464199999998
Assurance Beaulieu ALLIANZ,ALLIANZ,"Casablanca, Morocco","81, Boulevard Chefchaouni, à coté du marché vert & place tizi ousli, Casablanca 20250, Morocco",33.6069607,-7.538545699999998
allianz assurance,ALLIANZ,"Casablanca, Morocco","HC43+G5H, Bd Panoramique, Casablanca, Morocco",33.5563012,-7.597000599999999
Assurance attajdid,ALLIANZ,"Casablanca, Morocco","644 boulevard Oued debout, Casablanca 20200, Morocco",33.5512206,-7.6842194
ASSURANCES OULAD HADDOU / AGENT ALLIANZ,ALLIANZ,"Casablanca, Morocco","137 LOTISSEMENT DANDOUNE, SIDI MAAROUF, Casablanca 20000, Morocco",33.5148407,-7.649052600000001
Allianz Taawid Auto Casablanca - Ain Sebaâ,ALLIANZ,"Casablanca, Morocco","Route de Rabat (r.p. 1), Km 9,200, Casablanca 20250, Morocco",33.6034399,-7.5356122
Assurance allianz,ALLIANZ,"Casablanca, Morocco","26 Bd Al Khalil, Casablanca, Morocco",33.54806389999999,-7.6010757
Arenassur Allianz,ALLIANZ,"Casablanca, Morocco","Addamane 12, Av. de Dakhla, Casablanca, Morocco",33.5410371,-7.603702299999997
Asurance allianz,ALLIANZ,"Casablanca, Morocco","382 Av. Reda Guedira, Casablanca, Morocco",33.5540002,-7.5758637
Nextcare Maroc,ALLIANZ,"Casablanca, Morocco","1er étage, 28 Bd Al Massira Al Khadra, Casablanca 20100, Morocco",33.5869837,-7.636206199999998
DLOU ASSURANCES,ALLIANZ,"Casablanca, Morocco","N 4 Bd Oued Draâ, Casablanca, Morocco",33.5567124,-7.6844245
BAB FES ASSURANCES (allianz maroc),ALLIANZ,"Casablanca, Morocco","Ryad sofia Gh4 Imm 1 Rdc, Casablanca, Morocco",33.5226859,-7.679845699999998
Allianz,ALLIANZ,"Casablanca, Morocco","Place Essalam Hay Essalam 2 GH 18. 2 résidence 5 N° 82, Casablanca, Morocco",33.5456752,-7.672936999999999
Allianz Casa Anfa Assurances,ALLIANZ,"Casablanca, Morocco","113 bis Lotissement Habiba، Bd Haj Fateh, Dar-el-Beida 20016, Morocco",33.5486146,-7.684981200000001
Acmar,ALLIANZ,"Casablanca, Morocco","104 Bd Abdellatif Ben Kaddour, Casablanca 20050, Morocco",33.5909124,-7.643880800000001
Assurances Le Chalet,ALLIANZ,"Casablanca, Morocco","392 Bd Ibn Tachfine, Casablanca 20250, Morocco",33.58424580000001,-7.5726035
Assurances Oued Sebou,ALLIANZ,"Casablanca, Morocco","185 Bd Oued Sebou, Casablanca, Morocco",33.55261170000001,-7.678639599999999
Assurances Amqor,ALLIANZ,"Casablanca, Morocco","166 Av. Mehdi Ben Barka, Casablanca 20250, Morocco",33.6015195,-7.6427374
Lalla mariam Assurance Allianz,ALLIANZ,"Casablanca, Morocco","HCF6+63W, Casablanca 20250, Morocco",33.57310289999999,-7.5898116
Allianz,ALLIANZ,"Casablanca, Morocco","14 Avenue Moulay Rachid, Biougra, Morocco",33.5332852,-7.583423600000001
Assurance Allianz,ALLIANZ,"Casablanca, Morocco","HC5V+6CV, Bd Commandant Driss Al Harti, Casablanca 20670, Morocco",33.5581158,-7.556439699999999
Assurance alianz rania,ALLIANZ,"Casablanca, Morocco","G7H8+F4W, P3014, Arrahma, Morocco",33.5286168,-7.7349937
Allianz,ALLIANZ,"Casablanca, Morocco","Lotissement Zine Essalam, Magasin N°31, Titt Mellilen, Morocco",33.55296499999999,-7.474701
assurance arbassur,ALLIANZ,"Casablanca, Morocco","HC43+G5H, Bd Panoramique, Casablanca, Morocco",33.5563024,-7.5970014
Assurance Allianz Lalla mariam,ALLIANZ,"Casablanca, Morocco","HC5V+6CV, Bd Commandant Driss Al Harti, Casablanca 20670, Morocco",33.5581158,-7.556439699999999
AKL ASSURANCES,ALLIANZ,"Casablanca, Morocco","222 Bd Dakhla, Casablanca 20440, Morocco",33.5452262,-7.574566299999999
Allianz,ALLIANZ,"Casablanca, Morocco","Garnaoui. Lotissement Essaâda, 114 Bd Mokhtar Ben Ahmed Al Guerraoui, Casablanca, Morocco",33.611426,-7.495052799999999
Bureau Direct d'Assurances Allianz Bouskoura,ALLIANZ,"Casablanca, Morocco","Complexe résidentiel Bassatine immeuble 1, GH7A local 159, Bouskoura, Morocco",33.46750160000001,-7.665541799999999
Elakil assurances Allianz,ALLIANZ,"Casablanca, Morocco","HG38+HMR, Tit Mellil, Morocco",33.5539948,-7.4833661
ALLIANCE TRAVEL,ALLIANZ,"Casablanca, Morocco","47 Bd Sidi Mohamed Ben Abdellah, Casablanca 20250, Morocco",33.6034817,-7.6421389
Allianz Mohammedia Pro Assurances,ALLIANZ,"Casablanca, Morocco","HAY EL FALAH BLOC 16 N°11, Mohammédia 28830, Morocco",33.6829415,-7.381412200000001
Maroc Assistance Internationale,ALLIANZ,"Casablanca, Morocco","25 Bd Rachidi, Casablanca 20100, Morocco",33.5926628,-7.626657899999998
Euler Hermes,ALLIANZ,"Casablanca, Morocco","37 Bd Abdellatif Ben Kaddour, Casablanca 20000, Morocco",33.5909182,-7.6437377
Sany Assurances Sarl,ALLIANZ,"Casablanca, Morocco","77 Boulevard Akid El Allam Hay Moulay Rachid 2, Casablanca, Casablanca 20100, Morocco",33.5706962,-7.560773799999999
ASSURANCE ALLIANZ,ALLIANZ,"Casablanca, Morocco","LOTISSEMENT MASSIRA FB 29, Mohammédia, Morocco",33.6967775,-7.367396200000001
Bedassur S.A.,ALLIANZ,"Casablanca, Morocco","1°Ét, 10 Rue de Karachi, Casablanca 20100, Morocco",33.59498739999999,-7.604119499999999
Central Assur,ALLIANZ,"Casablanca, Morocco","Ahm Loghlam Res Salam 2 Imm 1 Mag 3, Casablanca, Morocco",33.5884458,-7.485020999999998
AtlantaSanad Assurance,ALLIANZ,"Casablanca, Morocco","H9MP+8F5, Bd de la Résistance, Casablanca 20250, Morocco",33.5832509,-7.613766999999998
Alinqad Assurance,ALLIANZ,"Casablanca, Morocco","H9W4+Q42, Rue Aïn Chifa, Casablanca 20100, Morocco",33.596889,-7.644723000000001
Assurances Aglou,ALLIANZ,"Casablanca, Morocco","JG28+WMJ, Casablanca, Morocco",33.60232970000001,-7.483358399999998
ALLIANZ MOHAMMEDIA AL RACHID ASSURANCE,ALLIANZ,"Casablanca, Morocco","Boulevard Mohammed VI, Mohammedia, Morocco",33.6967772,-7.367524599999999
Allianz,ALLIANZ,"Casablanca, Morocco","Lotissement Miftah N°2, Mediouna, Morocco",33.4541103,-7.515462200000002
Zurich Assurances Maroc,ALLIANZ,"Casablanca, Morocco","H9VJ+M8G City Park Center106, Rue Abderrahman Sahraoui, Casablanca 20100, Morocco",33.5941867,-7.619170500000001
ASSURANCES EL JOUNAIDI,ALLIANZ,"Casablanca, Morocco","LITTORAL 2 N° 9 DAR BOUAZZA CASA, Nouasseur 27223, Morocco",33.5218981,-7.817228500000001
IDYANE ASSURE,ALLIANZ,"Casablanca, Morocco","RUE 16 N 5 ANGLE BD EL KHALIL HAY MLY ABDELLLAH, Casablanca 20000, Morocco",33.5338589,-7.5831493
Yanitri Assurances Sarl,ALLIANZ,"Casablanca, Morocco","131 Boulevard Mouad Ben Jabal Mansour 2 Katafa, Casablanca, Casablanca 20100, Morocco",33.6108685,-7.5041167
Allianz,ALLIANZ,"Casablanca, Morocco","N°358, Lot El Wahda, 1er Etage, App 1, Mohammédia, Morocco",33.682562,-7.386412999999999
Allianz Assurance Lahcen,ALLIANZ,"Casablanca, Morocco","Lotissement 104-106 H Iminwaday N°15 ( a coté de BIM, Berrchid 26100, Morocco",33.26897339999999,-7.584285100000001
AXA Assurance Maroc,ALLIANZ,"Casablanca, Morocco","120 Bd Hassan II, Casablanca 20250, Morocco",33.5851874,-7.6231677
FOCUS Assurance,ALLIANZ,"Casablanca, Morocco","3 Rue Abou Al Wakt Khalaf, Casablanca 20250, Morocco",33.59555880000001,-7.646034699999999
Allianz Assurances,ALLIANZ,"Casablanca, Morocco","57 Lotissement Boutayna, Bouznika 13100, Morocco",33.7764046,-7.160328999999999
Assurances khouili,ALLIANZ,"Casablanca, Morocco","250 Boulevard Joudar n 3 imm chakoury Hay, Casablanca 20670, Morocco",33.5684512,-7.532263800000001
Allianz,ALLIANZ,"Casablanca, Morocco","App N°4, Lotissement 211, Hay El Qods, Berrchid, Morocco",33.26095900000001,-7.575529599999999
Abrar Assurances,ALLIANZ,"Casablanca, Morocco","ADDAMANE 102, GH 12, Av. de Dakhla, Casablanca 20100, Morocco",33.54136570000001,-7.6039612
iCoral Assurance Maroc,ALLIANZ,"Casablanca, Morocco","17, rue mimosas ( ex rue des écoles), Beauséjour, (proche bd ghandi, Casablanca 20200, Morocco",33.5701353,-7.645914599999999
AtlantaSanad Assurance,AtlantaSanad,"Casablanca, Morocco","181 Bd d'Anfa, Casablanca 20100, Morocco",33.5899972,-7.637437100000001
AtlantaSanad Assurance,AtlantaSanad,"Casablanca, Morocco","H9MP+8F5, Bd de la Résistance, Casablanca 20250, Morocco",33.5832509,-7.613766999999998
AtlantaSanad Assurance,AtlantaSanad,"Casablanca, Morocco","1 Rue 3 Lotissement Avenir, entre Bd Nice et en face des Résidences Alyoussr, Av. Ahmed Charci, Casablanca 20250, Morocco",33.5970713,-7.651953499999999
Compagnie d'Assurances SANAD,AtlantaSanad,"Casablanca, Morocco","181 Bd d'Anfa, Casablanca 20250, Morocco",33.5902496,-7.637568799999999
Bureau Direct Haj Fateh - AtlantaSanad,AtlantaSanad,"Casablanca, Morocco","Lotissement Habiba, N°86 Bd Haj Fateh, Casablanca 20260, Morocco",33.5402646,-7.6764689
AtlantaSanad Assurance,AtlantaSanad,"Casablanca, Morocco","251 Bd Commandant Driss Al Harti, Casablanca, Morocco",33.5451716,-7.577737200000001
AtlantaSanad Assurance,AtlantaSanad,"Casablanca, Morocco","Casablanca, Morocco",33.5350685,-7.578789899999999
AtlantaSanad Assurance,AtlantaSanad,"Casablanca, Morocco","Alaman 1 Addoha, Av. Mohamed Balafrej, Casablanca 20250, Morocco",33.5842544,-7.524977499999999
AtlantaSanad Assurance,AtlantaSanad,"Casablanca, Morocco","Rue 21 N8 Hay My Abdelah, Casablanca, Morocco",33.5481279,-7.6016398
AtlantaSanad Assurance,AtlantaSanad,"Casablanca, Morocco","G8QX+RW5, Casablanca, Morocco",33.53952340000001,-7.6501363
Assurance Loughzal.ATLANTA,AtlantaSanad,"Casablanca, Morocco","132 Ennasser Yamna 20250, Av. Mohamed Balafrej, Casablanca 20250, Morocco",33.5860785,-7.525299
AtlantaSanad Assurance Riad Sofia,AtlantaSanad,"Casablanca, Morocco","groupe n4 ENTREE N5 RIAD SOFIA, Casablanca, Morocco",33.5184668,-7.677446499999999
AtlantaSanad Assurance,AtlantaSanad,"Casablanca, Morocco","HC7R+287, Av. Mohamed Bouziane, Casablanca 20670, Morocco",33.5625418,-7.5592063
Agence Adlouni AtlantaSanad,AtlantaSanad,"Casablanca, Morocco","173 Bd Abou Chouaib Doukkali, Casablanca 20320, Morocco",33.56731500000001,-7.586778999999999
AtlantaSanad assurances OUM EL KHEIR,AtlantaSanad,"Casablanca, Morocco","253 Av. Lalla Asmaa, Casablanca 20250, Morocco",33.5803979,-7.542952100000001
AtlantaSanad Assurance,AtlantaSanad,"Casablanca, Morocco","Ard Driss 4,Mag N° 4 (Près de la Gare ferroviaire)، P3009, Bouskoura 25100, Morocco",33.4584966,-7.651367299999998
AtlantaSanad Assurance,AtlantaSanad,"Casablanca, Morocco","7, Boulevard de Palestine, Bd Al Houria, Mohammédia, Morocco",33.6902535,-7.381755699999999
AXA Assurance Maroc,AXA,"Casablanca, Morocco","120 Bd Hassan II, Casablanca 20250, Morocco",33.5851874,-7.6231677
Axa Assurance,AXA,"Casablanca, Morocco","11 Avenue Taoujtat, Casablanca 20000, Morocco",33.5944435,-7.641770999999999
Axa Assurance,AXA,"Casablanca, Morocco","267 Bd Mohamed Zerktouni, Casablanca 20100, Morocco",33.5918646,-7.6367974
Cabinet d’Assurances FARIS,AXA,"Casablanca, Morocco","73 Av. Houmane El Fetouaki, Casablanca 20080, Morocco",33.5935349,-7.613393100000001
Ste Boufrouri Assurances Axa Sarl,AXA,"Casablanca, Morocco","80 Boulevard Hassan Ii Quartier Centre Ville, Al Hoceima, Casablanca 20100, Morocco",33.5904302,-7.619612399999999
hanane kamal assurance (agent AXA),AXA,"Casablanca, Morocco","Rue de Craonne, Casablanca 20250, Morocco",33.5903568,-7.598299799999999
Assurance voyage AXA,AXA,"Casablanca, Morocco","5 Rue Ahmed Enassiri, Casablanca 20250, Morocco",33.57931449999999,-7.625860500000001
Axa crédit Casablanca - Hassan II,AXA,"Casablanca, Morocco","N°, 120-122 Bd Hassan II, Casablanca 20000, Morocco",33.5852941,-7.6227325
Axa Assurance Chamila,AXA,"Casablanca, Morocco","HCC4+9GW, Casablanca 20250, Morocco",33.5709869,-7.593678499999998
ASSURANCES CHAMI,AXA,"Casablanca, Morocco","32 Rue Sidi Belyout, à côté de l'hôtel Royal Mansour, Angle Av. des FAR, Casablanca 20000, Morocco",33.5974503,-7.6139252
Assurances Oum Rabii,AXA,"Casablanca, Morocco","Rue 78, Numero 10 et 12, Bd Oued Oum Rabia, Casablanca, Morocco",33.5561194,-7.683013
Axa Credit,AXA,"Casablanca, Morocco","225 Bd Mohammed V, Casablanca 20250, Morocco",33.5942611,-7.610333199999999
Seddiki Assurances,AXA,"Casablanca, Morocco","4 Rue Al Bachir Al Ibrahimi Gauthier, Casablanca, Casablanca 20100, Morocco",33.58784439999999,-7.603880699999999
AXA Kimassur,AXA,"Casablanca, Morocco","836 Bd El Qods, Casablanca 20150, Morocco",33.5332315,-7.6139262
GRLC ASSURANCE,AXA,"Casablanca, Morocco","Angle Bd Moulay Youssef et Hassan 1er, Résidence Sourour, Etg 3, Apt 11B, Casablanca 20000, Morocco",33.5916312,-7.627028299999998
PREVAXE Assurances,AXA,"Casablanca, Morocco","134, Angle Boulevard Bir Anzarane et Rue A. El Joumari، Résidence Aya - Maarif،، Dar-el-Beida 20330, Morocco",33.5818458,-7.639098599999999
"ASSURANCES ""GROUPASSUR""",AXA,"Casablanca, Morocco","1, PLACE DE L'ISTIQLAL (EX PLACE MIRABEAU), Casablanca, Morocco",33.5964579,-7.603657100000001
Axa Assurance ain chok,AXA,"Casablanca, Morocco","1, Casablanca, Morocco",33.53878879999999,-7.584105599999998
Assurances Derb Omar S.A.R.L.,AXA,"Casablanca, Morocco","Rue De Strasbourg Ang. Rue Moha Ou Hammou N?52 Derb Omar, Casablanca 20100, Morocco",33.59242479999999,-7.6116104
AXA Assurance ES-SAADA,AXA,"Casablanca, Morocco","HCRJ+GJ5, Casablanca 20250, Morocco",33.5912695,-7.568400999999999
Axa Assurance,AXA,"Casablanca, Morocco","HC75+C7W, Casablanca, Morocco",33.5636026,-7.591793699999998
AXA Assistance Maroc,AXA,"Casablanca, Morocco","409 Rte d'El Jadida, Casablanca, Morocco",33.5570512,-7.644041999999999
AXA Futur Assurance,AXA,"Casablanca, Morocco","45 Bd Ghandi, Casablanca 20250, Morocco",33.5763648,-7.6523169
Cap'assur S.a.r.l.,AXA,"Casablanca, Morocco","661, Bd De Goulmima, Bourgogne, Grand Casablanca, 20000, Casabla, Casablanca 20100, Morocco",33.6006845,-7.635558899999999
Assurances Haider,AXA,"Casablanca, Morocco","164 BD AMBASSADEUR BEN AÏCHA, ROCHES NOIRES، Dar-el-Beida 20303, Morocco",33.6000208,-7.5884391
أكسا التأمين المغرب، المكتب المباشر إفريقيا، الدارالبيضاء.,AXA,"Casablanca, Morocco","386 Av. Al Wahda Al Ifriquia, Casablanca, Morocco",33.5567133,-7.5856049
Bmf Assurances Axa,AXA,"Casablanca, Morocco","H9M5+4VC, Rue Abou Ishak Oijjaj, Casablanca, Morocco",33.5828038,-7.6403629
EMERGENCE ASSURANCE CONSEIL,AXA,"Casablanca, Morocco","84 Rue d'Agadir, Casablanca 20140, Morocco",33.583585,-7.619385099999998
"BK ASSURANCES, agent général AXA",AXA,"Casablanca, Morocco","Résidence Abouab Oum Rabii, Angle rue oum rabii et, N° 15, Rte Moulay Thami, Casablanca 20250, Morocco",33.5626363,-7.668845399999999
Assurance Mostafa el maani,AXA,"Casablanca, Morocco","35 Rue Al Woroud, Casablanca 20250, Morocco",33.584409,-7.6211812
Axa Assurance,AXA,"Casablanca, Morocco","N 159, MLEK DANDOUNE, ROUTE SIDI MASOUD CT 1100, SIDI MAAROUF, 1100 ‫شارع سيدي معروف، Casablanca, Morocco",33.5146761,-7.648507
ASK ASSURANCE,AXA,"Casablanca, Morocco","40 Bd Moulay Youssef, Casablanca 20300, Morocco",33.59300989999999,-7.628019800000001
AXA / Comptoir Professionnel des Assurances,AXA,"Casablanca, Morocco","Résidence el koutoubia Imm 5 local commercial N.1, Hay Ennassim، Dar-el-Beida 20190, Morocco",33.526144,-7.659748
ASSURANCES HJIEJ,AXA,"Casablanca, Morocco","61, av de l Armee Royale, 1er et., Sidi Belyout, Casablanca 20250, Morocco",33.5971644,-7.6131894
ASSURANCES ATTASSAHOUL,AXA,"Casablanca, Morocco","H9X4+PQJ, Casablanca 20250, Morocco",33.5993264,-7.6431187
ACTIVASSUR,AXA,"Casablanca, Morocco","235 Bd Yacoub El Mansour, Casablanca 20100, Morocco",33.5696633,-7.6515397
ASSURANCES RADA,AXA,"Casablanca, Morocco","Unnamed Road, Casablanca 20250, Morocco",33.5885717,-7.575327100000001
POLASSUR - Assureur Conseil - société de Courtage en Assurances à Casablanca,AXA,"Casablanca, Morocco","40 Bd de la Résistance, Casablanca 20000, Morocco",33.593959,-7.60385
Axa Assurance,AXA,"Casablanca, Morocco","275 BD LALLA ASMAA, Casablanca 20400, Morocco",33.5848033,-7.5193093
Axa Assurance,AXA,"Casablanca, Morocco","639 Bd Dakhla, Casablanca, Morocco",33.54808939999999,-7.569651200000001
Epega Assurances,AXA,"Casablanca, Morocco","48 Rue d'Alger, Casablanca 20250, Morocco",33.5916593,-7.6250432
Axa Assurance,AXA,"Casablanca, Morocco","G8MH+62M, Bd jbel Toubqal, Casablanca, Morocco",33.5330887,-7.6724376
أكسا للتأمين، تأمينات بسام، البرنوصي.,AXA,"Casablanca, Morocco","10 Rue 13 Quartier Tarik, JF4J+MGX, Casablanca 20000, Morocco",33.60658469999999,-7.518622100000001
CAPITALYS Assurance,AXA,"Casablanca, Morocco","n°10, Parc Walili, 185 Bd Abdelmoumen, Casablanca 20360, Morocco",33.5742549,-7.625587200000001
Assurances Hormat,AXA,"Casablanca, Morocco","80, Bd Moulay Ismaïl, 1°Ét., Casablanca 20290, Morocco",33.5978883,-7.586989299999999
Bureau Direct ES-SAADA - AXA ASSURACES MAROC,AXA,"Casablanca, Morocco","271, Boulevard Chouhada, Bloc 17, Casablanca 20320, Casablanca 20320, Morocco",33.583714,-7.5724098
Compagnie Africaine d'assurances S A,AXA,"Casablanca, Morocco","Bd Hassan II, Casablanca 20250, Morocco",33.5875787,-7.621171599999998
Axa Assurance,AXA,"Casablanca, Morocco","JG39+C23 Esp.barcelone, Casablanca, Morocco",33.6035037,-7.482461600000001
Axa Assurance,AXA,"Casablanca, Morocco","HFCM+4PJ, Casablanca 20250, Morocco",33.570343,-7.5157198
Axa assurance maroc,AXA,"Casablanca, Morocco","G77R+QFH, Casablanca 20250, Morocco",33.5698669,-7.6514699
INARA assurances,AXA,"Casablanca, Morocco","80 Rue de Sijilmassa, Casablanca 20250, Morocco",33.5920812,-7.592267799999998
Saxess Assurances,AXA,"Casablanca, Morocco","82, Bd Abdelmoumen, Casablanca 20100, Morocco",33.5758776,-7.6259576
SCASCO تأمينات,AXA,"Casablanca, Morocco","261,bd Abdelmoumen Appt.9 Imm A, Etage 3, Casablanca 20100, Morocco",33.5712749,-7.625737499999999
axa assurance ain sebaa,AXA,"Casablanca, Morocco","JF35+PCF, Casablanca 20250, Morocco",33.60431169999999,-7.541442300000001
Assurisma S.A.R.L.,AXA,"Casablanca, Morocco","10, Avenue Du Deux Mars, 2°Ét., Casablanca 20100, Morocco",33.58253300000001,-7.615033000000002
Assurance M2A (AXA),AXA,"Casablanca, Morocco","HCMW+4FR, Casablanca 20670, Morocco",33.5828651,-7.553861800000001
Assurance Zerktouni,AXA,"Casablanca, Morocco","H9X6+FJP, Bd de Bourgogne, Casablanca 20250, Morocco",33.5987143,-7.6384363
assurance el oulfa rma el archi,AXA,"Casablanca, Morocco","239 Bd Oued Tensift, Casablanca 20220, Morocco",33.55419250000001,-7.6799493
Assurances Ad-Damane,AXA,"Casablanca, Morocco","62, Rue Haj Amar Riffi, 1°Ét., Casablanca 20100, Morocco",33.5865728,-7.615535800000001
Morocco assu,AXA,"Casablanca, Morocco","179, 1Er, Boulevard Moulay Hassan I, Casablanca 20100, Morocco",33.5914593,-7.626965999999999
CAT Assurance et Réassurance,CAT,"Casablanca, Morocco","6 Lotissement la colline, Casablanca, Morocco",33.537155,-7.641933100000002
Cat assurance,CAT,"Casablanca, Morocco","394 Bd d'Afghanistan, Casablanca, Morocco",33.57075149999999,-7.6775142
3D CAT SARL Prototypage rapide & Impression 3D,CAT,"Casablanca, Morocco","21 Rue Michel Ange, Casablanca 20250, Morocco",33.5912312,-7.63781
Pet Market Maroc,CAT,"Casablanca, Morocco","15 Rue des Camélias, Casablanca 20380, Morocco",33.57371479999999,-7.643139899999998
Animalerie Sam,CAT,"Casablanca, Morocco","en face de Alpha, 55 74 Av. Mers Sultan, Casablanca 20250, Morocco",33.5886674,-7.618432499999999
Animalerie Pierre Parent,CAT,"Casablanca, Morocco","49 Rue Pierre Parent, Casablanca 20250, Morocco",33.5944777,-7.606370699999998
Animalerie Haj Fateh,CAT,"Casablanca, Morocco","G8VF+87V, Casablanca, Morocco",33.5433561,-7.6768363
Cabinet d'avocats TABIH - C.A.T law firm -,CAT,"Casablanca, Morocco","50 Rue Tata, Casablanca 20080, Morocco",33.5926021,-7.617566099999999
Cat food,CAT,"Casablanca, Morocco","3 Rue Souleimane el Farissi, Casablanca 20250, Morocco",33.58692219999999,-7.581371600000001
Animalerie PetSpace,CAT,"Casablanca, Morocco","Rue Abou El Hassan Es-Séghir, Casablanca 20370, Morocco",33.5751878,-7.6487226
Animalkom Maarif,CAT,"Casablanca, Morocco","15 Rue Abou Moussa El Jazouli، Dar-el-Beida 20250, Morocco",33.5844403,-7.640581600000001
Animalerie - Pets Boutique,CAT,"Casablanca, Morocco","24 Rue El Kaïssi, Casablanca 20250, Morocco",33.5924516,-7.644812499999998
Animal Planet,CAT,"Casablanca, Morocco","22 Bd Sidi Abderrahmane, Casablanca 20200, Morocco",33.5655342,-7.6487323
Animalerie Kat&Robie,CAT,"Casablanca, Morocco","H9MQ+V88, Rue Hadj Omar Riffi, Casablanca 20250, Morocco",33.5846584,-7.6116807
La passion canine val fleuri,CAT,"Casablanca, Morocco","10 Rue Georges Sand, Casablanca 20250, Morocco",33.5762825,-7.638362300000001
LE PETZY,CAT,"Casablanca, Morocco","Villa 6, lotissement vermont les cretes près du, Bd Panoramique, Casablanca, Morocco",33.5510829,-7.6261592
ANIMAL HOME,CAT,"Casablanca, Morocco","DERB EL MITER 02, RUE 11، ط و 9، Dar-el-Beida 20550, Morocco",33.5661412,-7.6098243
CAT Assurance et Réassurance bureau direct hay mohamadi,CAT,"Casablanca, Morocco","HCMQ+82C, Casablanca 20250, Morocco",33.58330869999999,-7.5624883
Carrefour Market Palmier,CAT,"Casablanca, Morocco","Bd 9 Avril, Casablanca 20250, Morocco",33.5823291,-7.628542499999999
Canin Cat Jio,CAT,"Casablanca, Morocco","G5FV+PXP, Tamaris, Morocco",33.5243418,-7.805039499999999
"Pet Me ! Boutique pour chiens & chats. Shop, Café & Toilettage.",CAT,"Casablanca, Morocco","Quartier Les Princesses, 73 Rue Ibnou Assakir, Casablanca, Morocco",33.5790912,-7.649713999999999
Black Cat,CAT,"Casablanca, Morocco","H85J+3JP, Casablanca, Morocco",33.5577244,-7.6684205
magasin cat,CAT,"Casablanca, Morocco","H9M9+M72, Casablanca 20250, Morocco",33.5841438,-7.631862999999999
magasin CAT chaussures,CAT,"Casablanca, Morocco","G9F2+WHJ, Bd 60, Casablanca, Morocco",33.5248373,-7.648612299999999
التعاضدية الفلاحية والتعاضدية المركزية,MAMDA,"Casablanca, Morocco","98 Bd Lahcen Ou Ider, Casablanca 20100, Morocco",33.5847277,-7.609426
التعاضدية المركزية والتعاضدية الفلاحية، وكالة 2 مارس، مرس السلطان.,MAMDA,"Casablanca, Morocco","H9FP+543, Av. 2 Mars, Casablanca 20250, Morocco",33.57287919999999,-7.614700399999999
MAMDA & MCMA BOURGOGNE,MAMDA,"Casablanca, Morocco","Bd de Bourgogne, Casablanca 20250, Morocco",33.598148,-7.6440542
Mamda Mcma Casa Abdelmoumen,MAMDA,"Casablanca, Morocco","av des pléiades, Étage 2, Porte droite, Bd Abdelmoumen, Casablanca 20000, Morocco",33.5734164,-7.625726999999999
MAMDA_MCMA : Mutuelle Agricole Marocaine D'Assurance,MAMDA,"Casablanca, Morocco","Ang Boulevard Ba Hmad et Rue César Franck, Casablanca 20250, Morocco",33.5932068,-7.588489300000002
مامدا، وكالة سقراط، الدارالبيضاء المعاريف.,MAMDA,"Casablanca, Morocco","1-3، Les résidences MASUREL, Rue Socrate, Dar-el-Beida 20380, Morocco",33.57561109999999,-7.6433311
تأمينات مامدا,MAMDA,"Casablanca, Morocco","lot N°7، ETG RDC، lot El khozama، Dar-el-Beida 20220, Morocco",33.5391362,-7.680982299999998
Mamda Mcma 2 Mars,MAMDA,"Casablanca, Morocco","immeuble n120, rdc l, Av. 2 Mars, Casablanca 20502, Morocco",33.5739253,-7.614487200000002
Mamda Mcma Casa A,MAMDA,"Casablanca, Morocco","80 bd de la resistance, Casablanca 20000, Morocco",33.5755696,-7.6434688
التعاضدية الفلاحية والتعاضدية المركزية,MAMDA,"Casablanca, Morocco","GH1 IMM3 C9, Av. Abou Bakr el Kadiri, Casablanca 20520, Morocco",33.527005,-7.649622
التعاضدية الفلاحية والتعاضدية المركزية، وكالة البرنوصي.,MAMDA,"Casablanca, Morocco","110, amal 3 boulevard abi dar ghaffarie, Casablanca 20610, Morocco",33.606936,-7.517066000000002
Mamda,MAMDA,"Casablanca, Morocco","2ème Etage Appt 16, 78 Bd de la Résistance, Casablanca 20250, Morocco",33.59242,-7.6037963
MAMDA MCMA MAEM Sbata,MAMDA,"Casablanca, Morocco","Av Oued Eddahab, Casablanca 20000, Morocco",33.5394875,-7.575855799999999
MCMA MAMDA,MAMDA,"Casablanca, Morocco","254, hay salama 3 20700, Av. Mohamed Bouziane, Casablanca 20670, Morocco",33.5631377,-7.557429200000002
MAMDA-MCMA ERRAHMA,MAMDA,"Casablanca, Morocco","G7PF+JQ3, Madinat Arrahma, Morocco",33.5364613,-7.7256856
Mamda Mcma Bouskoura,MAMDA,"Casablanca, Morocco","rdc résidence jasmine gh 11 i5 m2 route, p3011, Casablanca 27182, Morocco",33.46637,-7.64587
التعاضدية الفلاحية و التعاضدية المركزية,MAMDA,"Casablanca, Morocco","38 Rue Omar Slaoui، Dar-el-Beida 20250, Morocco",33.58640639999999,-7.621384499999999
Mamda Mcma Sidi Othmane,MAMDA,"Casablanca, Morocco","240 boulevard bouziane propieté sanaa 71 rdc, Casablanca 20700, Morocco",33.56320499999999,-7.557483
MAMDA-MCMA,MAMDA,"Casablanca, Morocco","Av. Mohammed VI, Rabat 10020, Morocco",33.9990298,-6.827199500000001
Mamda-Mcma Anasi,MAMDA,"Casablanca, Morocco","HGV2+VHJ, Bd Mohamed Zefzaf, Casablanca, Morocco",33.59462,-7.498600799999998
Mamda Mcma Errahma,MAMDA,"Casablanca, Morocco","lot 145 fbt, Casablanca 20570, Morocco",33.53162,-7.728129999999998
تأمينات مامدا,MAMDA,"Casablanca, Morocco","Angle Boulevard Abdelmoumen, FFPX+2HQ, rue des pléiades, Casablanca, Morocco",33.4850853,-7.5010254
MCMA MAEM Belvédère,MAMDA,"Casablanca, Morocco","Immeuble Yassine, 14 Rue de Sijilmassa, Casablanca 20000, Morocco",33.5947409,-7.593747
MAMDA MCMA MAEM Mohammedia,MAMDA,"Casablanca, Morocco","MJVC+M8C, P3313, Mohammédia, Morocco",33.69418009999999,-7.379247200000001
Mutuelle Agricole Marocaine D'Assurances (M.A.M.D.A.),MAMDA,"Casablanca, Morocco","Av. Abou Inane, Rabat, Morocco",34.0172038,-6.8333062
MAMDA_MCMA : Mutuelle Agricole Marocaine D'Assurance,MAMDA,"Casablanca, Morocco","idriss 1er, 325 Ave Moulay Ali Chrif, Témara 12000, Morocco",33.93058599999999,-6.897138
MAMDA MCMA MAEM BERRECHID,MAMDA,"Casablanca, Morocco","17 Bd Mohamed 5, Berrchid, Morocco",33.268687,-7.584317100000002
MAMDA MCMA,MAMDA,"Casablanca, Morocco","Av. Ouali Al Had Sidi Mohamed, Salé, Morocco",34.0514251,-6.812044299999998
Mamda,MAMDA,"Casablanca, Morocco","Mamda, Telangana 504310, India",19.0785561,78.5215523
Mamda,MAMDA,"Casablanca, Morocco","7C79+H8R, Berrechid, Morocco",33.2638893,-7.5816962
la marocaine vie,MAROCAINE VIE,"Casablanca, Morocco","H9RC+HWQ, Bd Moulay Youssef, Casablanca 20250, Morocco",33.5914707,-7.627627899999998
Matu Assurance,MATU,"Casablanca, Morocco","215 Bd Mohamed Zerktouni, Casablanca 20100, Morocco",33.5887327,-7.6340876
Matu Office,MATU,"Casablanca, Morocco","40 Bd d'Anfa, Casablanca 20250, Morocco",33.5951804,-7.627278
Matu Assurance,MATU,"Casablanca, Morocco","Av. Abdellah Senhaji, Casablanca 20320, Morocco",33.56589999999999,-7.589126800000001
Matu Assurance,MATU,"Casablanca, Morocco","ANGLE BD CHEFCHAOUNI ET RUE L, EGLISE JEAN D'ARC, Casablanca, Morocco",33.5563041,-7.5702924
Matu Assurance,MATU,"Casablanca, Morocco","ET 266, N° 264 Bd Oued Tensift, Casablanca, Morocco",33.552965,-7.684208
Matu Assurance,MATU,"Casablanca, Morocco","263 Bd de la Grande Ceinture, Casablanca 20670, Morocco",33.58281580000001,-7.5579054
Matu Assurance,MATU,"Casablanca, Morocco","N° 72, HAY Rajaa, 2 Av. des Forces Auxiliaires, Casablanca 20670, Morocco",33.5744417,-7.5508498
Matu Assurance,MATU,"Casablanca, Morocco","Bd Bouziane, Résidence FARHATINE N° 207 et 209 Salama 3, Casablanca 20670, Morocco",33.56319149999999,-7.558277599999998
Matu Assurance,MATU,"Casablanca, Morocco","87 AL, BD DAKHLA, Rue 10 Jamila 3, Casablanca, Morocco",33.5429502,-7.578385199999999
Matu Assurance,MATU,"Casablanca, Morocco","Av. Abou Bakr el Kadiri, Casablanca, Morocco",33.5177681,-7.653808700000001
Matu Assurance,MATU,"Casablanca, Morocco","N°, RESIDENCE ILHAM, 58 Rue 64, Casablanca 20250, Morocco",33.5600946,-7.6907742
Matu Assurance,MATU,"Casablanca, Morocco","LOTISSEMENT ENNASR N° 3, Casablanca, Morocco",33.5875639,-7.524647400000001
Centre Rma Service,RMA,"Casablanca, Morocco","15 Rue Omar Slaoui، Dar-el-Beida 20670, Morocco",33.5883325,-7.6188292
"RMA, Headquarters, Casablanca.",RMA,"Casablanca, Morocco","Av. des FAR, Casablanca, Morocco",33.5970867,-7.611310199999999
Rma Capital,RMA,"Casablanca, Morocco","H9WP+RVG, Av. des FAR, Casablanca 20100, Morocco",33.5970624,-7.612809199999998
RMA Assurance,RMA,"Casablanca, Morocco","83, Av. de l'Arm?e Royale -, Casablanca 20000, Morocco",33.595981,-7.6119642
RMA Assurance,RMA,"Casablanca, Morocco","G9J2+XVP, Casablanca, Morocco",33.532471,-7.647796100000001
RMA INTEGRITE ASSURANCES,RMA,"Casablanca, Morocco","12 Résidence KOUTOUBIA Nassim, Casablanca 20190, Morocco",33.5247283,-7.659877299999999
RMA Assurance,RMA,"Casablanca, Morocco","91 Bd Moulay Hassan I, Casablanca 20100, Morocco",33.59455839999999,-7.6209303
RMA Assurance,RMA,"Casablanca, Morocco","83 Avenue des Forces Armées Royales, Casablanca 20250, Morocco",33.57310289999999,-7.5898116
Assurance RMA Maarif Al Hikma,RMA,"Casablanca, Morocco","32 Boulevard Bir Anzarane, Casablanca, Morocco",33.58081049999999,-7.637597199999999
RMA - MAROC ASSURANCES,RMA,"Casablanca, Morocco","Angle Bd. 2 Mars et Bd. Al Qods Rés. Al Majd, Imm. E, Casablanca 20450, Morocco",33.53922449999999,-7.600769100000001
RMA,RMA,"Casablanca, Morocco","153 Bd Moulay Idriss I, Casablanca 20250, Morocco",33.5722559,-7.618439900000001
RMA Watanya,RMA,"Casablanca, Morocco","GCP7+CCC, Casablanca 20500, Morocco",33.5360696,-7.586486899999998
RMA LA FRATERNITE,RMA,"Casablanca, Morocco","GCX6+FJ2 Rue Alkhalil, Rue 300 Hay Moulay Abdellah, Casablanca, Morocco",33.5486435,-7.588475199999998
الملكية المغربية للتأمين، تأمينات التعاون، الحي الحسني.,RMA,"Casablanca, Morocco","25, Bd Sidi Abderrahman, Hay El Hanaa, Casablanca 20100, Morocco",33.5763292,-7.6725273
RMA Assurance RASSURA,RMA,"Casablanca, Morocco","HFH5+6FM, Av. Lalla Asmaa, Casablanca 20250, Morocco",33.5780932,-7.541322800000001
Rma Wataniya (Bgd Essaouira,RMA,"Casablanca, Morocco","H9VM+99H, Rue du Prince Moulay Abdellah, Casablanca 20100, Morocco",33.5934265,-7.616512900000002
RMA Assurance,RMA,"Casablanca, Morocco","G9R5+P2F, Zénith, Casablanca, Morocco",33.541817,-7.642447000000001
الملكية المغربية للتأمين، تأمينات جيرس.,RMA,"Casablanca, Morocco","54, Bd De La Grande Ceinture (H.Mohammadi), n°1Bis Hay Taiba, 1er étage، Dar-el-Beida 20100, Morocco",33.5819805,-7.5612501
Assurances Riah,RMA,"Casablanca, Morocco","87 . Lotissement Iminwaday- H, Berrechid, Berrechid 20000, Morocco",33.554352,-7.591980999999998
Services Techniques D'Assurances Et De Gestion,RMA,"Casablanca, Morocco","22, Bd Moulay Youssef, 2°Ét., 21000 Quartier: Lusitania, Casabla, 22 Bd Moulay Youssef, Casablanca 20100, Morocco",33.5924459,-7.627580300000001
Agence Vecteur Assurances RMA,RMA,"Casablanca, Morocco","N°, LOTISSEMENT HABIBA, 210 Bd Laymoune, Casablanca 20260, Morocco",33.5405429,-7.6756141
RMA Assurance,RMA,"Casablanca, Morocco","HFJG+H55, Casablanca, Morocco",33.5813848,-7.524500499999999
Rma Watanya Projet Mpls (Standard),RMA,"Casablanca, Morocco","8 Avenue Achariate El Masjid, Oued Eddahab, Casablanca 20100, Morocco",33.5394284,-7.575508399999999
RMA olkom assurance,RMA,"Casablanca, Morocco","G8W9+RJR, Rdpt Chahdia, Casablanca 20240, Morocco",33.5471083,-7.6809749
Assurance RMA ABOUAB DAR BOUAZZA,RMA,"Casablanca, Morocco","H824+CHJ, Casablanca, Morocco",33.5510813,-7.693624600000001
Conseil Pro Assurance,RMA,"Casablanca, Morocco","Ecole Hay Essalam, Benslimane 20250, Morocco",33.5645458,-7.602056900000001
RMA ASSURANCE SEBKI,RMA,"Casablanca, Morocco","RES LAOUIJA, CENTRE, Bouskoura, Morocco",33.45301539999999,-7.6493916
assurance el oulfa rma el archi,RMA,"Casablanca, Morocco","239 Bd Oued Tensift, Casablanca 20220, Morocco",33.55419250000001,-7.6799493
Point Assur S.a.r.l.,RMA,"Casablanca, Morocco","Q. Gauthier, 37 Rue Moussa Ben Noussair, Casablanca 20100, Morocco",33.5895392,-7.629025399999998
Assurance Almaarifa RMA,RMA,"Casablanca, Morocco","Anassi 22 Nr 15 El Bernossi Casablanca،, Casablanca, Morocco",33.5897112,-7.496698400000001
RMA SALAMA CASA,RMA,"Casablanca, Morocco","JFGW+G95, Casablanca 20250, Morocco",33.6392001,-7.5234977
RMA,RMA,"Casablanca, Morocco","9F69+X6C, Nouaceur, Morocco",33.3624458,-7.531938300000002
التعاضدية الفلاحية والتعاضدية المركزية,MCMA,"Casablanca, Morocco","98 Bd Lahcen Ou Ider, Casablanca 20100, Morocco",33.5847277,-7.609426
التعاضدية الفلاحية و التعاضدية المركزية,MCMA,"Casablanca, Morocco","38 Rue Omar Slaoui، Dar-el-Beida 20250, Morocco",33.58640639999999,-7.621384499999999
Mamda Mcma Casa Abdelmoumen,MCMA,"Casablanca, Morocco","av des pléiades, Étage 2, Porte droite, Bd Abdelmoumen, Casablanca 20000, Morocco",33.5734164,-7.625726999999999
التعاضدية المركزية والتعاضدية الفلاحية، وكالة 2 مارس، مرس السلطان.,MCMA,"Casablanca, Morocco","H9FP+543, Av. 2 Mars, Casablanca 20250, Morocco",33.57287919999999,-7.614700399999999
MAMDA_MCMA : Mutuelle Agricole Marocaine D'Assurance,MCMA,"Casablanca, Morocco","Ang Boulevard Ba Hmad et Rue César Franck, Casablanca 20250, Morocco",33.5932068,-7.588489300000002
مامدا، وكالة سقراط، الدارالبيضاء المعاريف.,MCMA,"Casablanca, Morocco","1-3، Les résidences MASUREL, Rue Socrate, Dar-el-Beida 20380, Morocco",33.57561109999999,-7.6433311
MAMDA & MCMA BOURGOGNE,MCMA,"Casablanca, Morocco","Bd de Bourgogne, Casablanca 20250, Morocco",33.598148,-7.6440542
MCMA MAEM Belvédère,MCMA,"Casablanca, Morocco","Immeuble Yassine, 14 Rue de Sijilmassa, Casablanca 20000, Morocco",33.5947409,-7.593747
تأمينات مامدا,MCMA,"Casablanca, Morocco","lot N°7، ETG RDC، lot El khozama، Dar-el-Beida 20220, Morocco",33.5391362,-7.680982299999998
MAMDA MCMA MAEM Sbata,MCMA,"Casablanca, Morocco","Av Oued Eddahab, Casablanca 20000, Morocco",33.5394875,-7.575855799999999
Mamda Mcma Casa A,MCMA,"Casablanca, Morocco","80 bd de la resistance, Casablanca 20000, Morocco",33.5755696,-7.6434688
Mamda Mcma 2 Mars,MCMA,"Casablanca, Morocco","immeuble n120, rdc l, Av. 2 Mars, Casablanca 20502, Morocco",33.5739253,-7.614487200000002
التعاضدية الفلاحية والتعاضدية المركزية,MCMA,"Casablanca, Morocco","GH1 IMM3 C9, Av. Abou Bakr el Kadiri, Casablanca 20520, Morocco",33.527005,-7.649622
التعاضدية الفلاحية والتعاضدية المركزية، وكالة البرنوصي.,MCMA,"Casablanca, Morocco","110, amal 3 boulevard abi dar ghaffarie, Casablanca 20610, Morocco",33.606936,-7.517066000000002
Mamda Mcma Sidi Othmane,MCMA,"Casablanca, Morocco","240 boulevard bouziane propieté sanaa 71 rdc, Casablanca 20700, Morocco",33.56320499999999,-7.557483
MCMA MAMDA,MCMA,"Casablanca, Morocco","254, hay salama 3 20700, Av. Mohamed Bouziane, Casablanca 20670, Morocco",33.5631377,-7.557429200000002
MAMDA-MCMA,MCMA,"Casablanca, Morocco","Av. Mohammed VI, Rabat 10020, Morocco",33.9990298,-6.827199500000001
MAMDA-MCMA ERRAHMA,MCMA,"Casablanca, Morocco","G7PF+JQ3, Madinat Arrahma, Morocco",33.5364613,-7.7256856
Mamda Mcma Bouskoura,MCMA,"Casablanca, Morocco","rdc résidence jasmine gh 11 i5 m2 route, p3011, Casablanca 27182, Morocco",33.46637,-7.64587
Mamda-Mcma Anasi,MCMA,"Casablanca, Morocco","HGV2+VHJ, Bd Mohamed Zefzaf, Casablanca, Morocco",33.59462,-7.498600799999998
Mamda Mcma Errahma,MCMA,"Casablanca, Morocco","lot 145 fbt, Casablanca 20570, Morocco",33.53162,-7.728129999999998
MAMDA MCMA MAEM Mohammedia,MCMA,"Casablanca, Morocco","MJVC+M8C, P3313, Mohammédia, Morocco",33.69418009999999,-7.379247200000001
تأمينات مامدا,MCMA,"Casablanca, Morocco","Angle Boulevard Abdelmoumen, FFPX+2HQ, rue des pléiades, Casablanca, Morocco",33.4850853,-7.5010254
SAHAM Group,Saham,"Casablanca, Morocco","216 Bd Mohamed Zerktouni, Casablanca 20100, Morocco",33.587924,-7.632682400000001
Check auto saham,Saham,"Casablanca, Morocco","H9PC+C3F, Bd Mohamed Zerktouni, Casablanca 20250, Morocco",33.586059,-7.629825299999999
Sanlam - Bureau Direct Siège,Saham,"Casablanca, Morocco","216 Bd Mohamed Zerktouni, Casablanca 20000, Morocco",33.58799630000001,-7.6326898
Saham Digital Factory,Saham,"Casablanca, Morocco","117 Avenue Hassan II, et la, Rue d'Agadir, Casablanca 20250, Morocco",33.58735619999999,-7.6210346
Assurance Racine / Saham Assurance,Saham,"Casablanca, Morocco","Rue angle Rue Le Titien, Casablanca, Morocco",33.5759692,-7.636433199999999
Sanlam Assurance,Saham,"Casablanca, Morocco","Boulevard Emile Zola, Angle rue de Lille et rue Abdelwahab Ezzakak، H9RX+M6F, Dar-el-Beida 20000, Morocco",33.5916902,-7.601963599999999
Sanlam - Assurances Haddaouia,Saham,"Casablanca, Morocco","angle av 2 mars & panomarique, haddaouia 3, n°, 5 Rue 30، Casablanca 20000, Morocco",33.5531137,-7.6036978
Sanlam - Am Assurances,Saham,"Casablanca, Morocco","144 Boulevard de madrid (en face lycée med v, Casablanca 20000, Morocco",33.57872629999999,-7.614486500000001
Saham Holding,Saham,"Casablanca, Morocco","H8QJ+6R2, All. Des Erables, Casablanca, Morocco",33.5880052,-7.667988999999999
سانلام للتأمين,Saham,"Casablanca, Morocco","Lotissement de la CIVIM, Lot n° 131 QI, Casablanca, Morocco",33.5411814,-7.6435624
"SAHAM Assurance , Casa sud Sidi Maarouf",Saham,"Casablanca, Morocco","Boulevard 1209 Magasin, 270 Rte de Bouskoura, Casablanca 20000, Morocco",33.5114294,-7.656167499999999
Sanlam Assurance,Saham,"Casablanca, Morocco","Casablanca 20250, Morocco",33.59089730000001,-7.627345099999999
Assurances saham,Saham,"Casablanca, Morocco","G8CC+M7X, Casablanca, Morocco",33.5217494,-7.679258399999999
Agence Assurances Arrahma SAHAM,Saham,"Casablanca, Morocco","Boulevard taza , rue 89, numéro 112 Hay mly Abdellah, Casablanca, Morocco",33.54355220000001,-7.593907199999999
ASSURANCES ELBERNOUSSI SABIMA SAHAM,Saham,"Casablanca, Morocco","JF3J+755 Cte Police Ber, Casablanca 20250, Morocco",33.603134,-7.519509999999999
Sanlam - Solidaire Assurance,Saham,"Casablanca, Morocco","Sahat sraghna, 127, 129 Pl. Sraghna, Casablanca 20000, Morocco",33.5698485,-7.601330099999998
Sanlam - Assurance Al Ayamine,Saham,"Casablanca, Morocco","Sidi Moumen Jdid - Groupe 4 - Boulevard Nassiba Binte Kaab n° 52, Casablanca 20000, Morocco",33.589269,-7.618604900000001
Sanlam - Assurances Oudassur,Saham,"Casablanca, Morocco","Angle Boulevard Abdelmoumen et rue Bachir Laalaj 1er étage Appartement N°1, Casablanca 20000, Morocco",33.5718472,-7.626864299999998
GO ASSUR | SAHAM Assurance,Saham,"Casablanca, Morocco","prés de lydec Dar Touzani, 147 Av. Abdellah Senhaji, Casablanca, Morocco",33.55306640000001,-7.587387799999999
SAHAM CHÈQUE AUTO,Saham,"Casablanca, Morocco","HCXJ+Q55, Bd Moulay Ismaïl, Casablanca 20290, Morocco",33.5993967,-7.569519199999998
Wafa Assurance,Wafa assurance,"Casablanca, Morocco","1 Bd Abdelmoumen, Casablanca 20250, Morocco",33.5826224,-7.6235639
Wafa ASSURANCE OPTIMUM,Wafa assurance,"Casablanca, Morocco","127 Bd Moulay Youssef, Casablanca 20250, Morocco",33.5981381,-7.632278100000001
Wafa Assurances Andalouss,Wafa assurance,"Casablanca, Morocco","Rue Pierre Parent Quartier Fonciere, Casablanca, H9VR+QCR, Casablanca 20100, Morocco",33.59449549999999,-7.608976299999997
Assurance Mostafa el maani,Wafa assurance,"Casablanca, Morocco","35 Rue Al Woroud, Casablanca 20250, Morocco",33.584409,-7.6211812
Wafa Assurance,Wafa assurance,"Casablanca, Morocco","H9RF+364, Bd Moulay Youssef, Casablanca 20250, Morocco",33.5901464,-7.626917499999999
تأمين الوفاء، الاقتصادية للتأمين، المعاريف.,Wafa assurance,"Casablanca, Morocco","36 Boulevard Bir Anzarane, Casablanca, Morocco",33.58113029999999,-7.6379614
Wafa Assurance Assurance El Oualidi,Wafa assurance,"Casablanca, Morocco","166 bis Angle Bd Omar El Khayam et, Rue Al Oukhouane, Casablanca 20250, Morocco",33.5655286,-7.647336699999999
Wafa Assurance,Wafa assurance,"Casablanca, Morocco","H9PV+CRF, Bd de la Résistance, Casablanca 20250, Morocco",33.5860594,-7.605447700000003
Wafa Assurance,Wafa assurance,"Casablanca, Morocco","2 Bd Mohamed Zerktouni, Casablanca 20140, Morocco",33.5830796,-7.6165948
Wafa Assurance AL HAY AL HASSANI,Wafa assurance,"Casablanca, Morocco","Résidence Selma, Résidence Selma Oulfa، 102 Bd Oued Oum Rabia, Casablanca 20200, Morocco",33.5636515,-7.668231100000001
Wafa Assurance,Wafa assurance,"Casablanca, Morocco","185 Bd de Smara, Casablanca, Morocco",33.5396442,-7.593644899999997
تأمين الوفاء، تأمينات بنزيت، الحي الحسني.,Wafa assurance,"Casablanca, Morocco","H9C2+GHG, Bd Yacoub El Mansour, Casablanca, Morocco",33.5713157,-7.648560100000002
NOBLE ASSURANCE WAFA ASSURANCE,Wafa assurance,"Casablanca, Morocco","HC3F+99W, Casablanca, Morocco",33.5534831,-7.576561400000001
WAFA ASSURANCE ABDELKADER SAHRAOUI,Wafa assurance,"Casablanca, Morocco","74 Av. Abdelkader Essahraoui, Casablanca 20670, Morocco",33.5557661,-7.545416399999998
Wafa Assurance | تأمين الوفاء,Wafa assurance,"Casablanca, Morocco","Numéro 141 lot Moulat Thami Taha2 Quartier el Oulfa Hay Hassani Arrahma Sidi Maarouf Casa Anfa Laymoune Ain Diab, Casablanca 20220, Morocco",33.5529117,-7.689893099999998
Wafa Assurance - Bureau Direct Stendhal,Wafa assurance,"Casablanca, Morocco","Angle Bd.Stendhal, Res.Benber, Porte G, Rue Georges Sand, Casablanca 20390, Morocco",33.5768149,-7.6341933
تأمين الوفاء، تأمينات دار الحمراء، الحي الحسني.,Wafa assurance,"Casablanca, Morocco","rue 4 hay missimi, Casablanca 20250, Morocco",33.5701723,-7.671263199999998
Wafa IMA Assistance,Wafa assurance,"Casablanca, Morocco","No.2 Lotissement Mandarona Imm Casablanca Business Center, Casablanca 20270, Morocco",33.539472,-7.6435856
Assurances Derb Omar S.A.R.L.,Wafa assurance,"Casablanca, Morocco","Rue De Strasbourg Ang. Rue Moha Ou Hammou N?52 Derb Omar, Casablanca 20100, Morocco",33.59242479999999,-7.6116104
Bureau Direct LISSASFA WAFA ASSURANCES تأمين الوفاء وكالة ليساسفة,Wafa assurance,"Casablanca, Morocco","N° 216, 2eme etage , Bloc B, Lissasfa, Casablanca 20232, Morocco",33.5324184,-7.671252200000001
ASSURANCE GALLILEE,Wafa assurance,"Casablanca, Morocco","95 Rue Taha Hussein, Casablanca 20250, Morocco",33.59019289999999,-7.631074099999998
Assurances Boudad,Wafa assurance,"Casablanca, Morocco","1°Ét, 45 Bd d'Anfa, Casablanca 20100, Morocco",33.5943201,-7.628689399999999
ASSURANCES LA GARE,Wafa assurance,"Casablanca, Morocco","270 avenue al mahatta derb menjra, Casablanca 20250, Morocco",33.5751767,-7.5903643
WAKIL Assurances,Wafa assurance,"Casablanca, Morocco","HCM9+JFX, Casablanca 20320, Morocco",33.5841217,-7.581256900000001
ASSURANCES ATTASSAHOUL,Wafa assurance,"Casablanca, Morocco","H9X4+PQJ, Casablanca 20250, Morocco",33.5993264,-7.6431187
WAFA ASSURANCES,Wafa assurance,"Casablanca, Morocco","JG57+J77 AL AZHAR, Casablanca, Morocco",33.6090338,-7.4868283
Assurance Oulad Saleh Bouskoura,Wafa assurance,"Casablanca, Morocco","Lot Ennour N°113 ETG 1 Z.I Oulad Saleh Ennouacer, Casablanca 27182, Morocco",33.57308,-7.589776000000001
ASSURANCES ESSADRI,Wafa assurance,"Casablanca, Morocco","82 AVENUE DES FORCES AUXILIAIRES, Casablanca 20670, Morocco",33.5694804,-7.558045399999998
Assurances Safaa Mrani,Wafa assurance,"Casablanca, Morocco","Bd Victor Hugo, Casablanca 20100, Morocco",33.5787178,-7.609639100000001
Wafa assurance تأمينات الوفاء,Wafa assurance,"Casablanca, Morocco","22 Bd Oued Beht, Casablanca 20220, Morocco",33.5585828,-7.6779033
Assurances Ibn Sina,Wafa assurance,"Casablanca, Morocco","173, Bd Ibn Sina - Ex Avicenne, R?sid. El Baraka Gh16, Casablanca 20100, Morocco",33.586452,-7.648972
Wafa assurance,Wafa assurance,"Casablanca, Morocco","210 Bd Laymoune, Casablanca, Morocco",33.5406708,-7.675366099999999
Assurances El Fida (Fidassur),Wafa assurance,"Casablanca, Morocco","238 Bd El Fida, Casablanca 20000, Morocco",33.568156,-7.6042992
Wafa assurence تأمينات الوفاء,Wafa assurance,"Casablanca, Morocco","HC6M+4G4 Tribunal Adminstratif, Casablanca 20670, Morocco",33.56025059999999,-7.5661777
wafa assurance,Wafa assurance,"Casablanca, Morocco","JF4V+VVQ, Casablanca 20250, Morocco",33.607222,-7.505278
ASSURANCES NESMAOUI,Wafa assurance,"Casablanca, Morocco","Casablanca, Morocco",33.52579519999999,-7.6507681
Bureau Direct BOUSKOURA WAFA ASSURANCE تأمين الوفاء وكالة بوسكورة,Wafa assurance,"Casablanca, Morocco","F932+V2M, P3011, Bouskoura BOUSKOURA, Casablanca 20300, Morocco",33.4546515,-7.6499091
WAFA assurances,Wafa assurance,"Casablanca, Morocco","HC5V+6CV, Bd Commandant Driss Al Harti, Casablanca 20670, Morocco",33.5581158,-7.556439699999999
WAFA Assurance NADIASSUR,Wafa assurance,"Casablanca, Morocco","JG97+QGJ, Bd Allait Ibn Asaad, Casablanca 20250, Morocco",33.6194598,-7.4862298
تأمين الوفاء، تأمينات بالمريس، المعاريف.,Wafa assurance,"Casablanca, Morocco","H997+V9M، Rue Théodore de Banville، Dar-el-Beida, Morocco",33.5697192,-7.636566
Wafa assurance,Wafa assurance,"Casablanca, Morocco","JF3J+F4G, Bd Moulay Mohamed El Bouamrani, Casablanca 20250, Morocco",33.6036993,-7.519667999999999
Wafa assurance,Wafa assurance,"Casablanca, Morocco","Unnamed Road, HGMC+GG8, Casablanca, Morocco",33.5837941,-7.478660099999999
Yamna Assurances,Wafa assurance,"Casablanca, Morocco","26, Bd Brahim Roudani, 3?Et., Grand Casablanca, 20000, Casablanc, Casablanca 20100, Morocco",33.5768232,-7.6381237
Wafa Assurance Dar Bouazza,Wafa assurance,"Casablanca, Morocco","Lotissement Ansari, Tamaris 27223, Morocco",33.5220297,-7.815909200000001
AFA Assurances,Wafa assurance,"Casablanca, Morocco","38,RDC, Résidence Bensalem, 3 Rue de Barsac, Casablanca 20500, Morocco",33.5833425,-7.5975663
Palmarès Assurances,Wafa assurance,"Casablanca, Morocco","Angle Rue Bachir Laalej et Theodore Banville Resid. Rissala mag. 5، Dar-el-Beida, Morocco",33.5727414,-7.638747100000001
ASSURANCES BINE ELOUIDANE,Wafa assurance,"Casablanca, Morocco","315, 317 Bd Oued Oum Rabia, Casablanca 20220, Morocco",33.558572,-7.678040199999998
Wafa assurance,Wafa assurance,"Casablanca, Morocco","23 LOT WAFA 02 1ER ETAGE APPT B EN FACE DE LA CATHÉDRALE، Aïn Harrouda 28630, Morocco",33.638133,-7.449074
Assurance ELKODIA,Wafa assurance,"Casablanca, Morocco","120 Bd de la Grande Ceinture, Casablanca 20250, Morocco",33.5825525,-7.562222800000001
Wafa assurance (mon assureur),Wafa assurance,"Casablanca, Morocco","HC2J+HC5, Boulevard Al Joulane, Casablanca, Morocco",33.55139589999999,-7.568893599999999
CHIHAB ASSURANCES,Wafa assurance,"Casablanca, Morocco","BOUCHRA 11 IMMEUBLE C TRANCHE 1 NUMERO 19-03 AL AZHAR, Casablanca 20620, Morocco",33.5988321,-7.4887759
Benghazi Assurances,Wafa assurance,"Casablanca, Morocco","329 Résidence AL AMANE en face ENCG Casa، Dar-el-Beida 20350, Morocco",33.5936372,-7.532906700000001
African Reinsurance Brokers (ARB ASSURANCES),Wafa assurance,"Casablanca, Morocco","Boulevard Ghandi Ghandi Mall, Immeuble 7, Bureau n°3, 1er étage، Casablanca 20380, Morocco",33.5745468,-7.6504319
Assurances EL ANSARI Casablanca sarl,Wafa assurance,"Casablanca, Morocco","2 Bd Mohamed Zerktouni, Casablanca 20140, Morocco",33.5831096,-7.6166368
Wafa Assurance,Wafa assurance,"Casablanca, Morocco","7CF7+5FF, Berrechid, Morocco",33.2729309,-7.5863321
NADA Assurances,Wafa assurance,"Casablanca, Morocco","Bd El Qods, Casablanca, Morocco",33.53372,-7.612796999999998
ASSURANCE PREVASSUR,Wafa assurance,"Casablanca, Morocco","281 Bd Emile Zola, Casablanca 20250, Morocco",33.5953166,-7.594428999999999
Wafa Immobilier (Agence Casa Zerktouni),Wafa assurance,"Casablanca, Morocco","202 Boulevard Zerktouni Quartier Racine, Casablanca, Casablanca 20100, Morocco",33.5871029,-7.6314605
Assurances Ahmed Yassine,Wafa assurance,"Casablanca, Morocco","79 Bd Mouad Bnou Jabal, Casablanca 20250, Morocco",33.6103778,-7.5123048
AL WAKALA LITAAMINE,Wafa assurance,"Casablanca, Morocco","HFJ4+3H3, Casablanca 20250, Morocco",33.58012909999999,-7.543574500000001
أليانز المغرب، الدارالبيضاء.,ALLIANZ,"Rabat, Morocco","166 Bd Mohamed Zerktouni, Casablanca 20060, Morocco",33.5864346,-7.630316499999999
Assurances Porte D'anfa : Allianz Maroc,ALLIANZ,"Rabat, Morocco","41 Rue Mohamed Sediki, Casablanca 20250, Morocco",33.5931262,-7.634505099999999
Allianz Taawid Auto Siège,ALLIANZ,"Rabat, Morocco","168 Bd Mohamed Zerktouni, Casablanca 20060, Morocco",33.5862074,-7.630227199999998
Allianz,ALLIANZ,"Rabat, Morocco","31 Av. des FAR, Fès 20250, Morocco",33.5966579,-7.615322
California Insurance Agency - Allianz Morocco,ALLIANZ,"Rabat, Morocco","Bd El Qods, Casablanca, Morocco",33.5337605,-7.6122488
Bureau Direct Allianz Bourgogne,ALLIANZ,"Rabat, Morocco","125 Bd de Bourgogne, Casablanca 20250, Morocco",33.59739449999999,-7.645464199999998
Assurance Beaulieu ALLIANZ,ALLIANZ,"Rabat, Morocco","81, Boulevard Chefchaouni, à coté du marché vert & place tizi ousli, Casablanca 20250, Morocco",33.6069607,-7.538545699999998
allianz assurance,ALLIANZ,"Rabat, Morocco","HC43+G5H, Bd Panoramique, Casablanca, Morocco",33.5563012,-7.597000599999999
Assurance attajdid,ALLIANZ,"Rabat, Morocco","644 boulevard Oued debout, Casablanca 20200, Morocco",33.5512206,-7.6842194
ASSURANCES OULAD HADDOU / AGENT ALLIANZ,ALLIANZ,"Rabat, Morocco","137 LOTISSEMENT DANDOUNE, SIDI MAAROUF, Casablanca 20000, Morocco",33.5148407,-7.649052600000001
Allianz Taawid Auto Casablanca - Ain Sebaâ,ALLIANZ,"Rabat, Morocco","Route de Rabat (r.p. 1), Km 9,200, Casablanca 20250, Morocco",33.6034399,-7.5356122
Assurance allianz,ALLIANZ,"Rabat, Morocco","26 Bd Al Khalil, Casablanca, Morocco",33.54806389999999,-7.6010757
Arenassur Allianz,ALLIANZ,"Rabat, Morocco","Addamane 12, Av. de Dakhla, Casablanca, Morocco",33.5410371,-7.603702299999997
Asurance allianz,ALLIANZ,"Rabat, Morocco","382 Av. Reda Guedira, Casablanca, Morocco",33.5540002,-7.5758637
Nextcare Maroc,ALLIANZ,"Rabat, Morocco","1er étage, 28 Bd Al Massira Al Khadra, Casablanca 20100, Morocco",33.5869837,-7.636206199999998
DLOU ASSURANCES,ALLIANZ,"Rabat, Morocco","N 4 Bd Oued Draâ, Casablanca, Morocco",33.5567124,-7.6844245
BAB FES ASSURANCES (allianz maroc),ALLIANZ,"Rabat, Morocco","Ryad sofia Gh4 Imm 1 Rdc, Casablanca, Morocco",33.5226859,-7.679845699999998
Allianz,ALLIANZ,"Rabat, Morocco","Place Essalam Hay Essalam 2 GH 18. 2 résidence 5 N° 82, Casablanca, Morocco",33.5456752,-7.672936999999999
Allianz Casa Anfa Assurances,ALLIANZ,"Rabat, Morocco","113 bis Lotissement Habiba، Bd Haj Fateh, Dar-el-Beida 20016, Morocco",33.5486146,-7.684981200000001
Acmar,ALLIANZ,"Rabat, Morocco","104 Bd Abdellatif Ben Kaddour, Casablanca 20050, Morocco",33.5909124,-7.643880800000001
Assurances Le Chalet,ALLIANZ,"Rabat, Morocco","392 Bd Ibn Tachfine, Casablanca 20250, Morocco",33.58424580000001,-7.5726035
Assurances Oued Sebou,ALLIANZ,"Rabat, Morocco","185 Bd Oued Sebou, Casablanca, Morocco",33.55261170000001,-7.678639599999999
Assurances Amqor,ALLIANZ,"Rabat, Morocco","166 Av. Mehdi Ben Barka, Casablanca 20250, Morocco",33.6015195,-7.6427374
Lalla mariam Assurance Allianz,ALLIANZ,"Rabat, Morocco","HCF6+63W, Casablanca 20250, Morocco",33.57310289999999,-7.5898116
Allianz,ALLIANZ,"Rabat, Morocco","14 Avenue Moulay Rachid, Biougra, Morocco",33.5332852,-7.583423600000001
Assurance Allianz,ALLIANZ,"Rabat, Morocco","HC5V+6CV, Bd Commandant Driss Al Harti, Casablanca 20670, Morocco",33.5581158,-7.556439699999999
Assurance alianz rania,ALLIANZ,"Rabat, Morocco","G7H8+F4W, P3014, Arrahma, Morocco",33.5286168,-7.7349937
Allianz,ALLIANZ,"Rabat, Morocco","Lotissement Zine Essalam, Magasin N°31, Titt Mellilen, Morocco",33.55296499999999,-7.474701
assurance arbassur,ALLIANZ,"Rabat, Morocco","HC43+G5H, Bd Panoramique, Casablanca, Morocco",33.5563024,-7.5970014
Assurance Allianz Lalla mariam,ALLIANZ,"Rabat, Morocco","HC5V+6CV, Bd Commandant Driss Al Harti, Casablanca 20670, Morocco",33.5581158,-7.556439699999999
AKL ASSURANCES,ALLIANZ,"Rabat, Morocco","222 Bd Dakhla, Casablanca 20440, Morocco",33.5452262,-7.574566299999999
Allianz,ALLIANZ,"Rabat, Morocco","Garnaoui. Lotissement Essaâda, 114 Bd Mokhtar Ben Ahmed Al Guerraoui, Casablanca, Morocco",33.611426,-7.495052799999999
Bureau Direct d'Assurances Allianz Bouskoura,ALLIANZ,"Rabat, Morocco","Complexe résidentiel Bassatine immeuble 1, GH7A local 159, Bouskoura, Morocco",33.46750160000001,-7.665541799999999
Elakil assurances Allianz,ALLIANZ,"Rabat, Morocco","HG38+HMR, Tit Mellil, Morocco",33.5539948,-7.4833661
ALLIANCE TRAVEL,ALLIANZ,"Rabat, Morocco","47 Bd Sidi Mohamed Ben Abdellah, Casablanca 20250, Morocco",33.6034817,-7.6421389
Allianz Mohammedia Pro Assurances,ALLIANZ,"Rabat, Morocco","HAY EL FALAH BLOC 16 N°11, Mohammédia 28830, Morocco",33.6829415,-7.381412200000001
Maroc Assistance Internationale,ALLIANZ,"Rabat, Morocco","25 Bd Rachidi, Casablanca 20100, Morocco",33.5926628,-7.626657899999998
Euler Hermes,ALLIANZ,"Rabat, Morocco","37 Bd Abdellatif Ben Kaddour, Casablanca 20000, Morocco",33.5909182,-7.6437377
Sany Assurances Sarl,ALLIANZ,"Rabat, Morocco","77 Boulevard Akid El Allam Hay Moulay Rachid 2, Casablanca, Casablanca 20100, Morocco",33.5706962,-7.560773799999999
ASSURANCE ALLIANZ,ALLIANZ,"Rabat, Morocco","LOTISSEMENT MASSIRA FB 29, Mohammédia, Morocco",33.6967775,-7.367396200000001
Bedassur S.A.,ALLIANZ,"Rabat, Morocco","1°Ét, 10 Rue de Karachi, Casablanca 20100, Morocco",33.59498739999999,-7.604119499999999
Central Assur,ALLIANZ,"Rabat, Morocco","Ahm Loghlam Res Salam 2 Imm 1 Mag 3, Casablanca, Morocco",33.5884458,-7.485020999999998
AtlantaSanad Assurance,ALLIANZ,"Rabat, Morocco","H9MP+8F5, Bd de la Résistance, Casablanca 20250, Morocco",33.5832509,-7.613766999999998
Alinqad Assurance,ALLIANZ,"Rabat, Morocco","H9W4+Q42, Rue Aïn Chifa, Casablanca 20100, Morocco",33.596889,-7.644723000000001
Assurances Aglou,ALLIANZ,"Rabat, Morocco","JG28+WMJ, Casablanca, Morocco",33.60232970000001,-7.483358399999998
ALLIANZ MOHAMMEDIA AL RACHID ASSURANCE,ALLIANZ,"Rabat, Morocco","Boulevard Mohammed VI, Mohammedia, Morocco",33.6967772,-7.367524599999999
Allianz,ALLIANZ,"Rabat, Morocco","Lotissement Miftah N°2, Mediouna, Morocco",33.4541103,-7.515462200000002
Zurich Assurances Maroc,ALLIANZ,"Rabat, Morocco","H9VJ+M8G City Park Center106, Rue Abderrahman Sahraoui, Casablanca 20100, Morocco",33.5941867,-7.619170500000001
ASSURANCES EL JOUNAIDI,ALLIANZ,"Rabat, Morocco","LITTORAL 2 N° 9 DAR BOUAZZA CASA, Nouasseur 27223, Morocco",33.5218981,-7.817228500000001
IDYANE ASSURE,ALLIANZ,"Rabat, Morocco","RUE 16 N 5 ANGLE BD EL KHALIL HAY MLY ABDELLLAH, Casablanca 20000, Morocco",33.5338589,-7.5831493
Yanitri Assurances Sarl,ALLIANZ,"Rabat, Morocco","131 Boulevard Mouad Ben Jabal Mansour 2 Katafa, Casablanca, Casablanca 20100, Morocco",33.6108685,-7.5041167
Allianz,ALLIANZ,"Rabat, Morocco","N°358, Lot El Wahda, 1er Etage, App 1, Mohammédia, Morocco",33.682562,-7.386412999999999
Allianz Assurance Lahcen,ALLIANZ,"Rabat, Morocco","Lotissement 104-106 H Iminwaday N°15 ( a coté de BIM, Berrchid 26100, Morocco",33.26897339999999,-7.584285100000001
AXA Assurance Maroc,ALLIANZ,"Rabat, Morocco","120 Bd Hassan II, Casablanca 20250, Morocco",33.5851874,-7.6231677
FOCUS Assurance,ALLIANZ,"Rabat, Morocco","3 Rue Abou Al Wakt Khalaf, Casablanca 20250, Morocco",33.59555880000001,-7.646034699999999
Allianz Assurances,ALLIANZ,"Rabat, Morocco","57 Lotissement Boutayna, Bouznika 13100, Morocco",33.7764046,-7.160328999999999
Assurances khouili,ALLIANZ,"Rabat, Morocco","250 Boulevard Joudar n 3 imm chakoury Hay, Casablanca 20670, Morocco",33.5684512,-7.532263800000001
Allianz,ALLIANZ,"Rabat, Morocco","App N°4, Lotissement 211, Hay El Qods, Berrchid, Morocco",33.26095900000001,-7.575529599999999
Abrar Assurances,ALLIANZ,"Rabat, Morocco","ADDAMANE 102, GH 12, Av. de Dakhla, Casablanca 20100, Morocco",33.54136570000001,-7.6039612
iCoral Assurance Maroc,ALLIANZ,"Rabat, Morocco","17, rue mimosas ( ex rue des écoles), Beauséjour, (proche bd ghandi, Casablanca 20200, Morocco",33.5701353,-7.645914599999999
AtlantaSanad Assurance,AtlantaSanad,"Rabat, Morocco","181 Bd d'Anfa, Casablanca 20100, Morocco",33.5899972,-7.637437100000001
AtlantaSanad Assurance,AtlantaSanad,"Rabat, Morocco","H9MP+8F5, Bd de la Résistance, Casablanca 20250, Morocco",33.5832509,-7.613766999999998
AtlantaSanad Assurance,AtlantaSanad,"Rabat, Morocco","1 Rue 3 Lotissement Avenir, entre Bd Nice et en face des Résidences Alyoussr, Av. Ahmed Charci, Casablanca 20250, Morocco",33.5970713,-7.651953499999999
Compagnie d'Assurances SANAD,AtlantaSanad,"Rabat, Morocco","181 Bd d'Anfa, Casablanca 20250, Morocco",33.5902496,-7.637568799999999
Bureau Direct Haj Fateh - AtlantaSanad,AtlantaSanad,"Rabat, Morocco","Lotissement Habiba, N°86 Bd Haj Fateh, Casablanca 20260, Morocco",33.5402646,-7.6764689
AtlantaSanad Assurance,AtlantaSanad,"Rabat, Morocco","251 Bd Commandant Driss Al Harti, Casablanca, Morocco",33.5451716,-7.577737200000001
AtlantaSanad Assurance,AtlantaSanad,"Rabat, Morocco","Casablanca, Morocco",33.5350685,-7.578789899999999
AtlantaSanad Assurance,AtlantaSanad,"Rabat, Morocco","Alaman 1 Addoha, Av. Mohamed Balafrej, Casablanca 20250, Morocco",33.5842544,-7.524977499999999
AtlantaSanad Assurance,AtlantaSanad,"Rabat, Morocco","Rue 21 N8 Hay My Abdelah, Casablanca, Morocco",33.5481279,-7.6016398
AtlantaSanad Assurance,AtlantaSanad,"Rabat, Morocco","G8QX+RW5, Casablanca, Morocco",33.53952340000001,-7.6501363
Assurance Loughzal.ATLANTA,AtlantaSanad,"Rabat, Morocco","132 Ennasser Yamna 20250, Av. Mohamed Balafrej, Casablanca 20250, Morocco",33.5860785,-7.525299
AtlantaSanad Assurance Riad Sofia,AtlantaSanad,"Rabat, Morocco","groupe n4 ENTREE N5 RIAD SOFIA, Casablanca, Morocco",33.5184668,-7.677446499999999
AtlantaSanad Assurance,AtlantaSanad,"Rabat, Morocco","HC7R+287, Av. Mohamed Bouziane, Casablanca 20670, Morocco",33.5625418,-7.5592063
Agence Adlouni AtlantaSanad,AtlantaSanad,"Rabat, Morocco","173 Bd Abou Chouaib Doukkali, Casablanca 20320, Morocco",33.56731500000001,-7.586778999999999
AtlantaSanad assurances OUM EL KHEIR,AtlantaSanad,"Rabat, Morocco","253 Av. Lalla Asmaa, Casablanca 20250, Morocco",33.5803979,-7.542952100000001
AtlantaSanad Assurance,AtlantaSanad,"Rabat, Morocco","Ard Driss 4,Mag N° 4 (Près de la Gare ferroviaire)، P3009, Bouskoura 25100, Morocco",33.4584966,-7.651367299999998
AtlantaSanad Assurance,AtlantaSanad,"Rabat, Morocco","7, Boulevard de Palestine, Bd Al Houria, Mohammédia, Morocco",33.6902535,-7.381755699999999
AXA Assurance Maroc,AXA,"Rabat, Morocco","120 Bd Hassan II, Casablanca 20250, Morocco",33.5851874,-7.6231677
Axa Assurance,AXA,"Rabat, Morocco","11 Avenue Taoujtat, Casablanca 20000, Morocco",33.5944435,-7.641770999999999
Axa Assurance,AXA,"Rabat, Morocco","267 Bd Mohamed Zerktouni, Casablanca 20100, Morocco",33.5918646,-7.6367974
Cabinet d’Assurances FARIS,AXA,"Rabat, Morocco","73 Av. Houmane El Fetouaki, Casablanca 20080, Morocco",33.5935349,-7.613393100000001
Ste Boufrouri Assurances Axa Sarl,AXA,"Rabat, Morocco","80 Boulevard Hassan Ii Quartier Centre Ville, Al Hoceima, Casablanca 20100, Morocco",33.5904302,-7.619612399999999
hanane kamal assurance (agent AXA),AXA,"Rabat, Morocco","Rue de Craonne, Casablanca 20250, Morocco",33.5903568,-7.598299799999999
Assurance voyage AXA,AXA,"Rabat, Morocco","5 Rue Ahmed Enassiri, Casablanca 20250, Morocco",33.57931449999999,-7.625860500000001
Axa crédit Casablanca - Hassan II,AXA,"Rabat, Morocco","N°, 120-122 Bd Hassan II, Casablanca 20000, Morocco",33.5852941,-7.6227325
Axa Assurance Chamila,AXA,"Rabat, Morocco","HCC4+9GW, Casablanca 20250, Morocco",33.5709869,-7.593678499999998
ASSURANCES CHAMI,AXA,"Rabat, Morocco","32 Rue Sidi Belyout, à côté de l'hôtel Royal Mansour, Angle Av. des FAR, Casablanca 20000, Morocco",33.5974503,-7.6139252
Assurances Oum Rabii,AXA,"Rabat, Morocco","Rue 78, Numero 10 et 12, Bd Oued Oum Rabia, Casablanca, Morocco",33.5561194,-7.683013
Axa Credit,AXA,"Rabat, Morocco","225 Bd Mohammed V, Casablanca 20250, Morocco",33.5942611,-7.610333199999999
Seddiki Assurances,AXA,"Rabat, Morocco","4 Rue Al Bachir Al Ibrahimi Gauthier, Casablanca, Casablanca 20100, Morocco",33.58784439999999,-7.603880699999999
AXA Kimassur,AXA,"Rabat, Morocco","836 Bd El Qods, Casablanca 20150, Morocco",33.5332315,-7.6139262
GRLC ASSURANCE,AXA,"Rabat, Morocco","Angle Bd Moulay Youssef et Hassan 1er, Résidence Sourour, Etg 3, Apt 11B, Casablanca 20000, Morocco",33.5916312,-7.627028299999998
PREVAXE Assurances,AXA,"Rabat, Morocco","134, Angle Boulevard Bir Anzarane et Rue A. El Joumari، Résidence Aya - Maarif،، Dar-el-Beida 20330, Morocco",33.5818458,-7.639098599999999
"ASSURANCES ""GROUPASSUR""",AXA,"Rabat, Morocco","1, PLACE DE L'ISTIQLAL (EX PLACE MIRABEAU), Casablanca, Morocco",33.5964579,-7.603657100000001
Axa Assurance ain chok,AXA,"Rabat, Morocco","1, Casablanca, Morocco",33.53878879999999,-7.584105599999998
Assurances Derb Omar S.A.R.L.,AXA,"Rabat, Morocco","Rue De Strasbourg Ang. Rue Moha Ou Hammou N?52 Derb Omar, Casablanca 20100, Morocco",33.59242479999999,-7.6116104
AXA Assurance ES-SAADA,AXA,"Rabat, Morocco","HCRJ+GJ5, Casablanca 20250, Morocco",33.5912695,-7.568400999999999
Axa Assurance,AXA,"Rabat, Morocco","HC75+C7W, Casablanca, Morocco",33.5636026,-7.591793699999998
AXA Assistance Maroc,AXA,"Rabat, Morocco","409 Rte d'El Jadida, Casablanca, Morocco",33.5570512,-7.644041999999999
AXA Futur Assurance,AXA,"Rabat, Morocco","45 Bd Ghandi, Casablanca 20250, Morocco",33.5763648,-7.6523169
Cap'assur S.a.r.l.,AXA,"Rabat, Morocco","661, Bd De Goulmima, Bourgogne, Grand Casablanca, 20000, Casabla, Casablanca 20100, Morocco",33.6006845,-7.635558899999999
Assurances Haider,AXA,"Rabat, Morocco","164 BD AMBASSADEUR BEN AÏCHA, ROCHES NOIRES، Dar-el-Beida 20303, Morocco",33.6000208,-7.5884391
أكسا التأمين المغرب، المكتب المباشر إفريقيا، الدارالبيضاء.,AXA,"Rabat, Morocco","386 Av. Al Wahda Al Ifriquia, Casablanca, Morocco",33.5567133,-7.5856049
Bmf Assurances Axa,AXA,"Rabat, Morocco","H9M5+4VC, Rue Abou Ishak Oijjaj, Casablanca, Morocco",33.5828038,-7.6403629
EMERGENCE ASSURANCE CONSEIL,AXA,"Rabat, Morocco","84 Rue d'Agadir, Casablanca 20140, Morocco",33.583585,-7.619385099999998
"BK ASSURANCES, agent général AXA",AXA,"Rabat, Morocco","Résidence Abouab Oum Rabii, Angle rue oum rabii et, N° 15, Rte Moulay Thami, Casablanca 20250, Morocco",33.5626363,-7.668845399999999
Assurance Mostafa el maani,AXA,"Rabat, Morocco","35 Rue Al Woroud, Casablanca 20250, Morocco",33.584409,-7.6211812
Axa Assurance,AXA,"Rabat, Morocco","N 159, MLEK DANDOUNE, ROUTE SIDI MASOUD CT 1100, SIDI MAAROUF, 1100 ‫شارع سيدي معروف، Casablanca, Morocco",33.5146761,-7.648507
ASK ASSURANCE,AXA,"Rabat, Morocco","40 Bd Moulay Youssef, Casablanca 20300, Morocco",33.59300989999999,-7.628019800000001
AXA / Comptoir Professionnel des Assurances,AXA,"Rabat, Morocco","Résidence el koutoubia Imm 5 local commercial N.1, Hay Ennassim، Dar-el-Beida 20190, Morocco",33.526144,-7.659748
ASSURANCES HJIEJ,AXA,"Rabat, Morocco","61, av de l Armee Royale, 1er et., Sidi Belyout, Casablanca 20250, Morocco",33.5971644,-7.6131894
ASSURANCES ATTASSAHOUL,AXA,"Rabat, Morocco","H9X4+PQJ, Casablanca 20250, Morocco",33.5993264,-7.6431187
ACTIVASSUR,AXA,"Rabat, Morocco","235 Bd Yacoub El Mansour, Casablanca 20100, Morocco",33.5696633,-7.6515397
ASSURANCES RADA,AXA,"Rabat, Morocco","Unnamed Road, Casablanca 20250, Morocco",33.5885717,-7.575327100000001
POLASSUR - Assureur Conseil - société de Courtage en Assurances à Casablanca,AXA,"Rabat, Morocco","40 Bd de la Résistance, Casablanca 20000, Morocco",33.593959,-7.60385
Axa Assurance,AXA,"Rabat, Morocco","275 BD LALLA ASMAA, Casablanca 20400, Morocco",33.5848033,-7.5193093
Axa Assurance,AXA,"Rabat, Morocco","639 Bd Dakhla, Casablanca, Morocco",33.54808939999999,-7.569651200000001
Epega Assurances,AXA,"Rabat, Morocco","48 Rue d'Alger, Casablanca 20250, Morocco",33.5916593,-7.6250432
Axa Assurance,AXA,"Rabat, Morocco","G8MH+62M, Bd jbel Toubqal, Casablanca, Morocco",33.5330887,-7.6724376
أكسا للتأمين، تأمينات بسام، البرنوصي.,AXA,"Rabat, Morocco","10 Rue 13 Quartier Tarik, JF4J+MGX, Casablanca 20000, Morocco",33.60658469999999,-7.518622100000001
CAPITALYS Assurance,AXA,"Rabat, Morocco","n°10, Parc Walili, 185 Bd Abdelmoumen, Casablanca 20360, Morocco",33.5742549,-7.625587200000001
Assurances Hormat,AXA,"Rabat, Morocco","80, Bd Moulay Ismaïl, 1°Ét., Casablanca 20290, Morocco",33.5978883,-7.586989299999999
Bureau Direct ES-SAADA - AXA ASSURACES MAROC,AXA,"Rabat, Morocco","271, Boulevard Chouhada, Bloc 17, Casablanca 20320, Casablanca 20320, Morocco",33.583714,-7.5724098
Compagnie Africaine d'assurances S A,AXA,"Rabat, Morocco","Bd Hassan II, Casablanca 20250, Morocco",33.5875787,-7.621171599999998
Axa Assurance,AXA,"Rabat, Morocco","JG39+C23 Esp.barcelone, Casablanca, Morocco",33.6035037,-7.482461600000001
Axa Assurance,AXA,"Rabat, Morocco","HFCM+4PJ, Casablanca 20250, Morocco",33.570343,-7.5157198
Axa assurance maroc,AXA,"Rabat, Morocco","G77R+QFH, Casablanca 20250, Morocco",33.5698669,-7.6514699
INARA assurances,AXA,"Rabat, Morocco","80 Rue de Sijilmassa, Casablanca 20250, Morocco",33.5920812,-7.592267799999998
Saxess Assurances,AXA,"Rabat, Morocco","82, Bd Abdelmoumen, Casablanca 20100, Morocco",33.5758776,-7.6259576
SCASCO تأمينات,AXA,"Rabat, Morocco","261,bd Abdelmoumen Appt.9 Imm A, Etage 3, Casablanca 20100, Morocco",33.5712749,-7.625737499999999
axa assurance ain sebaa,AXA,"Rabat, Morocco","JF35+PCF, Casablanca 20250, Morocco",33.60431169999999,-7.541442300000001
Assurisma S.A.R.L.,AXA,"Rabat, Morocco","10, Avenue Du Deux Mars, 2°Ét., Casablanca 20100, Morocco",33.58253300000001,-7.615033000000002
Assurance M2A (AXA),AXA,"Rabat, Morocco","HCMW+4FR, Casablanca 20670, Morocco",33.5828651,-7.553861800000001
Assurance Zerktouni,AXA,"Rabat, Morocco","H9X6+FJP, Bd de Bourgogne, Casablanca 20250, Morocco",33.5987143,-7.6384363
assurance el oulfa rma el archi,AXA,"Rabat, Morocco","239 Bd Oued Tensift, Casablanca 20220, Morocco",33.55419250000001,-7.6799493
Assurances Ad-Damane,AXA,"Rabat, Morocco","62, Rue Haj Amar Riffi, 1°Ét., Casablanca 20100, Morocco",33.5865728,-7.615535800000001
Morocco assu,AXA,"Rabat, Morocco","179, 1Er, Boulevard Moulay Hassan I, Casablanca 20100, Morocco",33.5914593,-7.626965999999999
CAT Assurance et Réassurance,CAT,"Rabat, Morocco","6 Lotissement la colline, Casablanca, Morocco",33.537155,-7.641933100000002
Cat assurance,CAT,"Rabat, Morocco","394 Bd d'Afghanistan, Casablanca, Morocco",33.57075149999999,-7.6775142
3D CAT SARL Prototypage rapide & Impression 3D,CAT,"Rabat, Morocco","21 Rue Michel Ange, Casablanca 20250, Morocco",33.5912312,-7.63781
Pet Market Maroc,CAT,"Rabat, Morocco","15 Rue des Camélias, Casablanca 20380, Morocco",33.57371479999999,-7.643139899999998
Animalerie Sam,CAT,"Rabat, Morocco","en face de Alpha, 55 74 Av. Mers Sultan, Casablanca 20250, Morocco",33.5886674,-7.618432499999999
Animalerie Pierre Parent,CAT,"Rabat, Morocco","49 Rue Pierre Parent, Casablanca 20250, Morocco",33.5944777,-7.606370699999998
Animalerie Haj Fateh,CAT,"Rabat, Morocco","G8VF+87V, Casablanca, Morocco",33.5433561,-7.6768363
Cabinet d'avocats TABIH - C.A.T law firm -,CAT,"Rabat, Morocco","50 Rue Tata, Casablanca 20080, Morocco",33.5926021,-7.617566099999999
Cat food,CAT,"Rabat, Morocco","3 Rue Souleimane el Farissi, Casablanca 20250, Morocco",33.58692219999999,-7.581371600000001
Animalerie PetSpace,CAT,"Rabat, Morocco","Rue Abou El Hassan Es-Séghir, Casablanca 20370, Morocco",33.5751878,-7.6487226
Animalkom Maarif,CAT,"Rabat, Morocco","15 Rue Abou Moussa El Jazouli، Dar-el-Beida 20250, Morocco",33.5844403,-7.640581600000001
Animalerie - Pets Boutique,CAT,"Rabat, Morocco","24 Rue El Kaïssi, Casablanca 20250, Morocco",33.5924516,-7.644812499999998
Animal Planet,CAT,"Rabat, Morocco","22 Bd Sidi Abderrahmane, Casablanca 20200, Morocco",33.5655342,-7.6487323
Animalerie Kat&Robie,CAT,"Rabat, Morocco","H9MQ+V88, Rue Hadj Omar Riffi, Casablanca 20250, Morocco",33.5846584,-7.6116807
La passion canine val fleuri,CAT,"Rabat, Morocco","10 Rue Georges Sand, Casablanca 20250, Morocco",33.5762825,-7.638362300000001
LE PETZY,CAT,"Rabat, Morocco","Villa 6, lotissement vermont les cretes près du, Bd Panoramique, Casablanca, Morocco",33.5510829,-7.6261592
ANIMAL HOME,CAT,"Rabat, Morocco","DERB EL MITER 02, RUE 11، ط و 9، Dar-el-Beida 20550, Morocco",33.5661412,-7.6098243
CAT Assurance et Réassurance bureau direct hay mohamadi,CAT,"Rabat, Morocco","HCMQ+82C, Casablanca 20250, Morocco",33.58330869999999,-7.5624883
Carrefour Market Palmier,CAT,"Rabat, Morocco","Bd 9 Avril, Casablanca 20250, Morocco",33.5823291,-7.628542499999999
Canin Cat Jio,CAT,"Rabat, Morocco","G5FV+PXP, Tamaris, Morocco",33.5243418,-7.805039499999999
"Pet Me ! Boutique pour chiens & chats. Shop, Café & Toilettage.",CAT,"Rabat, Morocco","Quartier Les Princesses, 73 Rue Ibnou Assakir, Casablanca, Morocco",33.5790912,-7.649713999999999
Black Cat,CAT,"Rabat, Morocco","H85J+3JP, Casablanca, Morocco",33.5577244,-7.6684205
magasin cat,CAT,"Rabat, Morocco","H9M9+M72, Casablanca 20250, Morocco",33.5841438,-7.631862999999999
magasin CAT chaussures,CAT,"Rabat, Morocco","G9F2+WHJ, Bd 60, Casablanca, Morocco",33.5248373,-7.648612299999999
التعاضدية الفلاحية والتعاضدية المركزية,MAMDA,"Rabat, Morocco","98 Bd Lahcen Ou Ider, Casablanca 20100, Morocco",33.5847277,-7.609426
التعاضدية المركزية والتعاضدية الفلاحية، وكالة 2 مارس، مرس السلطان.,MAMDA,"Rabat, Morocco","H9FP+543, Av. 2 Mars, Casablanca 20250, Morocco",33.57287919999999,-7.614700399999999
MAMDA & MCMA BOURGOGNE,MAMDA,"Rabat, Morocco","Bd de Bourgogne, Casablanca 20250, Morocco",33.598148,-7.6440542
Mamda Mcma Casa Abdelmoumen,MAMDA,"Rabat, Morocco","av des pléiades, Étage 2, Porte droite, Bd Abdelmoumen, Casablanca 20000, Morocco",33.5734164,-7.625726999999999
MAMDA_MCMA : Mutuelle Agricole Marocaine D'Assurance,MAMDA,"Rabat, Morocco","Ang Boulevard Ba Hmad et Rue César Franck, Casablanca 20250, Morocco",33.5932068,-7.588489300000002
مامدا، وكالة سقراط، الدارالبيضاء المعاريف.,MAMDA,"Rabat, Morocco","1-3، Les résidences MASUREL, Rue Socrate, Dar-el-Beida 20380, Morocco",33.57561109999999,-7.6433311
تأمينات مامدا,MAMDA,"Rabat, Morocco","lot N°7، ETG RDC، lot El khozama، Dar-el-Beida 20220, Morocco",33.5391362,-7.680982299999998
Mamda Mcma 2 Mars,MAMDA,"Rabat, Morocco","immeuble n120, rdc l, Av. 2 Mars, Casablanca 20502, Morocco",33.5739253,-7.614487200000002
Mamda Mcma Casa A,MAMDA,"Rabat, Morocco","80 bd de la resistance, Casablanca 20000, Morocco",33.5755696,-7.6434688
التعاضدية الفلاحية والتعاضدية المركزية,MAMDA,"Rabat, Morocco","GH1 IMM3 C9, Av. Abou Bakr el Kadiri, Casablanca 20520, Morocco",33.527005,-7.649622
التعاضدية الفلاحية والتعاضدية المركزية، وكالة البرنوصي.,MAMDA,"Rabat, Morocco","110, amal 3 boulevard abi dar ghaffarie, Casablanca 20610, Morocco",33.606936,-7.517066000000002
Mamda,MAMDA,"Rabat, Morocco","2ème Etage Appt 16, 78 Bd de la Résistance, Casablanca 20250, Morocco",33.59242,-7.6037963
MAMDA MCMA MAEM Sbata,MAMDA,"Rabat, Morocco","Av Oued Eddahab, Casablanca 20000, Morocco",33.5394875,-7.575855799999999
MCMA MAMDA,MAMDA,"Rabat, Morocco","254, hay salama 3 20700, Av. Mohamed Bouziane, Casablanca 20670, Morocco",33.5631377,-7.557429200000002
MAMDA-MCMA ERRAHMA,MAMDA,"Rabat, Morocco","G7PF+JQ3, Madinat Arrahma, Morocco",33.5364613,-7.7256856
Mamda Mcma Bouskoura,MAMDA,"Rabat, Morocco","rdc résidence jasmine gh 11 i5 m2 route, p3011, Casablanca 27182, Morocco",33.46637,-7.64587
التعاضدية الفلاحية و التعاضدية المركزية,MAMDA,"Rabat, Morocco","38 Rue Omar Slaoui، Dar-el-Beida 20250, Morocco",33.58640639999999,-7.621384499999999
Mamda Mcma Sidi Othmane,MAMDA,"Rabat, Morocco","240 boulevard bouziane propieté sanaa 71 rdc, Casablanca 20700, Morocco",33.56320499999999,-7.557483
MAMDA-MCMA,MAMDA,"Rabat, Morocco","Av. Mohammed VI, Rabat 10020, Morocco",33.9990298,-6.827199500000001
Mamda-Mcma Anasi,MAMDA,"Rabat, Morocco","HGV2+VHJ, Bd Mohamed Zefzaf, Casablanca, Morocco",33.59462,-7.498600799999998
Mamda Mcma Errahma,MAMDA,"Rabat, Morocco","lot 145 fbt, Casablanca 20570, Morocco",33.53162,-7.728129999999998
تأمينات مامدا,MAMDA,"Rabat, Morocco","Angle Boulevard Abdelmoumen, FFPX+2HQ, rue des pléiades, Casablanca, Morocco",33.4850853,-7.5010254
MCMA MAEM Belvédère,MAMDA,"Rabat, Morocco","Immeuble Yassine, 14 Rue de Sijilmassa, Casablanca 20000, Morocco",33.5947409,-7.593747
MAMDA MCMA MAEM Mohammedia,MAMDA,"Rabat, Morocco","MJVC+M8C, P3313, Mohammédia, Morocco",33.69418009999999,-7.379247200000001
Mutuelle Agricole Marocaine D'Assurances (M.A.M.D.A.),MAMDA,"Rabat, Morocco","Av. Abou Inane, Rabat, Morocco",34.0172038,-6.8333062
MAMDA_MCMA : Mutuelle Agricole Marocaine D'Assurance,MAMDA,"Rabat, Morocco","idriss 1er, 325 Ave Moulay Ali Chrif, Témara 12000, Morocco",33.93058599999999,-6.897138
MAMDA MCMA MAEM BERRECHID,MAMDA,"Rabat, Morocco","17 Bd Mohamed 5, Berrchid, Morocco",33.268687,-7.584317100000002
MAMDA MCMA,MAMDA,"Rabat, Morocco","Av. Ouali Al Had Sidi Mohamed, Salé, Morocco",34.0514251,-6.812044299999998
Mamda,MAMDA,"Rabat, Morocco","Mamda, Telangana 504310, India",19.0785561,78.5215523
Mamda,MAMDA,"Rabat, Morocco","7C79+H8R, Berrechid, Morocco",33.2638893,-7.5816962
la marocaine vie,MAROCAINE VIE,"Rabat, Morocco","H9RC+HWQ, Bd Moulay Youssef, Casablanca 20250, Morocco",33.5914707,-7.627627899999998
Matu Assurance,MATU,"Rabat, Morocco","215 Bd Mohamed Zerktouni, Casablanca 20100, Morocco",33.5887327,-7.6340876
Matu Office,MATU,"Rabat, Morocco","40 Bd d'Anfa, Casablanca 20250, Morocco",33.5951804,-7.627278
Matu Assurance,MATU,"Rabat, Morocco","Av. Abdellah Senhaji, Casablanca 20320, Morocco",33.56589999999999,-7.589126800000001
Matu Assurance,MATU,"Rabat, Morocco","ANGLE BD CHEFCHAOUNI ET RUE L, EGLISE JEAN D'ARC, Casablanca, Morocco",33.5563041,-7.5702924
Matu Assurance,MATU,"Rabat, Morocco","ET 266, N° 264 Bd Oued Tensift, Casablanca, Morocco",33.552965,-7.684208
Matu Assurance,MATU,"Rabat, Morocco","263 Bd de la Grande Ceinture, Casablanca 20670, Morocco",33.58281580000001,-7.5579054
Matu Assurance,MATU,"Rabat, Morocco","N° 72, HAY Rajaa, 2 Av. des Forces Auxiliaires, Casablanca 20670, Morocco",33.5744417,-7.5508498
Matu Assurance,MATU,"Rabat, Morocco","Bd Bouziane, Résidence FARHATINE N° 207 et 209 Salama 3, Casablanca 20670, Morocco",33.56319149999999,-7.558277599999998
Matu Assurance,MATU,"Rabat, Morocco","87 AL, BD DAKHLA, Rue 10 Jamila 3, Casablanca, Morocco",33.5429502,-7.578385199999999
Matu Assurance,MATU,"Rabat, Morocco","Av. Abou Bakr el Kadiri, Casablanca, Morocco",33.5177681,-7.653808700000001
Matu Assurance,MATU,"Rabat, Morocco","N°, RESIDENCE ILHAM, 58 Rue 64, Casablanca 20250, Morocco",33.5600946,-7.6907742
Matu Assurance,MATU,"Rabat, Morocco","LOTISSEMENT ENNASR N° 3, Casablanca, Morocco",33.5875639,-7.524647400000001
Centre Rma Service,RMA,"Rabat, Morocco","15 Rue Omar Slaoui، Dar-el-Beida 20670, Morocco",33.5883325,-7.6188292
"RMA, Headquarters, Casablanca.",RMA,"Rabat, Morocco","Av. des FAR, Casablanca, Morocco",33.5970867,-7.611310199999999
Rma Capital,RMA,"Rabat, Morocco","H9WP+RVG, Av. des FAR, Casablanca 20100, Morocco",33.5970624,-7.612809199999998
RMA Assurance,RMA,"Rabat, Morocco","83, Av. de l'Arm?e Royale -, Casablanca 20000, Morocco",33.595981,-7.6119642
RMA Assurance,RMA,"Rabat, Morocco","G9J2+XVP, Casablanca, Morocco",33.532471,-7.647796100000001
RMA INTEGRITE ASSURANCES,RMA,"Rabat, Morocco","12 Résidence KOUTOUBIA Nassim, Casablanca 20190, Morocco",33.5247283,-7.659877299999999
RMA Assurance,RMA,"Rabat, Morocco","91 Bd Moulay Hassan I, Casablanca 20100, Morocco",33.59455839999999,-7.6209303
RMA Assurance,RMA,"Rabat, Morocco","83 Avenue des Forces Armées Royales, Casablanca 20250, Morocco",33.57310289999999,-7.5898116
Assurance RMA Maarif Al Hikma,RMA,"Rabat, Morocco","32 Boulevard Bir Anzarane, Casablanca, Morocco",33.58081049999999,-7.637597199999999
RMA - MAROC ASSURANCES,RMA,"Rabat, Morocco","Angle Bd. 2 Mars et Bd. Al Qods Rés. Al Majd, Imm. E, Casablanca 20450, Morocco",33.53922449999999,-7.600769100000001
RMA,RMA,"Rabat, Morocco","153 Bd Moulay Idriss I, Casablanca 20250, Morocco",33.5722559,-7.618439900000001
RMA Watanya,RMA,"Rabat, Morocco","GCP7+CCC, Casablanca 20500, Morocco",33.5360696,-7.586486899999998
RMA LA FRATERNITE,RMA,"Rabat, Morocco","GCX6+FJ2 Rue Alkhalil, Rue 300 Hay Moulay Abdellah, Casablanca, Morocco",33.5486435,-7.588475199999998
الملكية المغربية للتأمين، تأمينات التعاون، الحي الحسني.,RMA,"Rabat, Morocco","25, Bd Sidi Abderrahman, Hay El Hanaa, Casablanca 20100, Morocco",33.5763292,-7.6725273
RMA Assurance RASSURA,RMA,"Rabat, Morocco","HFH5+6FM, Av. Lalla Asmaa, Casablanca 20250, Morocco",33.5780932,-7.541322800000001
Rma Wataniya (Bgd Essaouira,RMA,"Rabat, Morocco","H9VM+99H, Rue du Prince Moulay Abdellah, Casablanca 20100, Morocco",33.5934265,-7.616512900000002
RMA Assurance,RMA,"Rabat, Morocco","G9R5+P2F, Zénith, Casablanca, Morocco",33.541817,-7.642447000000001
الملكية المغربية للتأمين، تأمينات جيرس.,RMA,"Rabat, Morocco","54, Bd De La Grande Ceinture (H.Mohammadi), n°1Bis Hay Taiba, 1er étage، Dar-el-Beida 20100, Morocco",33.5819805,-7.5612501
Assurances Riah,RMA,"Rabat, Morocco","87 . Lotissement Iminwaday- H, Berrechid, Berrechid 20000, Morocco",33.554352,-7.591980999999998
Services Techniques D'Assurances Et De Gestion,RMA,"Rabat, Morocco","22, Bd Moulay Youssef, 2°Ét., 21000 Quartier: Lusitania, Casabla, 22 Bd Moulay Youssef, Casablanca 20100, Morocco",33.5924459,-7.627580300000001
Agence Vecteur Assurances RMA,RMA,"Rabat, Morocco","N°, LOTISSEMENT HABIBA, 210 Bd Laymoune, Casablanca 20260, Morocco",33.5405429,-7.6756141
Rma Watanya Projet Mpls (Standard),RMA,"Rabat, Morocco","8 Avenue Achariate El Masjid, Oued Eddahab, Casablanca 20100, Morocco",33.5394284,-7.575508399999999
RMA olkom assurance,RMA,"Rabat, Morocco","G8W9+RJR, Rdpt Chahdia, Casablanca 20240, Morocco",33.5471083,-7.6809749
RMA Assurance,RMA,"Rabat, Morocco","HFJG+H55, Casablanca, Morocco",33.5813848,-7.524500499999999
assurance el oulfa rma el archi,RMA,"Rabat, Morocco","239 Bd Oued Tensift, Casablanca 20220, Morocco",33.55419250000001,-7.6799493
Assurance RMA ABOUAB DAR BOUAZZA,RMA,"Rabat, Morocco","H824+CHJ, Casablanca, Morocco",33.5510813,-7.693624600000001
Conseil Pro Assurance,RMA,"Rabat, Morocco","Ecole Hay Essalam, Benslimane 20250, Morocco",33.5645458,-7.602056900000001
RMA ASSURANCE SEBKI,RMA,"Rabat, Morocco","RES LAOUIJA, CENTRE, Bouskoura, Morocco",33.45301539999999,-7.6493916
Assurance Almaarifa RMA,RMA,"Rabat, Morocco","Anassi 22 Nr 15 El Bernossi Casablanca،, Casablanca, Morocco",33.5897112,-7.496698400000001
Point Assur S.a.r.l.,RMA,"Rabat, Morocco","Q. Gauthier, 37 Rue Moussa Ben Noussair, Casablanca 20100, Morocco",33.5895392,-7.629025399999998
RMA SALAMA CASA,RMA,"Rabat, Morocco","JFGW+G95, Casablanca 20250, Morocco",33.6392001,-7.5234977
RMA,RMA,"Rabat, Morocco","9F69+X6C, Nouaceur, Morocco",33.3624458,-7.531938300000002
التعاضدية الفلاحية والتعاضدية المركزية,MCMA,"Rabat, Morocco","98 Bd Lahcen Ou Ider, Casablanca 20100, Morocco",33.5847277,-7.609426
التعاضدية الفلاحية و التعاضدية المركزية,MCMA,"Rabat, Morocco","38 Rue Omar Slaoui، Dar-el-Beida 20250, Morocco",33.58640639999999,-7.621384499999999
Mamda Mcma Casa Abdelmoumen,MCMA,"Rabat, Morocco","av des pléiades, Étage 2, Porte droite, Bd Abdelmoumen, Casablanca 20000, Morocco",33.5734164,-7.625726999999999
التعاضدية المركزية والتعاضدية الفلاحية، وكالة 2 مارس، مرس السلطان.,MCMA,"Rabat, Morocco","H9FP+543, Av. 2 Mars, Casablanca 20250, Morocco",33.57287919999999,-7.614700399999999
MAMDA_MCMA : Mutuelle Agricole Marocaine D'Assurance,MCMA,"Rabat, Morocco","Ang Boulevard Ba Hmad et Rue César Franck, Casablanca 20250, Morocco",33.5932068,-7.588489300000002
مامدا، وكالة سقراط، الدارالبيضاء المعاريف.,MCMA,"Rabat, Morocco","1-3، Les résidences MASUREL, Rue Socrate, Dar-el-Beida 20380, Morocco",33.57561109999999,-7.6433311
MAMDA & MCMA BOURGOGNE,MCMA,"Rabat, Morocco","Bd de Bourgogne, Casablanca 20250, Morocco",33.598148,-7.6440542
MCMA MAEM Belvédère,MCMA,"Rabat, Morocco","Immeuble Yassine, 14 Rue de Sijilmassa, Casablanca 20000, Morocco",33.5947409,-7.593747
تأمينات مامدا,MCMA,"Rabat, Morocco","lot N°7، ETG RDC، lot El khozama، Dar-el-Beida 20220, Morocco",33.5391362,-7.680982299999998
MAMDA MCMA MAEM Sbata,MCMA,"Rabat, Morocco","Av Oued Eddahab, Casablanca 20000, Morocco",33.5394875,-7.575855799999999
Mamda Mcma Casa A,MCMA,"Rabat, Morocco","80 bd de la resistance, Casablanca 20000, Morocco",33.5755696,-7.6434688
Mamda Mcma 2 Mars,MCMA,"Rabat, Morocco","immeuble n120, rdc l, Av. 2 Mars, Casablanca 20502, Morocco",33.5739253,-7.614487200000002
التعاضدية الفلاحية والتعاضدية المركزية,MCMA,"Rabat, Morocco","GH1 IMM3 C9, Av. Abou Bakr el Kadiri, Casablanca 20520, Morocco",33.527005,-7.649622
التعاضدية الفلاحية والتعاضدية المركزية، وكالة البرنوصي.,MCMA,"Rabat, Morocco","110, amal 3 boulevard abi dar ghaffarie, Casablanca 20610, Morocco",33.606936,-7.517066000000002
Mamda Mcma Sidi Othmane,MCMA,"Rabat, Morocco","240 boulevard bouziane propieté sanaa 71 rdc, Casablanca 20700, Morocco",33.56320499999999,-7.557483
MCMA MAMDA,MCMA,"Rabat, Morocco","254, hay salama 3 20700, Av. Mohamed Bouziane, Casablanca 20670, Morocco",33.5631377,-7.557429200000002
SAHAM Group,Saham,"Rabat, Morocco","216 Bd Mohamed Zerktouni, Casablanca 20100, Morocco",33.587924,-7.632682400000001
Check auto saham,Saham,"Rabat, Morocco","H9PC+C3F, Bd Mohamed Zerktouni, Casablanca 20250, Morocco",33.586059,-7.629825299999999
Sanlam - Bureau Direct Siège,Saham,"Rabat, Morocco","216 Bd Mohamed Zerktouni, Casablanca 20000, Morocco",33.58799630000001,-7.6326898
Saham Digital Factory,Saham,"Rabat, Morocco","117 Avenue Hassan II, et la, Rue d'Agadir, Casablanca 20250, Morocco",33.58735619999999,-7.6210346
Assurance Racine / Saham Assurance,Saham,"Rabat, Morocco","Rue angle Rue Le Titien, Casablanca, Morocco",33.5759692,-7.636433199999999
Sanlam Assurance,Saham,"Rabat, Morocco","Boulevard Emile Zola, Angle rue de Lille et rue Abdelwahab Ezzakak، H9RX+M6F, Dar-el-Beida 20000, Morocco",33.5916902,-7.601963599999999
Sanlam - Assurances Haddaouia,Saham,"Rabat, Morocco","angle av 2 mars & panomarique, haddaouia 3, n°, 5 Rue 30، Casablanca 20000, Morocco",33.5531137,-7.6036978
Sanlam - Am Assurances,Saham,"Rabat, Morocco","144 Boulevard de madrid (en face lycée med v, Casablanca 20000, Morocco",33.57872629999999,-7.614486500000001
Saham Holding,Saham,"Rabat, Morocco","H8QJ+6R2, All. Des Erables, Casablanca, Morocco",33.5880052,-7.667988999999999
سانلام للتأمين,Saham,"Rabat, Morocco","Lotissement de la CIVIM, Lot n° 131 QI, Casablanca, Morocco",33.5411814,-7.6435624
"SAHAM Assurance , Casa sud Sidi Maarouf",Saham,"Rabat, Morocco","Boulevard 1209 Magasin, 270 Rte de Bouskoura, Casablanca 20000, Morocco",33.5114294,-7.656167499999999
Sanlam Assurance,Saham,"Rabat, Morocco","Casablanca 20250, Morocco",33.59089730000001,-7.627345099999999
Assurances saham,Saham,"Rabat, Morocco","G8CC+M7X, Casablanca, Morocco",33.5217494,-7.679258399999999
Agence Assurances Arrahma SAHAM,Saham,"Rabat, Morocco","Boulevard taza , rue 89, numéro 112 Hay mly Abdellah, Casablanca, Morocco",33.54355220000001,-7.593907199999999
ASSURANCES ELBERNOUSSI SABIMA SAHAM,Saham,"Rabat, Morocco","JF3J+755 Cte Police Ber, Casablanca 20250, Morocco",33.603134,-7.519509999999999
Sanlam - Solidaire Assurance,Saham,"Rabat, Morocco","Sahat sraghna, 127, 129 Pl. Sraghna, Casablanca 20000, Morocco",33.5698485,-7.601330099999998
Sanlam - Assurance Al Ayamine,Saham,"Rabat, Morocco","Sidi Moumen Jdid - Groupe 4 - Boulevard Nassiba Binte Kaab n° 52, Casablanca 20000, Morocco",33.589269,-7.618604900000001
Sanlam - Assurances Oudassur,Saham,"Rabat, Morocco","Angle Boulevard Abdelmoumen et rue Bachir Laalaj 1er étage Appartement N°1, Casablanca 20000, Morocco",33.5718472,-7.626864299999998
GO ASSUR | SAHAM Assurance,Saham,"Rabat, Morocco","prés de lydec Dar Touzani, 147 Av. Abdellah Senhaji, Casablanca, Morocco",33.55306640000001,-7.587387799999999
SAHAM CHÈQUE AUTO,Saham,"Rabat, Morocco","HCXJ+Q55, Bd Moulay Ismaïl, Casablanca 20290, Morocco",33.5993967,-7.569519199999998
Saham Immobilier,Saham,"Rabat, Morocco","villa Le Palais, 76 Rue Du Corail, Casablanca 21000, Morocco",33.5952224,-7.665853
Sanlam - Assurances Nadassur,Saham,"Rabat, Morocco","Boulevard Abdelmoumen place charles nicolles imm.pasteur build, 2ème étage n°7, Casablanca 20000, Morocco",33.5734206,-7.6255392
Assurance Amana EAPS / SAHAM Assurance,Saham,"Rabat, Morocco","Casablanca Ain chock par boulevard qods a côté de la maison Renault imm 402، N 29-،Essafa Hay Omaria Casablanca, Bd El Qods, Casablanca 20000, Morocco",33.5335278,-7.611627100000002
Saham Immobilier (Almaz),Saham,"Rabat, Morocco","G85C+QCF, Rocade Sud-Ouest, Casablanca, Morocco",33.5094485,-7.678947799999998
Sanlam - Izassur,Saham,"Rabat, Morocco","218 Bd de la Grande Ceinture, Casablanca 20570, Morocco",33.5831136,-7.552634399999999
Sanlam - Assurances Sidi Maarouf,Saham,"Rabat, Morocco","Résidence médina n° 2 imm.j, Route 1029، Casablanca 20000, Morocco",33.5274215,-7.6497921
Saham,Saham,"Rabat, Morocco","Résidence Andalous N° 1 Imm 7, Bouskoura, Morocco",33.4604831,-7.6460106
HOULM ASSURANCE - AGENT GENERAL SANLAM ASSURANCE (SAHAM ASSURANCE),Saham,"Rabat, Morocco","N°8 (A coté Café Kounouz), RDC Cooperative Ibnou Yassine , Boulevard Qods، Rue 187 Hay Moulay Abdellah, Dar-el-Beida 20610, Morocco",33.5427359,-7.585707800000001
saham Assurance,Saham,"Rabat, Morocco","Lotissement de la CIVIM, Lot n° 131 QI, Casablanca, Morocco",33.5411814,-7.6435624
Sanlam - Assurances Amlal,Saham,"Rabat, Morocco","2éme Etage n° 3, 65 Rue National, Casablanca 20000, Morocco",33.5925063,-7.615545000000002
Assurances Bassamate (Saham Assurance),Saham,"Rabat, Morocco","Casablanca 20250, Morocco",33.6155176,-7.500729300000001
Sanlam Assurance,Saham,"Rabat, Morocco","HF99+3G7, Casablanca 20670, Morocco",33.5676728,-7.5312138
Sanlam - Assurances El Ghribe,Saham,"Rabat, Morocco","85, angle boulevard yacoub el mansour, 4eme étage, 11, rue nassiheddine, Casablanca 20000, Morocco",33.5746255,-7.642699499999998
Sanlam - Seffar Assurances,Saham,"Rabat, Morocco","RDC Magasin 2, 13 Rue de Metz, Casablanca 20000, Morocco",33.58495080000001,-7.608035600000001
Wafa Assurance,Wafa assurance,"Rabat, Morocco","1 Bd Abdelmoumen, Casablanca 20250, Morocco",33.5826224,-7.6235639
Wafa ASSURANCE OPTIMUM,Wafa assurance,"Rabat, Morocco","127 Bd Moulay Youssef, Casablanca 20250, Morocco",33.5981381,-7.632278100000001
Wafa Assurances Andalouss,Wafa assurance,"Rabat, Morocco","Rue Pierre Parent Quartier Fonciere, Casablanca, H9VR+QCR, Casablanca 20100, Morocco",33.59449549999999,-7.608976299999997
Assurance Mostafa el maani,Wafa assurance,"Rabat, Morocco","35 Rue Al Woroud, Casablanca 20250, Morocco",33.584409,-7.6211812
Wafa Assurance,Wafa assurance,"Rabat, Morocco","H9RF+364, Bd Moulay Youssef, Casablanca 20250, Morocco",33.5901464,-7.626917499999999
تأمين الوفاء، الاقتصادية للتأمين، المعاريف.,Wafa assurance,"Rabat, Morocco","36 Boulevard Bir Anzarane, Casablanca, Morocco",33.58113029999999,-7.6379614
Wafa Assurance Assurance El Oualidi,Wafa assurance,"Rabat, Morocco","166 bis Angle Bd Omar El Khayam et, Rue Al Oukhouane, Casablanca 20250, Morocco",33.5655286,-7.647336699999999
Wafa Assurance,Wafa assurance,"Rabat, Morocco","H9PV+CRF, Bd de la Résistance, Casablanca 20250, Morocco",33.5860594,-7.605447700000003
Wafa Assurance,Wafa assurance,"Rabat, Morocco","2 Bd Mohamed Zerktouni, Casablanca 20140, Morocco",33.5830796,-7.6165948
Wafa Assurance AL HAY AL HASSANI,Wafa assurance,"Rabat, Morocco","Résidence Selma, Résidence Selma Oulfa، 102 Bd Oued Oum Rabia, Casablanca 20200, Morocco",33.5636515,-7.668231100000001
Wafa Assurance,Wafa assurance,"Rabat, Morocco","185 Bd de Smara, Casablanca, Morocco",33.5396442,-7.593644899999997
تأمين الوفاء، تأمينات بنزيت، الحي الحسني.,Wafa assurance,"Rabat, Morocco","H9C2+GHG, Bd Yacoub El Mansour, Casablanca, Morocco",33.5713157,-7.648560100000002
NOBLE ASSURANCE WAFA ASSURANCE,Wafa assurance,"Rabat, Morocco","HC3F+99W, Casablanca, Morocco",33.5534831,-7.576561400000001
WAFA ASSURANCE ABDELKADER SAHRAOUI,Wafa assurance,"Rabat, Morocco","74 Av. Abdelkader Essahraoui, Casablanca 20670, Morocco",33.5557661,-7.545416399999998
Wafa Assurance | تأمين الوفاء,Wafa assurance,"Rabat, Morocco","Numéro 141 lot Moulat Thami Taha2 Quartier el Oulfa Hay Hassani Arrahma Sidi Maarouf Casa Anfa Laymoune Ain Diab, Casablanca 20220, Morocco",33.5529117,-7.689893099999998
Wafa Assurance - Bureau Direct Stendhal,Wafa assurance,"Rabat, Morocco","Angle Bd.Stendhal, Res.Benber, Porte G, Rue Georges Sand, Casablanca 20390, Morocco",33.5768149,-7.6341933
تأمين الوفاء، تأمينات دار الحمراء، الحي الحسني.,Wafa assurance,"Rabat, Morocco","rue 4 hay missimi, Casablanca 20250, Morocco",33.5701723,-7.671263199999998
Wafa IMA Assistance,Wafa assurance,"Rabat, Morocco","No.2 Lotissement Mandarona Imm Casablanca Business Center, Casablanca 20270, Morocco",33.539472,-7.6435856
Assurances Derb Omar S.A.R.L.,Wafa assurance,"Rabat, Morocco","Rue De Strasbourg Ang. Rue Moha Ou Hammou N?52 Derb Omar, Casablanca 20100, Morocco",33.59242479999999,-7.6116104
Bureau Direct LISSASFA WAFA ASSURANCES تأمين الوفاء وكالة ليساسفة,Wafa assurance,"Rabat, Morocco","N° 216, 2eme etage , Bloc B, Lissasfa, Casablanca 20232, Morocco",33.5324184,-7.671252200000001
ASSURANCE GALLILEE,Wafa assurance,"Rabat, Morocco","95 Rue Taha Hussein, Casablanca 20250, Morocco",33.59019289999999,-7.631074099999998
Assurances Boudad,Wafa assurance,"Rabat, Morocco","1°Ét, 45 Bd d'Anfa, Casablanca 20100, Morocco",33.5943201,-7.628689399999999
ASSURANCES LA GARE,Wafa assurance,"Rabat, Morocco","270 avenue al mahatta derb menjra, Casablanca 20250, Morocco",33.5751767,-7.5903643
WAKIL Assurances,Wafa assurance,"Rabat, Morocco","HCM9+JFX, Casablanca 20320, Morocco",33.5841217,-7.581256900000001
ASSURANCES ATTASSAHOUL,Wafa assurance,"Rabat, Morocco","H9X4+PQJ, Casablanca 20250, Morocco",33.5993264,-7.6431187
WAFA ASSURANCES,Wafa assurance,"Rabat, Morocco","JG57+J77 AL AZHAR, Casablanca, Morocco",33.6090338,-7.4868283
Assurance Oulad Saleh Bouskoura,Wafa assurance,"Rabat, Morocco","Lot Ennour N°113 ETG 1 Z.I Oulad Saleh Ennouacer, Casablanca 27182, Morocco",33.57308,-7.589776000000001
ASSURANCES ESSADRI,Wafa assurance,"Rabat, Morocco","82 AVENUE DES FORCES AUXILIAIRES, Casablanca 20670, Morocco",33.5694804,-7.558045399999998
Assurances Safaa Mrani,Wafa assurance,"Rabat, Morocco","Bd Victor Hugo, Casablanca 20100, Morocco",33.5787178,-7.609639100000001
Wafa assurance تأمينات الوفاء,Wafa assurance,"Rabat, Morocco","22 Bd Oued Beht, Casablanca 20220, Morocco",33.5585828,-7.6779033
Assurances Ibn Sina,Wafa assurance,"Rabat, Morocco","173, Bd Ibn Sina - Ex Avicenne, R?sid. El Baraka Gh16, Casablanca 20100, Morocco",33.586452,-7.648972
Wafa assurance,Wafa assurance,"Rabat, Morocco","210 Bd Laymoune, Casablanca, Morocco",33.5406708,-7.675366099999999
Assurances El Fida (Fidassur),Wafa assurance,"Rabat, Morocco","238 Bd El Fida, Casablanca 20000, Morocco",33.568156,-7.6042992
Wafa assurence تأمينات الوفاء,Wafa assurance,"Rabat, Morocco","HC6M+4G4 Tribunal Adminstratif, Casablanca 20670, Morocco",33.56025059999999,-7.5661777
wafa assurance,Wafa assurance,"Rabat, Morocco","JF4V+VVQ, Casablanca 20250, Morocco",33.607222,-7.505278
ASSURANCES NESMAOUI,Wafa assurance,"Rabat, Morocco","Casablanca, Morocco",33.52579519999999,-7.6507681
Bureau Direct BOUSKOURA WAFA ASSURANCE تأمين الوفاء وكالة بوسكورة,Wafa assurance,"Rabat, Morocco","F932+V2M, P3011, Bouskoura BOUSKOURA, Casablanca 20300, Morocco",33.4546515,-7.6499091
WAFA assurances,Wafa assurance,"Rabat, Morocco","HC5V+6CV, Bd Commandant Driss Al Harti, Casablanca 20670, Morocco",33.5581158,-7.556439699999999
WAFA Assurance NADIASSUR,Wafa assurance,"Rabat, Morocco","JG97+QGJ, Bd Allait Ibn Asaad, Casablanca 20250, Morocco",33.6194598,-7.4862298
تأمين الوفاء، تأمينات بالمريس، المعاريف.,Wafa assurance,"Rabat, Morocco","H997+V9M، Rue Théodore de Banville، Dar-el-Beida, Morocco",33.5697192,-7.636566
Wafa assurance,Wafa assurance,"Rabat, Morocco","JF3J+F4G, Bd Moulay Mohamed El Bouamrani, Casablanca 20250, Morocco",33.6036993,-7.519667999999999
Wafa assurance,Wafa assurance,"Rabat, Morocco","Unnamed Road, HGMC+GG8, Casablanca, Morocco",33.5837941,-7.478660099999999
Yamna Assurances,Wafa assurance,"Rabat, Morocco","26, Bd Brahim Roudani, 3?Et., Grand Casablanca, 20000, Casablanc, Casablanca 20100, Morocco",33.5768232,-7.6381237
Wafa Assurance Dar Bouazza,Wafa assurance,"Rabat, Morocco","Lotissement Ansari, Tamaris 27223, Morocco",33.5220297,-7.815909200000001
AFA Assurances,Wafa assurance,"Rabat, Morocco","38,RDC, Résidence Bensalem, 3 Rue de Barsac, Casablanca 20500, Morocco",33.5833425,-7.5975663
Palmarès Assurances,Wafa assurance,"Rabat, Morocco","Angle Rue Bachir Laalej et Theodore Banville Resid. Rissala mag. 5، Dar-el-Beida, Morocco",33.5727414,-7.638747100000001
ASSURANCES BINE ELOUIDANE,Wafa assurance,"Rabat, Morocco","315, 317 Bd Oued Oum Rabia, Casablanca 20220, Morocco",33.558572,-7.678040199999998
Wafa assurance,Wafa assurance,"Rabat, Morocco","23 LOT WAFA 02 1ER ETAGE APPT B EN FACE DE LA CATHÉDRALE، Aïn Harrouda 28630, Morocco",33.638133,-7.449074
Assurance ELKODIA,Wafa assurance,"Rabat, Morocco","120 Bd de la Grande Ceinture, Casablanca 20250, Morocco",33.5825525,-7.562222800000001
Wafa assurance (mon assureur),Wafa assurance,"Rabat, Morocco","HC2J+HC5, Boulevard Al Joulane, Casablanca, Morocco",33.55139589999999,-7.568893599999999
CHIHAB ASSURANCES,Wafa assurance,"Rabat, Morocco","BOUCHRA 11 IMMEUBLE C TRANCHE 1 NUMERO 19-03 AL AZHAR, Casablanca 20620, Morocco",33.5988321,-7.4887759
Benghazi Assurances,Wafa assurance,"Rabat, Morocco","329 Résidence AL AMANE en face ENCG Casa، Dar-el-Beida 20350, Morocco",33.5936372,-7.532906700000001
African Reinsurance Brokers (ARB ASSURANCES),Wafa assurance,"Rabat, Morocco","Boulevard Ghandi Ghandi Mall, Immeuble 7, Bureau n°3, 1er étage، Casablanca 20380, Morocco",33.5745468,-7.6504319
Assurances EL ANSARI Casablanca sarl,Wafa assurance,"Rabat, Morocco","2 Bd Mohamed Zerktouni, Casablanca 20140, Morocco",33.5831096,-7.6166368
Wafa Assurance,Wafa assurance,"Rabat, Morocco","7CF7+5FF, Berrechid, Morocco",33.2729309,-7.5863321
ASSURANCE PREVASSUR,Wafa assurance,"Rabat, Morocco","281 Bd Emile Zola, Casablanca 20250, Morocco",33.5953166,-7.594428999999999
NADA Assurances,Wafa assurance,"Rabat, Morocco","Bd El Qods, Casablanca, Morocco",33.53372,-7.612796999999998
Wafa Immobilier (Agence Casa Zerktouni),Wafa assurance,"Rabat, Morocco","202 Boulevard Zerktouni Quartier Racine, Casablanca, Casablanca 20100, Morocco",33.5871029,-7.6314605
Assurances Ahmed Yassine,Wafa assurance,"Rabat, Morocco","79 Bd Mouad Bnou Jabal, Casablanca 20250, Morocco",33.6103778,-7.5123048
AL WAKALA LITAAMINE,Wafa assurance,"Rabat, Morocco","HFJ4+3H3, Casablanca 20250, Morocco",33.58012909999999,-7.543574500000001
أليانز المغرب، الدارالبيضاء.,ALLIANZ,"Tangier, Morocco","166 Bd Mohamed Zerktouni, Casablanca 20060, Morocco",33.5864346,-7.630316499999999
Assurances Porte D'anfa : Allianz Maroc,ALLIANZ,"Tangier, Morocco","41 Rue Mohamed Sediki, Casablanca 20250, Morocco",33.5931262,-7.634505099999999
Allianz Taawid Auto Siège,ALLIANZ,"Tangier, Morocco","168 Bd Mohamed Zerktouni, Casablanca 20060, Morocco",33.5862074,-7.630227199999998
Allianz,ALLIANZ,"Tangier, Morocco","31 Av. des FAR, Fès 20250, Morocco",33.5966579,-7.615322
California Insurance Agency - Allianz Morocco,ALLIANZ,"Tangier, Morocco","Bd El Qods, Casablanca, Morocco",33.5337605,-7.6122488
Bureau Direct Allianz Bourgogne,ALLIANZ,"Tangier, Morocco","125 Bd de Bourgogne, Casablanca 20250, Morocco",33.59739449999999,-7.645464199999998
Assurance Beaulieu ALLIANZ,ALLIANZ,"Tangier, Morocco","81, Boulevard Chefchaouni, à coté du marché vert & place tizi ousli, Casablanca 20250, Morocco",33.6069607,-7.538545699999998
allianz assurance,ALLIANZ,"Tangier, Morocco","HC43+G5H, Bd Panoramique, Casablanca, Morocco",33.5563012,-7.597000599999999
Assurance attajdid,ALLIANZ,"Tangier, Morocco","644 boulevard Oued debout, Casablanca 20200, Morocco",33.5512206,-7.6842194
ASSURANCES OULAD HADDOU / AGENT ALLIANZ,ALLIANZ,"Tangier, Morocco","137 LOTISSEMENT DANDOUNE, SIDI MAAROUF, Casablanca 20000, Morocco",33.5148407,-7.649052600000001
Allianz Taawid Auto Casablanca - Ain Sebaâ,ALLIANZ,"Tangier, Morocco","Route de Rabat (r.p. 1), Km 9,200, Casablanca 20250, Morocco",33.6034399,-7.5356122
Assurance allianz,ALLIANZ,"Tangier, Morocco","26 Bd Al Khalil, Casablanca, Morocco",33.54806389999999,-7.6010757
Arenassur Allianz,ALLIANZ,"Tangier, Morocco","Addamane 12, Av. de Dakhla, Casablanca, Morocco",33.5410371,-7.603702299999997
Asurance allianz,ALLIANZ,"Tangier, Morocco","382 Av. Reda Guedira, Casablanca, Morocco",33.5540002,-7.5758637
Nextcare Maroc,ALLIANZ,"Tangier, Morocco","1er étage, 28 Bd Al Massira Al Khadra, Casablanca 20100, Morocco",33.5869837,-7.636206199999998
DLOU ASSURANCES,ALLIANZ,"Tangier, Morocco","N 4 Bd Oued Draâ, Casablanca, Morocco",33.5567124,-7.6844245
BAB FES ASSURANCES (allianz maroc),ALLIANZ,"Tangier, Morocco","Ryad sofia Gh4 Imm 1 Rdc, Casablanca, Morocco",33.5226859,-7.679845699999998
Allianz,ALLIANZ,"Tangier, Morocco","Place Essalam Hay Essalam 2 GH 18. 2 résidence 5 N° 82, Casablanca, Morocco",33.5456752,-7.672936999999999
Allianz Casa Anfa Assurances,ALLIANZ,"Tangier, Morocco","113 bis Lotissement Habiba، Bd Haj Fateh, Dar-el-Beida 20016, Morocco",33.5486146,-7.684981200000001
Acmar,ALLIANZ,"Tangier, Morocco","104 Bd Abdellatif Ben Kaddour, Casablanca 20050, Morocco",33.5909124,-7.643880800000001
Assurances Le Chalet,ALLIANZ,"Tangier, Morocco","392 Bd Ibn Tachfine, Casablanca 20250, Morocco",33.58424580000001,-7.5726035
Assurances Oued Sebou,ALLIANZ,"Tangier, Morocco","185 Bd Oued Sebou, Casablanca, Morocco",33.55261170000001,-7.678639599999999
Assurances Amqor,ALLIANZ,"Tangier, Morocco","166 Av. Mehdi Ben Barka, Casablanca 20250, Morocco",33.6015195,-7.6427374
Lalla mariam Assurance Allianz,ALLIANZ,"Tangier, Morocco","HCF6+63W, Casablanca 20250, Morocco",33.57310289999999,-7.5898116
Allianz,ALLIANZ,"Tangier, Morocco","14 Avenue Moulay Rachid, Biougra, Morocco",33.5332852,-7.583423600000001
Assurance Allianz,ALLIANZ,"Tangier, Morocco","HC5V+6CV, Bd Commandant Driss Al Harti, Casablanca 20670, Morocco",33.5581158,-7.556439699999999
Assurance alianz rania,ALLIANZ,"Tangier, Morocco","G7H8+F4W, P3014, Arrahma, Morocco",33.5286168,-7.7349937
Allianz,ALLIANZ,"Tangier, Morocco","Lotissement Zine Essalam, Magasin N°31, Titt Mellilen, Morocco",33.55296499999999,-7.474701
assurance arbassur,ALLIANZ,"Tangier, Morocco","HC43+G5H, Bd Panoramique, Casablanca, Morocco",33.5563024,-7.5970014
Assurance Allianz Lalla mariam,ALLIANZ,"Tangier, Morocco","HC5V+6CV, Bd Commandant Driss Al Harti, Casablanca 20670, Morocco",33.5581158,-7.556439699999999
AKL ASSURANCES,ALLIANZ,"Tangier, Morocco","222 Bd Dakhla, Casablanca 20440, Morocco",33.5452262,-7.574566299999999
Allianz,ALLIANZ,"Tangier, Morocco","Garnaoui. Lotissement Essaâda, 114 Bd Mokhtar Ben Ahmed Al Guerraoui, Casablanca, Morocco",33.611426,-7.495052799999999
Bureau Direct d'Assurances Allianz Bouskoura,ALLIANZ,"Tangier, Morocco","Complexe résidentiel Bassatine immeuble 1, GH7A local 159, Bouskoura, Morocco",33.46750160000001,-7.665541799999999
Elakil assurances Allianz,ALLIANZ,"Tangier, Morocco","HG38+HMR, Tit Mellil, Morocco",33.5539948,-7.4833661
ALLIANCE TRAVEL,ALLIANZ,"Tangier, Morocco","47 Bd Sidi Mohamed Ben Abdellah, Casablanca 20250, Morocco",33.6034817,-7.6421389
Allianz Mohammedia Pro Assurances,ALLIANZ,"Tangier, Morocco","HAY EL FALAH BLOC 16 N°11, Mohammédia 28830, Morocco",33.6829415,-7.381412200000001
Maroc Assistance Internationale,ALLIANZ,"Tangier, Morocco","25 Bd Rachidi, Casablanca 20100, Morocco",33.5926628,-7.626657899999998
Euler Hermes,ALLIANZ,"Tangier, Morocco","37 Bd Abdellatif Ben Kaddour, Casablanca 20000, Morocco",33.5909182,-7.6437377
Sany Assurances Sarl,ALLIANZ,"Tangier, Morocco","77 Boulevard Akid El Allam Hay Moulay Rachid 2, Casablanca, Casablanca 20100, Morocco",33.5706962,-7.560773799999999
ASSURANCE ALLIANZ,ALLIANZ,"Tangier, Morocco","LOTISSEMENT MASSIRA FB 29, Mohammédia, Morocco",33.6967775,-7.367396200000001
Bedassur S.A.,ALLIANZ,"Tangier, Morocco","1°Ét, 10 Rue de Karachi, Casablanca 20100, Morocco",33.59498739999999,-7.604119499999999
Central Assur,ALLIANZ,"Tangier, Morocco","Ahm Loghlam Res Salam 2 Imm 1 Mag 3, Casablanca, Morocco",33.5884458,-7.485020999999998
AtlantaSanad Assurance,ALLIANZ,"Tangier, Morocco","H9MP+8F5, Bd de la Résistance, Casablanca 20250, Morocco",33.5832509,-7.613766999999998
Alinqad Assurance,ALLIANZ,"Tangier, Morocco","H9W4+Q42, Rue Aïn Chifa, Casablanca 20100, Morocco",33.596889,-7.644723000000001
Assurances Aglou,ALLIANZ,"Tangier, Morocco","JG28+WMJ, Casablanca, Morocco",33.60232970000001,-7.483358399999998
ALLIANZ MOHAMMEDIA AL RACHID ASSURANCE,ALLIANZ,"Tangier, Morocco","Boulevard Mohammed VI, Mohammedia, Morocco",33.6967772,-7.367524599999999
Allianz,ALLIANZ,"Tangier, Morocco","Lotissement Miftah N°2, Mediouna, Morocco",33.4541103,-7.515462200000002
Zurich Assurances Maroc,ALLIANZ,"Tangier, Morocco","H9VJ+M8G City Park Center106, Rue Abderrahman Sahraoui, Casablanca 20100, Morocco",33.5941867,-7.619170500000001
ASSURANCES EL JOUNAIDI,ALLIANZ,"Tangier, Morocco","LITTORAL 2 N° 9 DAR BOUAZZA CASA, Nouasseur 27223, Morocco",33.5218981,-7.817228500000001
IDYANE ASSURE,ALLIANZ,"Tangier, Morocco","RUE 16 N 5 ANGLE BD EL KHALIL HAY MLY ABDELLLAH, Casablanca 20000, Morocco",33.5338589,-7.5831493
Yanitri Assurances Sarl,ALLIANZ,"Tangier, Morocco","131 Boulevard Mouad Ben Jabal Mansour 2 Katafa, Casablanca, Casablanca 20100, Morocco",33.6108685,-7.5041167
Allianz,ALLIANZ,"Tangier, Morocco","N°358, Lot El Wahda, 1er Etage, App 1, Mohammédia, Morocco",33.682562,-7.386412999999999
Allianz Assurance Lahcen,ALLIANZ,"Tangier, Morocco","Lotissement 104-106 H Iminwaday N°15 ( a coté de BIM, Berrchid 26100, Morocco",33.26897339999999,-7.584285100000001
AXA Assurance Maroc,ALLIANZ,"Tangier, Morocco","120 Bd Hassan II, Casablanca 20250, Morocco",33.5851874,-7.6231677
FOCUS Assurance,ALLIANZ,"Tangier, Morocco","3 Rue Abou Al Wakt Khalaf, Casablanca 20250, Morocco",33.59555880000001,-7.646034699999999
Allianz Assurances,ALLIANZ,"Tangier, Morocco","57 Lotissement Boutayna, Bouznika 13100, Morocco",33.7764046,-7.160328999999999
Assurances khouili,ALLIANZ,"Tangier, Morocco","250 Boulevard Joudar n 3 imm chakoury Hay, Casablanca 20670, Morocco",33.5684512,-7.532263800000001
Allianz,ALLIANZ,"Tangier, Morocco","App N°4, Lotissement 211, Hay El Qods, Berrchid, Morocco",33.26095900000001,-7.575529599999999
Abrar Assurances,ALLIANZ,"Tangier, Morocco","ADDAMANE 102, GH 12, Av. de Dakhla, Casablanca 20100, Morocco",33.54136570000001,-7.6039612
iCoral Assurance Maroc,ALLIANZ,"Tangier, Morocco","17, rue mimosas ( ex rue des écoles), Beauséjour, (proche bd ghandi, Casablanca 20200, Morocco",33.5701353,-7.645914599999999
AtlantaSanad Assurance,AtlantaSanad,"Tangier, Morocco","181 Bd d'Anfa, Casablanca 20100, Morocco",33.5899972,-7.637437100000001
AtlantaSanad Assurance,AtlantaSanad,"Tangier, Morocco","H9MP+8F5, Bd de la Résistance, Casablanca 20250, Morocco",33.5832509,-7.613766999999998
AtlantaSanad Assurance,AtlantaSanad,"Tangier, Morocco","1 Rue 3 Lotissement Avenir, entre Bd Nice et en face des Résidences Alyoussr, Av. Ahmed Charci, Casablanca 20250, Morocco",33.5970713,-7.651953499999999
Compagnie d'Assurances SANAD,AtlantaSanad,"Tangier, Morocco","181 Bd d'Anfa, Casablanca 20250, Morocco",33.5902496,-7.637568799999999
Bureau Direct Haj Fateh - AtlantaSanad,AtlantaSanad,"Tangier, Morocco","Lotissement Habiba, N°86 Bd Haj Fateh, Casablanca 20260, Morocco",33.5402646,-7.6764689
AtlantaSanad Assurance,AtlantaSanad,"Tangier, Morocco","251 Bd Commandant Driss Al Harti, Casablanca, Morocco",33.5451716,-7.577737200000001
AtlantaSanad Assurance,AtlantaSanad,"Tangier, Morocco","Casablanca, Morocco",33.5350685,-7.578789899999999
AtlantaSanad Assurance,AtlantaSanad,"Tangier, Morocco","Alaman 1 Addoha, Av. Mohamed Balafrej, Casablanca 20250, Morocco",33.5842544,-7.524977499999999
AtlantaSanad Assurance,AtlantaSanad,"Tangier, Morocco","Rue 21 N8 Hay My Abdelah, Casablanca, Morocco",33.5481279,-7.6016398
AtlantaSanad Assurance,AtlantaSanad,"Tangier, Morocco","G8QX+RW5, Casablanca, Morocco",33.53952340000001,-7.6501363
Assurance Loughzal.ATLANTA,AtlantaSanad,"Tangier, Morocco","132 Ennasser Yamna 20250, Av. Mohamed Balafrej, Casablanca 20250, Morocco",33.5860785,-7.525299
AtlantaSanad Assurance Riad Sofia,AtlantaSanad,"Tangier, Morocco","groupe n4 ENTREE N5 RIAD SOFIA, Casablanca, Morocco",33.5184668,-7.677446499999999
AtlantaSanad Assurance,AtlantaSanad,"Tangier, Morocco","HC7R+287, Av. Mohamed Bouziane, Casablanca 20670, Morocco",33.5625418,-7.5592063
Agence Adlouni AtlantaSanad,AtlantaSanad,"Tangier, Morocco","173 Bd Abou Chouaib Doukkali, Casablanca 20320, Morocco",33.56731500000001,-7.586778999999999
AtlantaSanad assurances OUM EL KHEIR,AtlantaSanad,"Tangier, Morocco","253 Av. Lalla Asmaa, Casablanca 20250, Morocco",33.5803979,-7.542952100000001
AtlantaSanad Assurance,AtlantaSanad,"Tangier, Morocco","Ard Driss 4,Mag N° 4 (Près de la Gare ferroviaire)، P3009, Bouskoura 25100, Morocco",33.4584966,-7.651367299999998
AtlantaSanad Assurance,AtlantaSanad,"Tangier, Morocco","7, Boulevard de Palestine, Bd Al Houria, Mohammédia, Morocco",33.6902535,-7.381755699999999
AXA Assurance Maroc,AXA,"Tangier, Morocco","120 Bd Hassan II, Casablanca 20250, Morocco",33.5851874,-7.6231677
Axa Assurance,AXA,"Tangier, Morocco","11 Avenue Taoujtat, Casablanca 20000, Morocco",33.5944435,-7.641770999999999
Axa Assurance,AXA,"Tangier, Morocco","267 Bd Mohamed Zerktouni, Casablanca 20100, Morocco",33.5918646,-7.6367974
Cabinet d’Assurances FARIS,AXA,"Tangier, Morocco","73 Av. Houmane El Fetouaki, Casablanca 20080, Morocco",33.5935349,-7.613393100000001
Ste Boufrouri Assurances Axa Sarl,AXA,"Tangier, Morocco","80 Boulevard Hassan Ii Quartier Centre Ville, Al Hoceima, Casablanca 20100, Morocco",33.5904302,-7.619612399999999
hanane kamal assurance (agent AXA),AXA,"Tangier, Morocco","Rue de Craonne, Casablanca 20250, Morocco",33.5903568,-7.598299799999999
Assurance voyage AXA,AXA,"Tangier, Morocco","5 Rue Ahmed Enassiri, Casablanca 20250, Morocco",33.57931449999999,-7.625860500000001
Axa crédit Casablanca - Hassan II,AXA,"Tangier, Morocco","N°, 120-122 Bd Hassan II, Casablanca 20000, Morocco",33.5852941,-7.6227325
Axa Assurance Chamila,AXA,"Tangier, Morocco","HCC4+9GW, Casablanca 20250, Morocco",33.5709869,-7.593678499999998
ASSURANCES CHAMI,AXA,"Tangier, Morocco","32 Rue Sidi Belyout, à côté de l'hôtel Royal Mansour, Angle Av. des FAR, Casablanca 20000, Morocco",33.5974503,-7.6139252
Assurances Oum Rabii,AXA,"Tangier, Morocco","Rue 78, Numero 10 et 12, Bd Oued Oum Rabia, Casablanca, Morocco",33.5561194,-7.683013
Axa Credit,AXA,"Tangier, Morocco","225 Bd Mohammed V, Casablanca 20250, Morocco",33.5942611,-7.610333199999999
Seddiki Assurances,AXA,"Tangier, Morocco","4 Rue Al Bachir Al Ibrahimi Gauthier, Casablanca, Casablanca 20100, Morocco",33.58784439999999,-7.603880699999999
AXA Kimassur,AXA,"Tangier, Morocco","836 Bd El Qods, Casablanca 20150, Morocco",33.5332315,-7.6139262
GRLC ASSURANCE,AXA,"Tangier, Morocco","Angle Bd Moulay Youssef et Hassan 1er, Résidence Sourour, Etg 3, Apt 11B, Casablanca 20000, Morocco",33.5916312,-7.627028299999998
PREVAXE Assurances,AXA,"Tangier, Morocco","134, Angle Boulevard Bir Anzarane et Rue A. El Joumari، Résidence Aya - Maarif،، Dar-el-Beida 20330, Morocco",33.5818458,-7.639098599999999
"ASSURANCES ""GROUPASSUR""",AXA,"Tangier, Morocco","1, PLACE DE L'ISTIQLAL (EX PLACE MIRABEAU), Casablanca, Morocco",33.5964579,-7.603657100000001
Axa Assurance ain chok,AXA,"Tangier, Morocco","1, Casablanca, Morocco",33.53878879999999,-7.584105599999998
Assurances Derb Omar S.A.R.L.,AXA,"Tangier, Morocco","Rue De Strasbourg Ang. Rue Moha Ou Hammou N?52 Derb Omar, Casablanca 20100, Morocco",33.59242479999999,-7.6116104
AXA Assurance ES-SAADA,AXA,"Tangier, Morocco","HCRJ+GJ5, Casablanca 20250, Morocco",33.5912695,-7.568400999999999
Axa Assurance,AXA,"Tangier, Morocco","HC75+C7W, Casablanca, Morocco",33.5636026,-7.591793699999998
AXA Assistance Maroc,AXA,"Tangier, Morocco","409 Rte d'El Jadida, Casablanca, Morocco",33.5570512,-7.644041999999999
AXA Futur Assurance,AXA,"Tangier, Morocco","45 Bd Ghandi, Casablanca 20250, Morocco",33.5763648,-7.6523169
Cap'assur S.a.r.l.,AXA,"Tangier, Morocco","661, Bd De Goulmima, Bourgogne, Grand Casablanca, 20000, Casabla, Casablanca 20100, Morocco",33.6006845,-7.635558899999999
Assurances Haider,AXA,"Tangier, Morocco","164 BD AMBASSADEUR BEN AÏCHA, ROCHES NOIRES، Dar-el-Beida 20303, Morocco",33.6000208,-7.5884391
أكسا التأمين المغرب، المكتب المباشر إفريقيا، الدارالبيضاء.,AXA,"Tangier, Morocco","386 Av. Al Wahda Al Ifriquia, Casablanca, Morocco",33.5567133,-7.5856049
Bmf Assurances Axa,AXA,"Tangier, Morocco","H9M5+4VC, Rue Abou Ishak Oijjaj, Casablanca, Morocco",33.5828038,-7.6403629
EMERGENCE ASSURANCE CONSEIL,AXA,"Tangier, Morocco","84 Rue d'Agadir, Casablanca 20140, Morocco",33.583585,-7.619385099999998
"BK ASSURANCES, agent général AXA",AXA,"Tangier, Morocco","Résidence Abouab Oum Rabii, Angle rue oum rabii et, N° 15, Rte Moulay Thami, Casablanca 20250, Morocco",33.5626363,-7.668845399999999
Assurance Mostafa el maani,AXA,"Tangier, Morocco","35 Rue Al Woroud, Casablanca 20250, Morocco",33.584409,-7.6211812
Axa Assurance,AXA,"Tangier, Morocco","N 159, MLEK DANDOUNE, ROUTE SIDI MASOUD CT 1100, SIDI MAAROUF, 1100 ‫شارع سيدي معروف، Casablanca, Morocco",33.5146761,-7.648507
ASK ASSURANCE,AXA,"Tangier, Morocco","40 Bd Moulay Youssef, Casablanca 20300, Morocco",33.59300989999999,-7.628019800000001
AXA / Comptoir Professionnel des Assurances,AXA,"Tangier, Morocco","Résidence el koutoubia Imm 5 local commercial N.1, Hay Ennassim، Dar-el-Beida 20190, Morocco",33.526144,-7.659748
ASSURANCES HJIEJ,AXA,"Tangier, Morocco","61, av de l Armee Royale, 1er et., Sidi Belyout, Casablanca 20250, Morocco",33.5971644,-7.6131894
ASSURANCES ATTASSAHOUL,AXA,"Tangier, Morocco","H9X4+PQJ, Casablanca 20250, Morocco",33.5993264,-7.6431187
ACTIVASSUR,AXA,"Tangier, Morocco","235 Bd Yacoub El Mansour, Casablanca 20100, Morocco",33.5696633,-7.6515397
ASSURANCES RADA,AXA,"Tangier, Morocco","Unnamed Road, Casablanca 20250, Morocco",33.5885717,-7.575327100000001
POLASSUR - Assureur Conseil - société de Courtage en Assurances à Casablanca,AXA,"Tangier, Morocco","40 Bd de la Résistance, Casablanca 20000, Morocco",33.593959,-7.60385
Axa Assurance,AXA,"Tangier, Morocco","275 BD LALLA ASMAA, Casablanca 20400, Morocco",33.5848033,-7.5193093
Axa Assurance,AXA,"Tangier, Morocco","639 Bd Dakhla, Casablanca, Morocco",33.54808939999999,-7.569651200000001
Epega Assurances,AXA,"Tangier, Morocco","48 Rue d'Alger, Casablanca 20250, Morocco",33.5916593,-7.6250432
Axa Assurance,AXA,"Tangier, Morocco","G8MH+62M, Bd jbel Toubqal, Casablanca, Morocco",33.5330887,-7.6724376
أكسا للتأمين، تأمينات بسام، البرنوصي.,AXA,"Tangier, Morocco","10 Rue 13 Quartier Tarik, JF4J+MGX, Casablanca 20000, Morocco",33.60658469999999,-7.518622100000001
CAPITALYS Assurance,AXA,"Tangier, Morocco","n°10, Parc Walili, 185 Bd Abdelmoumen, Casablanca 20360, Morocco",33.5742549,-7.625587200000001
Assurances Hormat,AXA,"Tangier, Morocco","80, Bd Moulay Ismaïl, 1°Ét., Casablanca 20290, Morocco",33.5978883,-7.586989299999999
Bureau Direct ES-SAADA - AXA ASSURACES MAROC,AXA,"Tangier, Morocco","271, Boulevard Chouhada, Bloc 17, Casablanca 20320, Casablanca 20320, Morocco",33.583714,-7.5724098
Compagnie Africaine d'assurances S A,AXA,"Tangier, Morocco","Bd Hassan II, Casablanca 20250, Morocco",33.5875787,-7.621171599999998
Axa Assurance,AXA,"Tangier, Morocco","JG39+C23 Esp.barcelone, Casablanca, Morocco",33.6035037,-7.482461600000001
Axa Assurance,AXA,"Tangier, Morocco","HFCM+4PJ, Casablanca 20250, Morocco",33.570343,-7.5157198
Axa assurance maroc,AXA,"Tangier, Morocco","G77R+QFH, Casablanca 20250, Morocco",33.5698669,-7.6514699
INARA assurances,AXA,"Tangier, Morocco","80 Rue de Sijilmassa, Casablanca 20250, Morocco",33.5920812,-7.592267799999998
Saxess Assurances,AXA,"Tangier, Morocco","82, Bd Abdelmoumen, Casablanca 20100, Morocco",33.5758776,-7.6259576
SCASCO تأمينات,AXA,"Tangier, Morocco","261,bd Abdelmoumen Appt.9 Imm A, Etage 3, Casablanca 20100, Morocco",33.5712749,-7.625737499999999
axa assurance ain sebaa,AXA,"Tangier, Morocco","JF35+PCF, Casablanca 20250, Morocco",33.60431169999999,-7.541442300000001
Assurisma S.A.R.L.,AXA,"Tangier, Morocco","10, Avenue Du Deux Mars, 2°Ét., Casablanca 20100, Morocco",33.58253300000001,-7.615033000000002
Assurance M2A (AXA),AXA,"Tangier, Morocco","HCMW+4FR, Casablanca 20670, Morocco",33.5828651,-7.553861800000001
Assurance Zerktouni,AXA,"Tangier, Morocco","H9X6+FJP, Bd de Bourgogne, Casablanca 20250, Morocco",33.5987143,-7.6384363
assurance el oulfa rma el archi,AXA,"Tangier, Morocco","239 Bd Oued Tensift, Casablanca 20220, Morocco",33.55419250000001,-7.6799493
Assurances Ad-Damane,AXA,"Tangier, Morocco","62, Rue Haj Amar Riffi, 1°Ét., Casablanca 20100, Morocco",33.5865728,-7.615535800000001
Morocco assu,AXA,"Tangier, Morocco","179, 1Er, Boulevard Moulay Hassan I, Casablanca 20100, Morocco",33.5914593,-7.626965999999999
CAT Assurance et Réassurance,CAT,"Tangier, Morocco","6 Lotissement la colline, Casablanca, Morocco",33.537155,-7.641933100000002
Cat assurance,CAT,"Tangier, Morocco","394 Bd d'Afghanistan, Casablanca, Morocco",33.57075149999999,-7.6775142
3D CAT SARL Prototypage rapide & Impression 3D,CAT,"Tangier, Morocco","21 Rue Michel Ange, Casablanca 20250, Morocco",33.5912312,-7.63781
Pet Market Maroc,CAT,"Tangier, Morocco","15 Rue des Camélias, Casablanca 20380, Morocco",33.57371479999999,-7.643139899999998
Animalerie Sam,CAT,"Tangier, Morocco","en face de Alpha, 55 74 Av. Mers Sultan, Casablanca 20250, Morocco",33.5886674,-7.618432499999999
Animalerie Pierre Parent,CAT,"Tangier, Morocco","49 Rue Pierre Parent, Casablanca 20250, Morocco",33.5944777,-7.606370699999998
Animalerie Haj Fateh,CAT,"Tangier, Morocco","G8VF+87V, Casablanca, Morocco",33.5433561,-7.6768363
Cabinet d'avocats TABIH - C.A.T law firm -,CAT,"Tangier, Morocco","50 Rue Tata, Casablanca 20080, Morocco",33.5926021,-7.617566099999999
Cat food,CAT,"Tangier, Morocco","3 Rue Souleimane el Farissi, Casablanca 20250, Morocco",33.58692219999999,-7.581371600000001
Animalerie PetSpace,CAT,"Tangier, Morocco","Rue Abou El Hassan Es-Séghir, Casablanca 20370, Morocco",33.5751878,-7.6487226
Animalkom Maarif,CAT,"Tangier, Morocco","15 Rue Abou Moussa El Jazouli، Dar-el-Beida 20250, Morocco",33.5844403,-7.640581600000001
Animalerie - Pets Boutique,CAT,"Tangier, Morocco","24 Rue El Kaïssi, Casablanca 20250, Morocco",33.5924516,-7.644812499999998
Animal Planet,CAT,"Tangier, Morocco","22 Bd Sidi Abderrahmane, Casablanca 20200, Morocco",33.5655342,-7.6487323
Animalerie Kat&Robie,CAT,"Tangier, Morocco","H9MQ+V88, Rue Hadj Omar Riffi, Casablanca 20250, Morocco",33.5846584,-7.6116807
La passion canine val fleuri,CAT,"Tangier, Morocco","10 Rue Georges Sand, Casablanca 20250, Morocco",33.5762825,-7.638362300000001
LE PETZY,CAT,"Tangier, Morocco","Villa 6, lotissement vermont les cretes près du, Bd Panoramique, Casablanca, Morocco",33.5510829,-7.6261592
ANIMAL HOME,CAT,"Tangier, Morocco","DERB EL MITER 02, RUE 11، ط و 9، Dar-el-Beida 20550, Morocco",33.5661412,-7.6098243
CAT Assurance et Réassurance bureau direct hay mohamadi,CAT,"Tangier, Morocco","HCMQ+82C, Casablanca 20250, Morocco",33.58330869999999,-7.5624883
Carrefour Market Palmier,CAT,"Tangier, Morocco","Bd 9 Avril, Casablanca 20250, Morocco",33.5823291,-7.628542499999999
Canin Cat Jio,CAT,"Tangier, Morocco","G5FV+PXP, Tamaris, Morocco",33.5243418,-7.805039499999999
"Pet Me ! Boutique pour chiens & chats. Shop, Café & Toilettage.",CAT,"Tangier, Morocco","Quartier Les Princesses, 73 Rue Ibnou Assakir, Casablanca, Morocco",33.5790912,-7.649713999999999
Black Cat,CAT,"Tangier, Morocco","H85J+3JP, Casablanca, Morocco",33.5577244,-7.6684205
magasin cat,CAT,"Tangier, Morocco","H9M9+M72, Casablanca 20250, Morocco",33.5841438,-7.631862999999999
magasin CAT chaussures,CAT,"Tangier, Morocco","G9F2+WHJ, Bd 60, Casablanca, Morocco",33.5248373,-7.648612299999999
التعاضدية الفلاحية والتعاضدية المركزية,MAMDA,"Tangier, Morocco","98 Bd Lahcen Ou Ider, Casablanca 20100, Morocco",33.5847277,-7.609426
التعاضدية المركزية والتعاضدية الفلاحية، وكالة 2 مارس، مرس السلطان.,MAMDA,"Tangier, Morocco","H9FP+543, Av. 2 Mars, Casablanca 20250, Morocco",33.57287919999999,-7.614700399999999
MAMDA & MCMA BOURGOGNE,MAMDA,"Tangier, Morocco","Bd de Bourgogne, Casablanca 20250, Morocco",33.598148,-7.6440542
Mamda Mcma Casa Abdelmoumen,MAMDA,"Tangier, Morocco","av des pléiades, Étage 2, Porte droite, Bd Abdelmoumen, Casablanca 20000, Morocco",33.5734164,-7.625726999999999
مامدا، وكالة سقراط، الدارالبيضاء المعاريف.,MAMDA,"Tangier, Morocco","1-3، Les résidences MASUREL, Rue Socrate, Dar-el-Beida 20380, Morocco",33.57561109999999,-7.6433311
MAMDA_MCMA : Mutuelle Agricole Marocaine D'Assurance,MAMDA,"Tangier, Morocco","Ang Boulevard Ba Hmad et Rue César Franck, Casablanca 20250, Morocco",33.5932068,-7.588489300000002
Mamda Mcma 2 Mars,MAMDA,"Tangier, Morocco","immeuble n120, rdc l, Av. 2 Mars, Casablanca 20502, Morocco",33.5739253,-7.614487200000002
تأمينات مامدا,MAMDA,"Tangier, Morocco","lot N°7، ETG RDC، lot El khozama، Dar-el-Beida 20220, Morocco",33.5391362,-7.680982299999998
Mamda Mcma Casa A,MAMDA,"Tangier, Morocco","80 bd de la resistance, Casablanca 20000, Morocco",33.5755696,-7.6434688
التعاضدية الفلاحية والتعاضدية المركزية,MAMDA,"Tangier, Morocco","GH1 IMM3 C9, Av. Abou Bakr el Kadiri, Casablanca 20520, Morocco",33.527005,-7.649622
التعاضدية الفلاحية والتعاضدية المركزية، وكالة البرنوصي.,MAMDA,"Tangier, Morocco","110, amal 3 boulevard abi dar ghaffarie, Casablanca 20610, Morocco",33.606936,-7.517066000000002
MAMDA MCMA MAEM Sbata,MAMDA,"Tangier, Morocco","Av Oued Eddahab, Casablanca 20000, Morocco",33.5394875,-7.575855799999999
Mamda,MAMDA,"Tangier, Morocco","2ème Etage Appt 16, 78 Bd de la Résistance, Casablanca 20250, Morocco",33.59242,-7.6037963
MAMDA-MCMA ERRAHMA,MAMDA,"Tangier, Morocco","G7PF+JQ3, Madinat Arrahma, Morocco",33.5364613,-7.7256856
Mamda Mcma Bouskoura,MAMDA,"Tangier, Morocco","rdc résidence jasmine gh 11 i5 m2 route, p3011, Casablanca 27182, Morocco",33.46637,-7.64587
Mamda Mcma Sidi Othmane,MAMDA,"Tangier, Morocco","240 boulevard bouziane propieté sanaa 71 rdc, Casablanca 20700, Morocco",33.56320499999999,-7.557483
MAMDA-MCMA,MAMDA,"Tangier, Morocco","Av. Mohammed VI, Rabat 10020, Morocco",33.9990298,-6.827199500000001
MCMA MAMDA,MAMDA,"Tangier, Morocco","254, hay salama 3 20700, Av. Mohamed Bouziane, Casablanca 20670, Morocco",33.5631377,-7.557429200000002
Mamda-Mcma Anasi,MAMDA,"Tangier, Morocco","HGV2+VHJ, Bd Mohamed Zefzaf, Casablanca, Morocco",33.59462,-7.498600799999998
تأمينات مامدا,MAMDA,"Tangier, Morocco","Angle Boulevard Abdelmoumen, FFPX+2HQ, rue des pléiades, Casablanca, Morocco",33.4850853,-7.5010254
التعاضدية الفلاحية و التعاضدية المركزية,MAMDA,"Tangier, Morocco","38 Rue Omar Slaoui، Dar-el-Beida 20250, Morocco",33.58640639999999,-7.621384499999999
Mamda Mcma Errahma,MAMDA,"Tangier, Morocco","lot 145 fbt, Casablanca 20570, Morocco",33.53162,-7.728129999999998
MCMA MAEM Belvédère,MAMDA,"Tangier, Morocco","Immeuble Yassine, 14 Rue de Sijilmassa, Casablanca 20000, Morocco",33.5947409,-7.593747
MAMDA MCMA MAEM Mohammedia,MAMDA,"Tangier, Morocco","MJVC+M8C, P3313, Mohammédia, Morocco",33.69418009999999,-7.379247200000001
Mutuelle Agricole Marocaine D'Assurances (M.A.M.D.A.),MAMDA,"Tangier, Morocco","Av. Abou Inane, Rabat, Morocco",34.0172038,-6.8333062
MAMDA_MCMA : Mutuelle Agricole Marocaine D'Assurance,MAMDA,"Tangier, Morocco","idriss 1er, 325 Ave Moulay Ali Chrif, Témara 12000, Morocco",33.93058599999999,-6.897138
MAMDA MCMA MAEM BERRECHID,MAMDA,"Tangier, Morocco","17 Bd Mohamed 5, Berrchid, Morocco",33.268687,-7.584317100000002
MAMDA MCMA,MAMDA,"Tangier, Morocco","Av. Ouali Al Had Sidi Mohamed, Salé, Morocco",34.0514251,-6.812044299999998
Mamda,MAMDA,"Tangier, Morocco","Mamda, Telangana 504310, India",19.0785561,78.5215523
Mamda,MAMDA,"Tangier, Morocco","7C79+H8R, Berrechid, Morocco",33.2638893,-7.5816962
la marocaine vie,MAROCAINE VIE,"Tangier, Morocco","H9RC+HWQ, Bd Moulay Youssef, Casablanca 20250, Morocco",33.5914707,-7.627627899999998
Matu Assurance,MATU,"Tangier, Morocco","215 Bd Mohamed Zerktouni, Casablanca 20100, Morocco",33.5887327,-7.6340876
Matu Office,MATU,"Tangier, Morocco","40 Bd d'Anfa, Casablanca 20250, Morocco",33.5951804,-7.627278
Matu Assurance,MATU,"Tangier, Morocco","Av. Abdellah Senhaji, Casablanca 20320, Morocco",33.56589999999999,-7.589126800000001
Matu Assurance,MATU,"Tangier, Morocco","ANGLE BD CHEFCHAOUNI ET RUE L, EGLISE JEAN D'ARC, Casablanca, Morocco",33.5563041,-7.5702924
Matu Assurance,MATU,"Tangier, Morocco","ET 266, N° 264 Bd Oued Tensift, Casablanca, Morocco",33.552965,-7.684208
Matu Assurance,MATU,"Tangier, Morocco","263 Bd de la Grande Ceinture, Casablanca 20670, Morocco",33.58281580000001,-7.5579054
Matu Assurance,MATU,"Tangier, Morocco","N° 72, HAY Rajaa, 2 Av. des Forces Auxiliaires, Casablanca 20670, Morocco",33.5744417,-7.5508498
Matu Assurance,MATU,"Tangier, Morocco","Bd Bouziane, Résidence FARHATINE N° 207 et 209 Salama 3, Casablanca 20670, Morocco",33.56319149999999,-7.558277599999998
Matu Assurance,MATU,"Tangier, Morocco","87 AL, BD DAKHLA, Rue 10 Jamila 3, Casablanca, Morocco",33.5429502,-7.578385199999999
Matu Assurance,MATU,"Tangier, Morocco","Av. Abou Bakr el Kadiri, Casablanca, Morocco",33.5177681,-7.653808700000001
Matu Assurance,MATU,"Tangier, Morocco","N°, RESIDENCE ILHAM, 58 Rue 64, Casablanca 20250, Morocco",33.5600946,-7.6907742
Matu Assurance,MATU,"Tangier, Morocco","LOTISSEMENT ENNASR N° 3, Casablanca, Morocco",33.5875639,-7.524647400000001
Centre Rma Service,RMA,"Tangier, Morocco","15 Rue Omar Slaoui، Dar-el-Beida 20670, Morocco",33.5883325,-7.6188292
"RMA, Headquarters, Casablanca.",RMA,"Tangier, Morocco","Av. des FAR, Casablanca, Morocco",33.5970867,-7.611310199999999
Rma Capital,RMA,"Tangier, Morocco","H9WP+RVG, Av. des FAR, Casablanca 20100, Morocco",33.5970624,-7.612809199999998
RMA Assurance,RMA,"Tangier, Morocco","83, Av. de l'Arm?e Royale -, Casablanca 20000, Morocco",33.595981,-7.6119642
RMA Assurance,RMA,"Tangier, Morocco","G9J2+XVP, Casablanca, Morocco",33.532471,-7.647796100000001
RMA INTEGRITE ASSURANCES,RMA,"Tangier, Morocco","12 Résidence KOUTOUBIA Nassim, Casablanca 20190, Morocco",33.5247283,-7.659877299999999
RMA Assurance,RMA,"Tangier, Morocco","91 Bd Moulay Hassan I, Casablanca 20100, Morocco",33.59455839999999,-7.6209303
RMA Assurance,RMA,"Tangier, Morocco","83 Avenue des Forces Armées Royales, Casablanca 20250, Morocco",33.57310289999999,-7.5898116
Assurance RMA Maarif Al Hikma,RMA,"Tangier, Morocco","32 Boulevard Bir Anzarane, Casablanca, Morocco",33.58081049999999,-7.637597199999999
RMA - MAROC ASSURANCES,RMA,"Tangier, Morocco","Angle Bd. 2 Mars et Bd. Al Qods Rés. Al Majd, Imm. E, Casablanca 20450, Morocco",33.53922449999999,-7.600769100000001
RMA,RMA,"Tangier, Morocco","153 Bd Moulay Idriss I, Casablanca 20250, Morocco",33.5722559,-7.618439900000001
RMA Watanya,RMA,"Tangier, Morocco","GCP7+CCC, Casablanca 20500, Morocco",33.5360696,-7.586486899999998
RMA LA FRATERNITE,RMA,"Tangier, Morocco","GCX6+FJ2 Rue Alkhalil, Rue 300 Hay Moulay Abdellah, Casablanca, Morocco",33.5486435,-7.588475199999998
الملكية المغربية للتأمين، تأمينات التعاون، الحي الحسني.,RMA,"Tangier, Morocco","25, Bd Sidi Abderrahman, Hay El Hanaa, Casablanca 20100, Morocco",33.5763292,-7.6725273
RMA Assurance RASSURA,RMA,"Tangier, Morocco","HFH5+6FM, Av. Lalla Asmaa, Casablanca 20250, Morocco",33.5780932,-7.541322800000001
Rma Wataniya (Bgd Essaouira,RMA,"Tangier, Morocco","H9VM+99H, Rue du Prince Moulay Abdellah, Casablanca 20100, Morocco",33.5934265,-7.616512900000002
RMA Assurance,RMA,"Tangier, Morocco","G9R5+P2F, Zénith, Casablanca, Morocco",33.541817,-7.642447000000001
الملكية المغربية للتأمين، تأمينات جيرس.,RMA,"Tangier, Morocco","54, Bd De La Grande Ceinture (H.Mohammadi), n°1Bis Hay Taiba, 1er étage، Dar-el-Beida 20100, Morocco",33.5819805,-7.5612501
Assurances Riah,RMA,"Tangier, Morocco","87 . Lotissement Iminwaday- H, Berrechid, Berrechid 20000, Morocco",33.554352,-7.591980999999998
Services Techniques D'Assurances Et De Gestion,RMA,"Tangier, Morocco","22, Bd Moulay Youssef, 2°Ét., 21000 Quartier: Lusitania, Casabla, 22 Bd Moulay Youssef, Casablanca 20100, Morocco",33.5924459,-7.627580300000001
Agence Vecteur Assurances RMA,RMA,"Tangier, Morocco","N°, LOTISSEMENT HABIBA, 210 Bd Laymoune, Casablanca 20260, Morocco",33.5405429,-7.6756141
RMA Assurance,RMA,"Tangier, Morocco","HFJG+H55, Casablanca, Morocco",33.5813848,-7.524500499999999
Rma Watanya Projet Mpls (Standard),RMA,"Tangier, Morocco","8 Avenue Achariate El Masjid, Oued Eddahab, Casablanca 20100, Morocco",33.5394284,-7.575508399999999
RMA olkom assurance,RMA,"Tangier, Morocco","G8W9+RJR, Rdpt Chahdia, Casablanca 20240, Morocco",33.5471083,-7.6809749
Assurance RMA ABOUAB DAR BOUAZZA,RMA,"Tangier, Morocco","H824+CHJ, Casablanca, Morocco",33.5510813,-7.693624600000001
Conseil Pro Assurance,RMA,"Tangier, Morocco","Ecole Hay Essalam, Benslimane 20250, Morocco",33.5645458,-7.602056900000001
RMA ASSURANCE SEBKI,RMA,"Tangier, Morocco","RES LAOUIJA, CENTRE, Bouskoura, Morocco",33.45301539999999,-7.6493916
assurance el oulfa rma el archi,RMA,"Tangier, Morocco","239 Bd Oued Tensift, Casablanca 20220, Morocco",33.55419250000001,-7.6799493
Point Assur S.a.r.l.,RMA,"Tangier, Morocco","Q. Gauthier, 37 Rue Moussa Ben Noussair, Casablanca 20100, Morocco",33.5895392,-7.629025399999998
Assurance Almaarifa RMA,RMA,"Tangier, Morocco","Anassi 22 Nr 15 El Bernossi Casablanca،, Casablanca, Morocco",33.5897112,-7.496698400000001
RMA SALAMA CASA,RMA,"Tangier, Morocco","JFGW+G95, Casablanca 20250, Morocco",33.6392001,-7.5234977
RMA,RMA,"Tangier, Morocco","9F69+X6C, Nouaceur, Morocco",33.3624458,-7.531938300000002
التعاضدية الفلاحية والتعاضدية المركزية,MCMA,"Tangier, Morocco","98 Bd Lahcen Ou Ider, Casablanca 20100, Morocco",33.5847277,-7.609426
التعاضدية الفلاحية و التعاضدية المركزية,MCMA,"Tangier, Morocco","38 Rue Omar Slaoui، Dar-el-Beida 20250, Morocco",33.58640639999999,-7.621384499999999
Mamda Mcma Casa Abdelmoumen,MCMA,"Tangier, Morocco","av des pléiades, Étage 2, Porte droite, Bd Abdelmoumen, Casablanca 20000, Morocco",33.5734164,-7.625726999999999
التعاضدية المركزية والتعاضدية الفلاحية، وكالة 2 مارس، مرس السلطان.,MCMA,"Tangier, Morocco","H9FP+543, Av. 2 Mars, Casablanca 20250, Morocco",33.57287919999999,-7.614700399999999
MAMDA_MCMA : Mutuelle Agricole Marocaine D'Assurance,MCMA,"Tangier, Morocco","Ang Boulevard Ba Hmad et Rue César Franck, Casablanca 20250, Morocco",33.5932068,-7.588489300000002
مامدا، وكالة سقراط، الدارالبيضاء المعاريف.,MCMA,"Tangier, Morocco","1-3، Les résidences MASUREL, Rue Socrate, Dar-el-Beida 20380, Morocco",33.57561109999999,-7.6433311
MAMDA & MCMA BOURGOGNE,MCMA,"Tangier, Morocco","Bd de Bourgogne, Casablanca 20250, Morocco",33.598148,-7.6440542
MCMA MAEM Belvédère,MCMA,"Tangier, Morocco","Immeuble Yassine, 14 Rue de Sijilmassa, Casablanca 20000, Morocco",33.5947409,-7.593747
تأمينات مامدا,MCMA,"Tangier, Morocco","lot N°7، ETG RDC، lot El khozama، Dar-el-Beida 20220, Morocco",33.5391362,-7.680982299999998
MAMDA MCMA MAEM Sbata,MCMA,"Tangier, Morocco","Av Oued Eddahab, Casablanca 20000, Morocco",33.5394875,-7.575855799999999
Mamda Mcma Casa A,MCMA,"Tangier, Morocco","80 bd de la resistance, Casablanca 20000, Morocco",33.5755696,-7.6434688
Mamda Mcma 2 Mars,MCMA,"Tangier, Morocco","immeuble n120, rdc l, Av. 2 Mars, Casablanca 20502, Morocco",33.5739253,-7.614487200000002
التعاضدية الفلاحية والتعاضدية المركزية,MCMA,"Tangier, Morocco","GH1 IMM3 C9, Av. Abou Bakr el Kadiri, Casablanca 20520, Morocco",33.527005,-7.649622
التعاضدية الفلاحية والتعاضدية المركزية، وكالة البرنوصي.,MCMA,"Tangier, Morocco","110, amal 3 boulevard abi dar ghaffarie, Casablanca 20610, Morocco",33.606936,-7.517066000000002
Mamda Mcma Sidi Othmane,MCMA,"Tangier, Morocco","240 boulevard bouziane propieté sanaa 71 rdc, Casablanca 20700, Morocco",33.56320499999999,-7.557483
MCMA MAMDA,MCMA,"Tangier, Morocco","254, hay salama 3 20700, Av. Mohamed Bouziane, Casablanca 20670, Morocco",33.5631377,-7.557429200000002
MAMDA-MCMA,MCMA,"Tangier, Morocco","Av. Mohammed VI, Rabat 10020, Morocco",33.9990298,-6.827199500000001
MAMDA-MCMA ERRAHMA,MCMA,"Tangier, Morocco","G7PF+JQ3, Madinat Arrahma, Morocco",33.5364613,-7.7256856
Mamda Mcma Bouskoura,MCMA,"Tangier, Morocco","rdc résidence jasmine gh 11 i5 m2 route, p3011, Casablanca 27182, Morocco",33.46637,-7.64587
Mamda-Mcma Anasi,MCMA,"Tangier, Morocco","HGV2+VHJ, Bd Mohamed Zefzaf, Casablanca, Morocco",33.59462,-7.498600799999998
Mamda Mcma Errahma,MCMA,"Tangier, Morocco","lot 145 fbt, Casablanca 20570, Morocco",33.53162,-7.728129999999998
MAMDA MCMA MAEM Mohammedia,MCMA,"Tangier, Morocco","MJVC+M8C, P3313, Mohammédia, Morocco",33.69418009999999,-7.379247200000001
تأمينات مامدا,MCMA,"Tangier, Morocco","Angle Boulevard Abdelmoumen, FFPX+2HQ, rue des pléiades, Casablanca, Morocco",33.4850853,-7.5010254
SAHAM Group,Saham,"Tangier, Morocco","216 Bd Mohamed Zerktouni, Casablanca 20100, Morocco",33.587924,-7.632682400000001
Check auto saham,Saham,"Tangier, Morocco","H9PC+C3F, Bd Mohamed Zerktouni, Casablanca 20250, Morocco",33.586059,-7.629825299999999
Sanlam - Bureau Direct Siège,Saham,"Tangier, Morocco","216 Bd Mohamed Zerktouni, Casablanca 20000, Morocco",33.58799630000001,-7.6326898
Saham Digital Factory,Saham,"Tangier, Morocco","117 Avenue Hassan II, et la, Rue d'Agadir, Casablanca 20250, Morocco",33.58735619999999,-7.6210346
Assurance Racine / Saham Assurance,Saham,"Tangier, Morocco","Rue angle Rue Le Titien, Casablanca, Morocco",33.5759692,-7.636433199999999
Sanlam Assurance,Saham,"Tangier, Morocco","Boulevard Emile Zola, Angle rue de Lille et rue Abdelwahab Ezzakak، H9RX+M6F, Dar-el-Beida 20000, Morocco",33.5916902,-7.601963599999999
Wafa Assurance,Wafa assurance,"Tangier, Morocco","1 Bd Abdelmoumen, Casablanca 20250, Morocco",33.5826224,-7.6235639
Wafa Assurances Andalouss,Wafa assurance,"Tangier, Morocco","Rue Pierre Parent Quartier Fonciere, Casablanca, H9VR+QCR, Casablanca 20100, Morocco",33.59449549999999,-7.608976299999997
Wafa ASSURANCE OPTIMUM,Wafa assurance,"Tangier, Morocco","127 Bd Moulay Youssef, Casablanca 20250, Morocco",33.5981381,-7.632278100000001
تأمين الوفاء، الاقتصادية للتأمين، المعاريف.,Wafa assurance,"Tangier, Morocco","36 Boulevard Bir Anzarane, Casablanca, Morocco",33.58113029999999,-7.6379614
Wafa Assurance,Wafa assurance,"Tangier, Morocco","H9RF+364, Bd Moulay Youssef, Casablanca 20250, Morocco",33.5901464,-7.626917499999999
Assurance Mostafa el maani,Wafa assurance,"Tangier, Morocco","35 Rue Al Woroud, Casablanca 20250, Morocco",33.584409,-7.6211812
Wafa Assurance,Wafa assurance,"Tangier, Morocco","H9PV+CRF, Bd de la Résistance, Casablanca 20250, Morocco",33.5860594,-7.605447700000003
Wafa Assurance,Wafa assurance,"Tangier, Morocco","2 Bd Mohamed Zerktouni, Casablanca 20140, Morocco",33.5830796,-7.6165948
Wafa Assurance AL HAY AL HASSANI,Wafa assurance,"Tangier, Morocco","Résidence Selma, Résidence Selma Oulfa، 102 Bd Oued Oum Rabia, Casablanca 20200, Morocco",33.5636515,-7.668231100000001
Wafa Assurance Assurance El Oualidi,Wafa assurance,"Tangier, Morocco","166 bis Angle Bd Omar El Khayam et, Rue Al Oukhouane, Casablanca 20250, Morocco",33.5655286,-7.647336699999999
Wafa Assurance,Wafa assurance,"Tangier, Morocco","185 Bd de Smara, Casablanca, Morocco",33.5396442,-7.593644899999997
Wafa Assurance - Bureau Direct Stendhal,Wafa assurance,"Tangier, Morocco","Angle Bd.Stendhal, Res.Benber, Porte G, Rue Georges Sand, Casablanca 20390, Morocco",33.5768149,-7.6341933
Wafa IMA Assistance,Wafa assurance,"Tangier, Morocco","No.2 Lotissement Mandarona Imm Casablanca Business Center, Casablanca 20270, Morocco",33.539472,-7.6435856
تأمين الوفاء، تأمينات بنزيت، الحي الحسني.,Wafa assurance,"Tangier, Morocco","H9C2+GHG, Bd Yacoub El Mansour, Casablanca, Morocco",33.5713157,-7.648560100000002
NOBLE ASSURANCE WAFA ASSURANCE,Wafa assurance,"Tangier, Morocco","HC3F+99W, Casablanca, Morocco",33.5534831,-7.576561400000001
WAFA ASSURANCE ABDELKADER SAHRAOUI,Wafa assurance,"Tangier, Morocco","74 Av. Abdelkader Essahraoui, Casablanca 20670, Morocco",33.5557661,-7.545416399999998
Wafa Assurance | تأمين الوفاء,Wafa assurance,"Tangier, Morocco","Numéro 141 lot Moulat Thami Taha2 Quartier el Oulfa Hay Hassani Arrahma Sidi Maarouf Casa Anfa Laymoune Ain Diab, Casablanca 20220, Morocco",33.5529117,-7.689893099999998
تأمين الوفاء، تأمينات دار الحمراء، الحي الحسني.,Wafa assurance,"Tangier, Morocco","rue 4 hay missimi, Casablanca 20250, Morocco",33.5701723,-7.671263199999998
ASSURANCE GALLILEE,Wafa assurance,"Tangier, Morocco","95 Rue Taha Hussein, Casablanca 20250, Morocco",33.59019289999999,-7.631074099999998
Bureau Direct LISSASFA WAFA ASSURANCES تأمين الوفاء وكالة ليساسفة,Wafa assurance,"Tangier, Morocco","N° 216, 2eme etage , Bloc B, Lissasfa, Casablanca 20232, Morocco",33.5324184,-7.671252200000001
Assurances Derb Omar S.A.R.L.,Wafa assurance,"Tangier, Morocco","Rue De Strasbourg Ang. Rue Moha Ou Hammou N?52 Derb Omar, Casablanca 20100, Morocco",33.59242479999999,-7.6116104
Assurances Boudad,Wafa assurance,"Tangier, Morocco","1°Ét, 45 Bd d'Anfa, Casablanca 20100, Morocco",33.5943201,-7.628689399999999
ASSURANCES LA GARE,Wafa assurance,"Tangier, Morocco","270 avenue al mahatta derb menjra, Casablanca 20250, Morocco",33.5751767,-7.5903643
WAKIL Assurances,Wafa assurance,"Tangier, Morocco","HCM9+JFX, Casablanca 20320, Morocco",33.5841217,-7.581256900000001
ASSURANCES ATTASSAHOUL,Wafa assurance,"Tangier, Morocco","H9X4+PQJ, Casablanca 20250, Morocco",33.5993264,-7.6431187
WAFA ASSURANCES,Wafa assurance,"Tangier, Morocco","JG57+J77 AL AZHAR, Casablanca, Morocco",33.6090338,-7.4868283
Assurance Oulad Saleh Bouskoura,Wafa assurance,"Tangier, Morocco","Lot Ennour N°113 ETG 1 Z.I Oulad Saleh Ennouacer, Casablanca 27182, Morocco",33.57308,-7.589776000000001
ASSURANCES ESSADRI,Wafa assurance,"Tangier, Morocco","82 AVENUE DES FORCES AUXILIAIRES, Casablanca 20670, Morocco",33.5694804,-7.558045399999998
Assurances Safaa Mrani,Wafa assurance,"Tangier, Morocco","Bd Victor Hugo, Casablanca 20100, Morocco",33.5787178,-7.609639100000001
Wafa assurance تأمينات الوفاء,Wafa assurance,"Tangier, Morocco","22 Bd Oued Beht, Casablanca 20220, Morocco",33.5585828,-7.6779033
Assurances Ibn Sina,Wafa assurance,"Tangier, Morocco","173, Bd Ibn Sina - Ex Avicenne, R?sid. El Baraka Gh16, Casablanca 20100, Morocco",33.586452,-7.648972
Wafa assurance,Wafa assurance,"Tangier, Morocco","210 Bd Laymoune, Casablanca, Morocco",33.5406708,-7.675366099999999
Assurances El Fida (Fidassur),Wafa assurance,"Tangier, Morocco","238 Bd El Fida, Casablanca 20000, Morocco",33.568156,-7.6042992
Wafa assurence تأمينات الوفاء,Wafa assurance,"Tangier, Morocco","HC6M+4G4 Tribunal Adminstratif, Casablanca 20670, Morocco",33.56025059999999,-7.5661777
wafa assurance,Wafa assurance,"Tangier, Morocco","JF4V+VVQ, Casablanca 20250, Morocco",33.607222,-7.505278
ASSURANCES NESMAOUI,Wafa assurance,"Tangier, Morocco","Casablanca, Morocco",33.52579519999999,-7.6507681
Bureau Direct BOUSKOURA WAFA ASSURANCE تأمين الوفاء وكالة بوسكورة,Wafa assurance,"Tangier, Morocco","F932+V2M, P3011, Bouskoura BOUSKOURA, Casablanca 20300, Morocco",33.4546515,-7.6499091
WAFA assurances,Wafa assurance,"Tangier, Morocco","HC5V+6CV, Bd Commandant Driss Al Harti, Casablanca 20670, Morocco",33.5581158,-7.556439699999999
WAFA Assurance NADIASSUR,Wafa assurance,"Tangier, Morocco","JG97+QGJ, Bd Allait Ibn Asaad, Casablanca 20250, Morocco",33.6194598,-7.4862298
تأمين الوفاء، تأمينات بالمريس، المعاريف.,Wafa assurance,"Tangier, Morocco","H997+V9M، Rue Théodore de Banville، Dar-el-Beida, Morocco",33.5697192,-7.636566
Wafa assurance,Wafa assurance,"Tangier, Morocco","JF3J+F4G, Bd Moulay Mohamed El Bouamrani, Casablanca 20250, Morocco",33.6036993,-7.519667999999999
Wafa assurance,Wafa assurance,"Tangier, Morocco","Unnamed Road, HGMC+GG8, Casablanca, Morocco",33.5837941,-7.478660099999999
Yamna Assurances,Wafa assurance,"Tangier, Morocco","26, Bd Brahim Roudani, 3?Et., Grand Casablanca, 20000, Casablanc, Casablanca 20100, Morocco",33.5768232,-7.6381237
Wafa Assurance Dar Bouazza,Wafa assurance,"Tangier, Morocco","Lotissement Ansari, Tamaris 27223, Morocco",33.5220297,-7.815909200000001
AFA Assurances,Wafa assurance,"Tangier, Morocco","38,RDC, Résidence Bensalem, 3 Rue de Barsac, Casablanca 20500, Morocco",33.5833425,-7.5975663
Palmarès Assurances,Wafa assurance,"Tangier, Morocco","Angle Rue Bachir Laalej et Theodore Banville Resid. Rissala mag. 5، Dar-el-Beida, Morocco",33.5727414,-7.638747100000001
ASSURANCES BINE ELOUIDANE,Wafa assurance,"Tangier, Morocco","315, 317 Bd Oued Oum Rabia, Casablanca 20220, Morocco",33.558572,-7.678040199999998
Wafa assurance,Wafa assurance,"Tangier, Morocco","23 LOT WAFA 02 1ER ETAGE APPT B EN FACE DE LA CATHÉDRALE، Aïn Harrouda 28630, Morocco",33.638133,-7.449074
Assurance ELKODIA,Wafa assurance,"Tangier, Morocco","120 Bd de la Grande Ceinture, Casablanca 20250, Morocco",33.5825525,-7.562222800000001
Wafa assurance (mon assureur),Wafa assurance,"Tangier, Morocco","HC2J+HC5, Boulevard Al Joulane, Casablanca, Morocco",33.55139589999999,-7.568893599999999
CHIHAB ASSURANCES,Wafa assurance,"Tangier, Morocco","BOUCHRA 11 IMMEUBLE C TRANCHE 1 NUMERO 19-03 AL AZHAR, Casablanca 20620, Morocco",33.5988321,-7.4887759
Benghazi Assurances,Wafa assurance,"Tangier, Morocco","329 Résidence AL AMANE en face ENCG Casa، Dar-el-Beida 20350, Morocco",33.5936372,-7.532906700000001
African Reinsurance Brokers (ARB ASSURANCES),Wafa assurance,"Tangier, Morocco","Boulevard Ghandi Ghandi Mall, Immeuble 7, Bureau n°3, 1er étage، Casablanca 20380, Morocco",33.5745468,-7.6504319
Assurances EL ANSARI Casablanca sarl,Wafa assurance,"Tangier, Morocco","2 Bd Mohamed Zerktouni, Casablanca 20140, Morocco",33.5831096,-7.6166368
Wafa Assurance,Wafa assurance,"Tangier, Morocco","7CF7+5FF, Berrechid, Morocco",33.2729309,-7.5863321
NADA Assurances,Wafa assurance,"Tangier, Morocco","Bd El Qods, Casablanca, Morocco",33.53372,-7.612796999999998
ASSURANCE PREVASSUR,Wafa assurance,"Tangier, Morocco","281 Bd Emile Zola, Casablanca 20250, Morocco",33.5953166,-7.594428999999999
Wafa Immobilier (Agence Casa Zerktouni),Wafa assurance,"Tangier, Morocco","202 Boulevard Zerktouni Quartier Racine, Casablanca, Casablanca 20100, Morocco",33.5871029,-7.6314605
Assurances Ahmed Yassine,Wafa assurance,"Tangier, Morocco","79 Bd Mouad Bnou Jabal, Casablanca 20250, Morocco",33.6103778,-7.5123048
AL WAKALA LITAAMINE,Wafa assurance,"Tangier, Morocco","HFJ4+3H3, Casablanca 20250, Morocco",33.58012909999999,-7.543574500000001
