name,company,city,address,latitude,longitude
Allianz assurance rabat centre,ALLIANZ,Rabat,"centre, Salé, Morocco",34.0336969,-6.7708138
Allianz,ALLIANZ,Rabat,"Rez de chaussé, Immeuble 2 et 4, Lotissement ESSAÄDA - Ain Atiq Ain Atiq, Témara, Morocco",33.887048,-6.969851
Allianz,ALLIANZ,Rabat,"X4QG+MCP, Rabat, Morocco",33.9892297,-6.8739652
Allianz Taawid Rabat,ALLIANZ,Rabat,"6 Av. Moulay Ismail, Rabat 10020, Morocco",34.0239442,-6.8302896
SAGESSE ASSURANCES ALLIANZ MAROC SALE TABRIQUET,ALLIANZ,Rabat,"Magasin N° 3, Résidence Niama, Av. Lalla Asmae, Salé, Morocco",34.0412132,-6.8064707
Assurance Zahrassur,ALLIANZ,Rabat,"10 Av. Mohammed V, Témara 12000, Morocco",33.9207479,-6.9160184
Allianz,ALLIANZ,Rabat,"15 Av. Moulay Rachid, Salé, Morocco",34.0190238,-6.7626284
Assurance Allianz,ALLIANZ,Rabat,"X5Q7+46M, Av. Commandant Driss El Harthi, Rabat, Morocco",33.9878446,-6.8369478
Allianz mabella,ALLIANZ,Rabat,"Mabella, Av. Tadla, Rabat, Morocco",33.9954796,-6.8195248
Allianz assurance (salé-karia),ALLIANZ,Rabat,26FR+X78،، شارع مولاي عبد الحفيظ،، سلا،، Morocco,34.0247928,-6.7594313
Assurance Aminas,ALLIANZ,Rabat,"Temara, Morocco",33.9041199,-6.9196264
Bureau direct Salé Karia Allianz Assurance,ALLIANZ,Rabat,"58 Av. Moulay Abdelhafid, Salé, Morocco",34.0231862,-6.7611282
Bureau conseiller en assurance,ALLIANZ,Rabat,"a côté de café Bella Vista, Résidence Diyar 3, Av. Ouali Al Had Sidi Mohamed, Salé 11000, Morocco",34.040929,-6.8167755
Assurance Alyanssur,ALLIANZ,Rabat,"X5MF+FQG, Ave Al Haouz, Rabat, Morocco",33.9836812,-6.8255377
Allianz,ALLIANZ,Rabat,"77, Secteur 9, Ain El Aouda, Morocco",33.808724,-6.786785
Alliance Arabe D'Assurances,ALLIANZ,Rabat,"5, Rue De L'Independance, Imm. Tantaoui, 2°Et., Doukkala-Abda, S, Salé 11000, Morocco",34.033362,-6.7999567
SF Assurances - Crédits,ALLIANZ,Rabat,"Himmi 4, Av Benguerir, Salé 11000, Morocco",34.0323162,-6.8035943
AL JAYI Assurances & Conseil - Rabat,ALLIANZ,Rabat,"21 Groupe Al Boustane Av Al Haouz, Takaddoum, Rabat 10000, Morocco",33.9855774,-6.8219694
SORENA Assurances Agent général d'Allianz,ALLIANZ,Rabat,"14000 Avenue Imam Ali, Kénitra, Morocco",34.2625014,-6.5860999
Résidence Al Boustane,ALLIANZ,Rabat,"25QP+QFW, Av. Atlas Assaghir, Salé, Morocco",34.0394946,-6.8137954
Assurance El Azzouzi,ALLIANZ,Rabat,"26WC+Q54, Salé, Morocco",34.0468761,-6.7795419
Cabinet Lyazidi Conseil,ALLIANZ,Rabat,"2577+Q8Q, Av. Moulay Youssef, Rabat, Morocco",34.0144513,-6.8366505
Allianz,ALLIANZ,Rabat,"N°36, Route Antara, Kénitra, Morocco",34.271088,-6.601817
ASSURANCES BENLAMINE,ALLIANZ,Rabat,"Magasin 3 , Immeuble ALYA, Avenue El Haouz، CITÉ ADMINISTRATIVE، Rabat 10000, Morocco",33.9836523,-6.8263145
Zenith Assurances Courtage Maroc,ALLIANZ,Rabat,"56 Av. de France, Rabat 10000, Morocco",33.997042,-6.8507803
Assurances La Gazelle S.A.R.L.,ALLIANZ,Rabat,"145 Av. Allal Ben Abdellah, Rabat 10000, Morocco",34.0187096,-6.8344134
Assurance Yassur s.a.r.l. (Zurich Assurances Maroc),ALLIANZ,Rabat,"Hay Nahda Rue Bani Hamid n°206 Extention, Rabat, Morocco",33.9740322,-6.8180691
تأمينات أطلنطا سند,AtlantaSanad,Rabat,"967 RUE LEMTOUNA GROUPE AL AHD, Rabat, Morocco",33.9790587,-6.8191332
Assurance Atlanta Abtal,AtlantaSanad,Rabat,"22 Av. Omar Ibn Al Khattab, Rabat, Morocco",34.0029224,-6.8461372
Assurance Atlanta,AtlantaSanad,Rabat,"X4C4+87V, Av. Al Massira, Rabat, Morocco",33.9708659,-6.8943216
Atalanta assurance,AtlantaSanad,Rabat,"26X2+QGV, Salé, Morocco",34.0494837,-6.7987088
ASSURANCES LE VALLON (Atlanta Sanad Assurances),AtlantaSanad,Rabat,"LOT 85 MAGHREB ARABI D HC 4, Kénitra 14000, Morocco",34.2564465,-6.6120248
AtlantaSanad Assurance,AtlantaSanad,Rabat,"7C4F+5RV, Ave des FAR, Kenitra, Morocco",34.2554852,-6.5754536
ASSURANCE ATLANTASANAD - SIHAMASSUR,AtlantaSanad,Rabat,"bureau N° 1, Rés Wael, 129 Avenue Imam Ali, Kénitra, Morocco",34.2603111,-6.5902455
BGD AtlantaSanad Ain Aouda,AtlantaSanad,Rabat,"Q6X4+J6G, Aïn El Aouda, Morocco",33.7990818,-6.7929416
Mounia assurance agent atlantasanad,AtlantaSanad,Rabat,"37 Rue Maamora, Kénitra 14000, Morocco",34.2621068,-6.584627
Roukn Assurances,AtlantaSanad,Rabat,"35, Av Al Amir Fal Ould Oumeir, Appt. 4, Agdal, 10020, Rabat, Rabat 10020, Morocco",34.0027183,-6.8511121
AtlantaSanad Assurance,AtlantaSanad,Rabat,"Avenue Mohamed V, Résidence Oum Alkhair, Bureau N°1, Sidi Yahya du Rharb, Morocco",34.3086482,-6.3039339
AtlantaSanad Assurance,AtlantaSanad,Rabat,"42, hay Essaada, Rommani, Morocco",33.5229186,-6.6023665
Friend's Assurance,AtlantaSanad,Rabat,"Avenue Madagascar magasin, residence souhaila océan, 5 bis Av. Madagascar, Rabat, Morocco",34.0171348,-6.8500584
Assurances Al Khabazate,AtlantaSanad,Rabat,"172 rue la mosquée kenitra (à cote clinique sebou, Kénitra 14001, Morocco",34.2656388,-6.5711291
ATLANTASANAD Assurance BUREAU DIRECT Sidi yahia zaer,AtlantaSanad,Rabat,"Route R403 Acoté La Commune Sidi Yahia Zaer, zaer 12152, Morocco",33.4052462,-6.8519277
PRESTIGE ASSURANCE (PRESTASSUR),AtlantaSanad,Rabat,"Avenue Al Massira, C.Y.M, 1021 Amal 5, Rabat 10000, Morocco",33.9754953,-6.8884897
SERHIR ASSURANCE 'AtlantaSanad',AtlantaSanad,Rabat,"I-3,n:2a,zerhounia ext°4، Meknès 50000, Morocco",33.8970125,-5.5832278
Axa Assurances Oisis,AXA,Rabat,"Rue Bani Jaber 399,Hay Nahda 1 Complémentaire, Rabat, Morocco",33.9788036,-6.8171711
AXA ASSURANCES MAHTAT,AXA,Rabat,"RESIDENCE EL BOUSTANE 6, BOULEVARD D, BLOC 7 , 1ER ETAGE APPT 11 HAY RAHMA SALE ENTRE ROND POINT SUPER ET MOSQUEE، hay rahma, Salé, Morocco",34.0632212,-6.7837894
Assurance Aich,AXA,Rabat,"Groupe G CYM, 13 Av. Al Kifah, Rabat, Morocco",33.9908822,-6.8743249
AXA Services Maroc - Hay Riad,AXA,Rabat,"14 Av. Annakhil, Rabat, Morocco",33.9560292,-6.8675394
AXA Services Maroc - Agence de Recrutement,AXA,Rabat,"Avenue Bin Al Ouidane، Rabat, Morocco",34.0051094,-6.8489937
AXA AL MASSIRA,AXA,Rabat,"12، BLOC 1، Temara 12030, Morocco",33.9193407,-6.8901397
AXA ASSURANCE AIN ATIQ - BUREAU DIRECT,AXA,Rabat,"Rés AL MANZAH AIN ATIQ, N° 78 Av. Hassan II, AIN ATIQ, Morocco",33.8926606,-6.9604833
Megassur AXA Assurance,AXA,Rabat,"Mahaj Riad Magasin C-47 Immeuble N° 13، Rabat 10010, Morocco",33.9613166,-6.8674876
REDINA Assurance AXA,AXA,Rabat,"10 Av. Abderrahim Bouabid, Salé, Morocco",34.0467466,-6.7783082
Axa assurances laaroussi al akhawain,AXA,Rabat,"W36G+PWW, Av. Moulay Hassan I, Témara, Morocco",33.9118744,-6.9226808
AXA assurances la quiétude,AXA,Rabat,"W3F9+P2R, Bd Gaza, Témara, Morocco",33.9243535,-6.9324884
AXA ASSURANCE MAROC BOUKNADEL,AXA,Rabat,"87, secteur 4 lotissement zerdal maroc, Sidi Bouknadel, Morocco",34.1216828,-6.7364028
Axa BD océan Rabat,AXA,Rabat,"25G3+6VX, Av. Abdelkrim El Khattabi, Rabat, Morocco",34.0256084,-6.8452532
AXA assurance sidi Taibi,AXA,Rabat,"58V8+WR6, Sidi Taibi, Morocco",34.1946806,-6.6823529
AXA,AXA,Rabat,"B2, Salé, Morocco",33.9914315,-6.7213687
axa mers el kheir,AXA,Rabat,"lot el kheir n148-150, Mers El Kheir 12025, Morocco",33.8633114,-6.9290804
Axa assurance,AXA,Rabat,"VX4C+VPW Ain Hayat-v, Skhirat, Morocco",33.8572388,-7.0281725
Axa mouniassure d'assurance,AXA,Rabat,"شارع مولاي رشيد و زنقة خرطوم حي العلويين المركز تمارة الرقم البريد 12000، تمارة،، Temara, Morocco",33.9243852,-6.9154617
Axa Assurance,AXA,Rabat,"W4Q2+FV2, Temara, Morocco",33.9386375,-6.8978624
Enssam axa assurance,AXA,Rabat,"3673+W76, Salé, Morocco",34.0647989,-6.7968438
AXA Groupe Opération Maroc,AXA,Rabat,"1, Salé, Morocco",33.9923131,-6.7226311
Assurances Chraïbi Et Cie,AXA,Rabat,"Av. Abou Faris Al Marini, Rabat 10000, Morocco",34.0165467,-6.8328837
ASSURANCE AARAM AXA,AXA,Rabat,"89-91 Av. de la Résistance, Rabat, Morocco",34.0185282,-6.8503561
Assurance Les Deux Rives AXA,AXA,Rabat,"269P+9QH, Av. Moulay Rachid, El Jadida, Morocco",34.0184487,-6.7630009
ASSURANCE RIZQ,AXA,Rabat,"LOT ABOU BAKER NAJJARE TABRIQUET, 25WV+9X8، Avenue Mohamed V، Salé, Morocco",34.0459011,-6.8050577
AXA ASSURANCE TAMESNA,AXA,Rabat,"R3PF+4PJ, Av. Abdellah Ben Yassine, Tamesna, Morocco",33.8353434,-6.9257432
Assurance al akhawayn,AXA,Rabat,"3633+9W3, Av. Mohamed V, Salé, Morocco",34.0533878,-6.7951968
Axa credit Rabat,AXA,Rabat,"21 Av. Oqba Ibn Naafi, Rabat 10000, Morocco",34.0095105,-6.8437746
Secassure,AXA,Rabat,"Rue, Harou, X4VX+VJC, Avenue Moulay Rachid, Rabat 10080, Morocco",33.9946975,-6.8509771
Lynx Assurance,AXA,Rabat,"Immeuble 13, Avenue El Haj Hassan, Rabat 10000, Morocco",34.0099825,-6.8574256
AXA Crédit Temara,AXA,Rabat,"mag5-6, résidence Attawhid, n°22 Av. Hassan II, Témara 12010, Morocco",33.9109645,-6.9324246
ARABIA ASSURANCE,AXA,Rabat,"18 IMM, MAGASIN, 14 Avenue Bin Al Ouidane، Rabat 10000, Morocco",34.0063598,-6.850239
Touzini Assurances,AXA,Rabat,"Avenue Moulay Ismail Magasin N° 2, Rabat 10020, Morocco",34.0218638,-6.828036
Rapide assurance,AXA,Rabat,"Hay al maghreb al arabi, Massira 2, Avenue Tarik ibn ziad, Rond point MILANO, Témara 12030, Morocco",33.9259477,-6.8941297
Assurances Zbirat,AXA,Rabat,"Avenue Lalla Asmae, Rce azzahra app N°3 Tabriquet, Salé, Morocco",34.0402075,-6.806501
Carrefour Assurance Et Conseil,AXA,Rabat,"45 Av. Al Araar, Rabat, Morocco",33.9557037,-6.8760802
ASSURANCES TALBI AGENT GENERAL ATLANTASANAD,AXA,Rabat,"1626,M2, Av. Al Majd, Rabat 10150, Morocco",33.9679988,-6.8911039
Ste Transassur,AXA,Rabat,"6 Rue Soussa, Rabat 10000, Morocco",34.0177499,-6.8326884
ROUGANI ASSUR ET CONSEIL,AXA,Rabat,"apprt 2, 34 Rue Oued Ziz, Rabat 10090, Morocco",34.0031319,-6.8471242
Digital Factory 98 (MAMDA-MCMA),MAMDA,Rabat,"X5V3+G6M, Rabat, Morocco",33.9938135,-6.8469826
"Résidence CHADIA, Centre D'estivage Mamda-mcma Skhirat",MAMDA,Rabat,"VW8M+GVG, Skhirat, Morocco",33.8663134,-7.065296
Matu Assurance,MATU,Rabat,"Boulevard El Kifah bloc A n° 18 El Kamra, Rabat, Morocco",33.9916591,-6.8669204
Matu Assurance,MATU,Rabat,"HAY AL MASSIRA N° 632, Témara, Morocco",33.926992,-6.896342
MATU Assurance Temara,MATU,Rabat,"Av. Mohammed V, Témara, Morocco",33.9188215,-6.9183627
Matu Assurance,MATU,Rabat,"N° 10 RUE AHMED AL HAFYANI KHATAT, SECTEUR BADR, Salé, Morocco",34.057611,-6.778083
Matu Assurance,MATU,Rabat,"N° 4, avenue Hassan II, N°5, Imm Bab Khmiss, Bloc B Magasin, Salé, Morocco",34.0345246,-6.8014724
Matu Assurance,MATU,Rabat,"GROUPE 7 N° 7 YOUSSOUFIA OCCIDENTAL, Rabat, Morocco",33.9932193,-6.8176383
Matu Assurance,MATU,Rabat,"BD MLY RACHID N° 15 SECTEUR 4, Rue Karia, Salé, Morocco",34.0190235,-6.7626231
Matu Assurance,MATU,Rabat,"N° 380, 5 Bd Hassan II, Salé, Morocco",34.0276604,-6.7667578
Matu Assurance,MATU,Rabat,"368,AV MED V Rue Salaheddine, 2 ème Etage IMM JEDDA ,APPT N° 5, Kénitra, Morocco",34.259306,-6.585278
Matu Assurance,MATU,Rabat,"ANGLE AVENUE MOHAMED V ET RUE N° 174 LOT 1459 BAB FES, Kénitra, Morocco",34.2698934,-6.5603901
Bureau regional matu kenitra 3,MATU,Rabat,"6FR2+8MM, Kenitra, Morocco",34.240839,-6.5483242
Matu Assurance,MATU,Rabat,"BD AL MASSIRA AL IRCHAD N° 1, HAY SAKNIA, Kénitra, Morocco",34.241012,-6.5483202
Matu Assurance,MATU,Rabat,"Bd Mohamed V, Tiflet, Morocco",33.892694,-6.317861
RMA WATANYA BENKIRANE HICHAM,RMA,Rabat,"Avenue Hassan II Secteur ML N°4, Batiment N°20، à côté de la grande mosquée et WAFACASH، Sala Al Jadida - Maroc، Sala Al Jadida 11100, Morocco",33.9976181,-6.7392504
ASSURANCES RMA WATANYA,RMA,Rabat,"X4RG+54P, Rabat, Morocco",33.9904562,-6.874668
RMA Assurance,RMA,Rabat,"1423 Av. Tarik Ibn Ziad, Témara, Morocco",33.9219916,-6.8983513
RMA Assurance,RMA,Rabat,"25WR+8P4, Salé, Morocco",34.0457675,-6.8081735
RMA Assurance,RMA,Rabat,"X4F4+XRF, Av. Al Menzeh, Rabat, Morocco",33.9749279,-6.892959
RMA Services Rabat,RMA,Rabat,"20 Av. Al Fadila, Rabat, Morocco",33.9830778,-6.8737775
RMA Watanya,RMA,Rabat,"W4Q2+Q6X, Temara, Morocco",33.9394763,-6.8994018
RMA ASSURANCE CABINET BENKIRANE ASSUR RABAT,RMA,Rabat,"Yacoub El Mansour, Rabat, Morocco",33.9904554,-6.8746743
Assurance RMA الملكية الوطنية للتأمين,RMA,Rabat,"1538 Av. du 20 Août, Salé, Morocco",34.0408586,-6.7802036
RMA BGD SKHIRAT,RMA,Rabat,"VX38+WVJ, Skhirat, Morocco",33.8548375,-7.0328594
RMA Conecte Assurance,RMA,Rabat,"Rte de Rabat, Salé, Morocco",34.0553937,-6.8077521
RMA CONECTE ASSURANCE,RMA,Rabat,"N°3, saniat belamine, route de kenitra, K.M, 2 Rte de Rabat, Salé, Morocco",34.1401405,-6.7253321
RMA,RMA,Rabat,"36F7+J38, Av. Driss Ben Bouchaib Al Hrizi, Salé, Morocco",34.074047,-6.7873092
RMA Assurance,RMA,Rabat,"Boulevard Al Forkane, W3C8+663, lotissement Al Wifak, Témara, Morocco",33.9205146,-6.9344652
RMA Assuris,RMA,Rabat,"Ex Nahda, 21 Av. Ahmed Reda Gdira, Rabat 10000, Morocco",33.9767201,-6.8181558
RMA (BGD),RMA,Rabat,"app 2, 3 Rue Chaouia, Rabat, Morocco",33.9940422,-6.8228299
RMA,RMA,Rabat,"hay rahma, Salé, Morocco",34.0643259,-6.7667144
RMA Assurance,RMA,Rabat,"R625+77Q, Aïn El Aouda, Morocco",33.8007035,-6.7917757
RMA BGD BETTANA,RMA,Rabat,"25MX+P2W, N6, Salé, Morocco",34.0343519,-6.8024329
Rma Watanya Agents Et Courtiers,RMA,Rabat,"2 Rue Hassane Ben Tabit Quartier Centre Ville, Kenitra, Kénitra 14000, Morocco",34.258558,-6.583937
RMA Assurances,RMA,Rabat,"QRQP+585, N1, Bouznika, Morocco",33.7878665,-7.1641355
ASSURANCES MAHRAZ,RMA,Rabat,"Lot Oumaïma - Secteurt 1 - Kariat، 48 Av. Moulay Abdellah, Salé, Morocco",34.0255632,-6.7647274
RMA wataniya,RMA,Rabat,"7C9P+7VG, Kenitra, Morocco",34.2681802,-6.5628086
Royale Marocaine D'Assurances Rma,RMA,Rabat,"67-69 Avenue Des Far Quartier Ancienne Medina, Casablanca, Casablanca 20100, Morocco",34.2621828,-6.5663281
BGD Rma Assurance,RMA,Rabat,"n 21, 50 Avenue Imam Ali, Kénitra 14020, Morocco",34.2604069,-6.5903306
Doha Tech,RMA,Rabat,"Avenue hassane ll, côté de RMA, assurance benkirane , et WAFACASH, Sala Al Jadida 11100, Morocco",33.9940134,-6.7360188
Conseil Pro Assurance,RMA,Rabat,"41 Résidence Laayadi Hay Salam، Ben Slimane, Morocco",33.6253733,-7.1302922
RentCARma,RMA,Rabat,"Avenue Mohammed ٧ lotissement el mansour apt 07 tabriquet، Salé 11000, Morocco",34.0509441,-6.7991123
Sanlam - Agence Route De Kenitra,Sanlam,Rabat,"7, Boulevard Mohammed VI, Résidence NADA, Rte de Rabat, Salé 11000, Morocco",34.0685146,-6.7921858
Sanlam - Bureau Direct Rabat Mabella,Sanlam,Rabat,"Mabella, 5 Av. Tadla, Rabat, Morocco",33.9951425,-6.8201142
Sanlam Assurance,Sanlam,Rabat,"W3JV+RRX, Avenida Moulay Ali Cherif, Temara, Morocco",33.9321025,-6.9053844
Saham Assurance,Saham,Rabat,"imm.2- appt. 3, Av. Hassan II, Témara 12000, Morocco",33.9050381,-6.9388342
OUSSAMA ASSURANCES,Saham,Rabat,"Bloc DL N° 45 Avenue Al Massira, Kouass Yaakoub El Mansour, Rabat, Maroc، Rabat, Morocco",33.9885282,-6.8746799
Sanlam - Assurances Al Majd,Sanlam,Rabat,"Rue el ganzra imm. b apt. 1, Rabat 10000, Morocco",34.0068641,-6.8505021
Sanlam - Agence Kariat Oulad Moussa,Sanlam,Rabat,"225, avenue Moulay Rachid, Hay Baraka, Secteur 4 Sale, Oulad Moussa, Morocco",34.0187003,-6.7630662
Saham Assurances,Saham,Rabat,"Avenue Hassan II complexe bab sala - imm chmaou magasin m2, Salé 11000, Morocco",34.0348622,-6.8016199
Sanlam Assurance,Sanlam,Rabat,"Résidence Les Camélias Local numéro 6, M5, Rabat 10110, Morocco",33.9620283,-6.8648494
Sanlam - Agence Rabat Tour Hassan,Sanlam,Rabat,"Immeuble omniprise, angle avenue al alaouite et rue al mariniyine, Rabat 10000, Morocco",34.021481,-6.8245055
Check Auto Expresse Sanlam,Sanlam,Rabat,"25FF+4W9, Av. Al Alaouiyine, Rabat, Morocco",34.0227879,-6.8251521
Sanlam - Assurances Assai,Sanlam,Rabat,"281 Ave Mohammed V, Rabat 10000, Morocco",34.0117938,-6.8300612
Assurances chahid -sanlam,Sanlam,Rabat,"Imm 6 magasin 12 jardins des oudayas، Temara 12000, Morocco",33.9368622,-6.8978508
Sanlam - Meryassur Assurance,Sanlam,Rabat,"Dyar Al Mansour Magasin C 439 Avenue Sidi Mohamed Ben Abdellah Cym, Rabat 10000, Morocco",34.0179907,-6.8361727
Saham Structure,Saham,Rabat,"ilot 2 Imm Aoulouz Apt N1 Résidence Assabah CYM, Rabat 10000, Morocco",33.9942003,-6.8796578
CAT Assurance et Réassurance,CAT,Casablanca,"6 Lotissement la colline, Casablanca, Morocco",33.537155,-7.641933100000002
Sanlam - Assurances Sale Nour,Sanlam,Rabat,"Avenue Sanaoubar Immb 4 G1 - Hay Al Walae - Karia Ouled Moussa Sale, Oulad Moussa, Morocco",34.0267251,-6.7639632
Sanlam - D H A Salé,Sanlam,Rabat,"Avenue Mohamed V N°74 Hay Dar El Hamra, Salé 11000, Morocco",34.0584176,-6.7865775
Sanlam - Assurances El Mamoun,Sanlam,Rabat,"6 Av. 2 Mars, Salé 11000, Morocco",34.0360157,-6.8198517
CAT Assurance et Réassurance bureau direct hay mohamadi,CAT,Casablanca,"HCMQ+82C, Casablanca 20250, Morocco",33.58330869999999,-7.5624883
Sanlam - Centre de Conseil en Assurances,Sanlam,Rabat,"n° 45, Skhirat, Morocco",33.8483022,-7.0412516
Saham Assurance,Saham,Rabat,"111 Hay Ennasr , Ain El Aouda, Témara, Morocco",33.8005297,-6.7926986
Sanlam - Assurances Taousi,Sanlam,Rabat,"N°11 Av. Mohamed V, Tabriquet 11000, Morocco",34.0470425,-6.8018771
Sanlam - Assurances Les Palmiers,Sanlam,Rabat,"8.bis Rue Dayet Erroumi, Rabat 10000, Morocco",34.0072577,-6.8498216
Sanlam - Centre de Visite Technique Rabat Q.I Takaddoum,Sanlam,Rabat,"Route Ceuta - Hay, Rabat 10000, Morocco",33.9872308,-6.8033476
Sanlam - Lakhalassur,Sanlam,Rabat,"RC N°3 résidence michlifen 2 Boulevard mly driss 1er massira, Témara 12000, Morocco",33.9201397,-6.9097566
Africa First Assist (Ex-Saham Assistance),Saham,Rabat,"appt. n° 1, 6 Av. Moulay Slimane, Rabat, Morocco",34.0183152,-6.8324835
Saham Assurance,Saham,Rabat,"Av. Moulay Rachid, Salé, Morocco",33.8326607,-6.9003334
TA MESNA,Saham,Rabat,"groupe ennajah imm GH16, N10, Tamesna 12200, Morocco",33.8355496,-6.9259817
Sanlam - Assurances Soprassur,Sanlam,Rabat,"13 avenue Hassan II lot maktouba, Sala Al Jadida 11000, Morocco",34.023848,-6.7493335
Les assurances Abouelfath,Saham,Rabat,"25MX+Q8W, Av. Hassan II, Salé, Morocco",34.0344779,-6.8016734
Cat assurance,CAT,Casablanca,"394 Bd d'Afghanistan, Casablanca, Morocco",33.57075149999999,-7.6775142
Sanlam - Agence Rabat Akkari,Sanlam,Rabat,"1 Av. Sidi Mohamed Ben Abdellah, Rabat 10000, Morocco",34.0108816,-6.8591679
Naji,Saham,Rabat,"ZONE NOUIFAT BLED EL HAMRI AIN ATIG, Témara 12013, Morocco",33.882756,-6.9798837
Zurich Assurance,Saham,Rabat,"2587+GW3, Av. Mohammed V, Rabat, Morocco",34.0162589,-6.8351939
Assurance saham,Saham,Rabat,"R647+36Q, Aïn El Aouda, Morocco",33.8052064,-6.7868794
TEMASSUR,Saham,Rabat,"Av Hassan II Imm Regragui n°2 Temara Centre, Témara, Morocco",33.924684,-6.917814
Malath Assurance et Courtage,Saham,Rabat,"N° 01, IMM 112, el khattabi, Lot Merhat Av. Abdelkrim El Khattabi, Témara 12000, Morocco",33.9167941,-6.9117696
bureau-direct zurich-assurances- KARYA-SALE,Saham,Rabat,"269Q+V6V, Av. Moulay Rachid, Salé, Morocco",34.0197258,-6.761949
Assurance RADI,Saham,Rabat,"367P+XH7, Av. de l'Aviation, Salé, Morocco",34.0649027,-6.7635687
Sanad assurances,Saham,Rabat,"Dar El Hamra, 263 Av. Mohamed V, Salé 11000, Morocco",34.0544417,-6.7938916
SAHAM ASSURANCE ALKARIASSUR BOUZNIKA,Saham,Rabat,"Bouznika, Morocco",33.7803788,-7.1585248
Sanlam - AV MERS EL KHEIR,Sanlam,Rabat,"Lotissement El Kheir n° 175, Mers El Kheir 12025, Morocco",33.87296,-6.91972
Net assurances,Saham,Rabat,"N 6 IMM MKOUNE, Avenue Hassan II, Skhirat 12050, Morocco",33.8454909,-7.0452738
Assurance BCS Bureau de Courtage Salé,Saham,Rabat,"Av. Mohamed V, Salé, Morocco",34.0628187,-6.7811818
Wafa assurance-MassirAssurance,Wafa assurance,Rabat,"N 7, SECT 5 Bd Omar Ibn Al Khattab, Témara 12000, Morocco",33.9236227,-6.8887915
Wafa Assurance - Bureau Direct Rabat Al Majd,Wafa assurance,Rabat,"Avenue ALMAJD amal 2 bloc A N° 623 2 éme etage rue INBIAT ,CYM RABAT، Rabat 10000, Morocco",33.9807919,-6.8781451
Wafa insurance ALAMI,Wafa assurance,Rabat,"5 Av. Ibn Sina, Rabat 10090, Morocco",34.0006768,-6.851195
WAFA ASSURANCE - Assurances Draouchi,Wafa assurance,Rabat,"Avenue Driss Ben Bouchaib EL HRIZI Résidence Oussama 14, N°10, Salé 11000, Morocco",34.0747312,-6.789001
Wafa Assurance,Wafa assurance,Rabat,"rue beni hmida Nahda 2, Rabat, Morocco",33.971605,-6.8498318
Wafa Assurance,Wafa assurance,Rabat,"Collège Oum Al Banine, 38, Av. Tadla, Rabat, Morocco",33.9949594,-6.8220238
Wafa assurance,Wafa assurance,Rabat,"W33J+H33, Temara, Morocco",33.9038889,-6.9198284
Wafa Assurance - Bureau Direct SALE KARIA,Wafa assurance,Rabat,"Lot OUMAIMA 2 AVENUE MLY ABDELLAH HAY WAFAE, Salé 11004, Morocco",34.0264776,-6.7639374
Assurances Naciri (Wafa Assurance),Wafa assurance,Rabat,"Place d'Unité Africaine, 1 Rue er Riyad, Rabat, Morocco",34.0178814,-6.8291767
Ittihadia Assurance SARL (wafa assurance),Wafa assurance,Rabat,"214, AV. SALAM, APPT. NO, 2 Av. Mohamed V, Salé, Morocco",34.0543787,-6.7936889
wafa assurance Rabat,Wafa assurance,Rabat,"25F9+MV7, Rue Ziri Ibn Aatia, Rabat, Morocco",34.0241727,-6.8303146
Wafa Assurance Mahaj riad,Wafa assurance,Rabat,"X47M+6V8, Rue Joullanar, Rabat 10100, Morocco",33.9630401,-6.8652961
Service très médiocre,Wafa assurance,Rabat,"Residence Attawhid, Av. Hassan II, Témara, Morocco",33.9191661,-6.924079
Wafa Assurance - Al Bouraq,Wafa assurance,Rabat,"Route de Kenitra, Résidence Annour Magasin, الطريق الوطنية رقم 1، Salé, Morocco",34.0568544,-6.8068676
Wafa Assurance,Wafa assurance,Rabat,"X5W5+923, Av. Omar Ibn Al Khattab, Rabat, Morocco",33.9958882,-6.8424431
wafa assurance,Wafa assurance,Rabat,"X4F3+4X6, Av. Al Menzeh, Rabat, Morocco",33.9727905,-6.8951029
Wafa Assurance,Wafa assurance,Rabat,"33°51'01. 7°02'22.1""W, Rue N° 7, Temara, Morocco",33.8505116,-7.039389
wafa assurance Rabat,Wafa assurance,Rabat,"RES. EL MENZEH ANG. R/LE CAIRE & GHANDI Ave Mohammed V, Rabat, Morocco",34.0178782,-6.8356419
Wafa assurance,Wafa assurance,Rabat,"W4G4+99V, Temara, Morocco",33.9259799,-6.8940824
Wafa assurance تأمين الوفاء,Wafa assurance,Rabat,"Avenue Driss Ben BouChaib Al Hrizi, Res. Oussama 14، N°11 Magasin، Salé 11160, Morocco",34.0748762,-6.789147
Assurance de Voyage WAFA IMA ASSISTANCE RABAT,Wafa assurance,Rabat,"Millennium Business Center, Av. Mehdi Ben Barka, Rabat 12000, Morocco",33.9725705,-6.8421976
Wafa Assurance,Wafa assurance,Rabat,"26J2+8W3, Rue el Khair, Salé, Morocco",34.030877,-6.7977661
capital assurance conseil (wafaassurance),Wafa assurance,Rabat,"263 rue beni hmida، Rabat 10000, Morocco",33.9724338,-6.8202387
Wafaa Assurance,Wafa assurance,Rabat,"3 Pl. Melillia, Rabat 10020, Morocco",34.0224943,-6.8316375
Assurances CHERKAOUI,Wafa assurance,Rabat,"HORS BAB SEBTA LOTISSEMENT CHERKAOUI IMM 4، N°1، Salé 11000, Morocco",34.0424353,-6.820639
Wafa Insurance,Wafa assurance,Rabat,"7C33+5Q9, Av. Said Daoudi, Kénitra, Morocco",34.2529064,-6.5955037
تأمينات جميع الفروع Wafa Assurance,Wafa assurance,Rabat,"W38Q+P78, Av. Abdelkrim El Khattabi, Témara, Morocco",33.9167794,-6.9117843
STE ASSURANCE ASTATI ET FILS,Wafa assurance,Rabat,"Lot ALJID, APPT 1, Témara 12000, Morocco",33.8883584,-6.9675484
Assurance Toubkal,Wafa assurance,Rabat,"X5QJ+JMC, Rabat, Morocco",33.9890673,-6.8183541
Wafaa assurance,Wafa assurance,Rabat,"92,amal 5, Av. Al Massira, Rabat, Morocco",33.9697604,-6.8923045
Wafa Assurance A2M,Wafa assurance,Rabat,"Avenue Daraa, Kénitra, Morocco",34.2677501,-6.6012606
Wafa Assurance BOUZNIKA,Wafa assurance,Rabat,"6 G 1 Ouad Eddahab . Bir Anzrane assurance_hachoumy@wafaassurance.co, Bouznika 13100, Morocco",33.7885895,-7.1584581
Wafa assurance bureau direct ain aouda,Wafa assurance,Rabat,"lotissement el Arche magasine N°01, Ain El Aouda, Morocco",33.8052064,-6.7868794
Residence Attawhid,Wafa assurance,Rabat,"W39G+P47, Av. Hassan II, Témara, Morocco",33.9192812,-6.9247112
Wafa Assurance,Wafa assurance,Rabat,"JV8H+3C2, Ben Slimane, Morocco",33.6151342,-7.1214928
ASSURANCES OULAD HADDOU / AGENT ALLIANZ,ALLIANZ,Casablanca,"137 LOTISSEMENT DANDOUNE, SIDI MAAROUF, Casablanca 20000, Morocco",33.5148407,-7.6490526
Assurance Beaulieu ALLIANZ,ALLIANZ,Casablanca,"81, Boulevard Chefchaouni, à coté du marché vert & place tizi ousli, Casablanca 20250, Morocco",33.6069607,-7.5385457
Allianz,ALLIANZ,Casablanca,"N°358, Lot El Wahda, 1er Etage, App 1, Mohammédia, Morocco",33.682562,-7.386413
BAB FES ASSURANCES (allianz maroc),ALLIANZ,Casablanca,"Ryad sofia Gh4 Imm 1 Rdc, Casablanca, Morocco",33.5226859,-7.6798457
Assurance attajdid,ALLIANZ,Casablanca,"644 boulevard Oued debout, Casablanca 20200, Morocco",33.5512206,-7.6842194
Allianz Taawid Auto Casablanca - Ain Sebaâ,ALLIANZ,Casablanca,"Route de Rabat (r.p. 1), Km 9,200, Casablanca 20250, Morocco",33.6034399,-7.5356122
Allianz,ALLIANZ,Casablanca,"Lotissement Zine Essalam, Magasin N°31, Titt Mellilen, Morocco",33.552965,-7.474701
Allianz,ALLIANZ,Casablanca,"31 Av. des FAR, Fès 20250, Morocco",33.5966579,-7.615322
Allianz Taawid Auto Siège,ALLIANZ,Casablanca,"168 Bd Mohamed Zerktouni, Casablanca 20060, Morocco",33.5862074,-7.6302272
Allianz Casa Anfa Assurances,ALLIANZ,Casablanca,"113 bis Lotissement Habiba، Bd Haj Fateh, Dar-el-Beida 20016, Morocco",33.5486146,-7.6849812
Allianz,ALLIANZ,Casablanca,"Lotissement Miftah N°2, Mediouna, Morocco",33.4541103,-7.5154622
Allianz,ALLIANZ,Casablanca,"14 Avenue Moulay Rachid, Biougra, Morocco",33.5332852,-7.5834236
Assurance allianz,ALLIANZ,Casablanca,"26 Bd Al Khalil, Casablanca, Morocco",33.5480639,-7.6010757
Arenassur Allianz,ALLIANZ,Casablanca,"Addamane 12, Av. de Dakhla, Casablanca, Morocco",33.5410371,-7.6037023
Asurance allianz,ALLIANZ,Casablanca,"382 Av. Reda Guedira, Casablanca, Morocco",33.5540002,-7.5758637
DLOU ASSURANCES,ALLIANZ,Casablanca,"N 4 Bd Oued Draâ, Casablanca, Morocco",33.5567124,-7.6844245
Assurance alianz rania,ALLIANZ,Casablanca,"G7H8+F4W, P3014, Arrahma, Morocco",33.5286168,-7.7349937
Assurances Aglou,ALLIANZ,Casablanca,"JG28+WMJ, Casablanca, Morocco",33.6023297,-7.4833584
Allianz,ALLIANZ,Casablanca,"Garnaoui. Lotissement Essaâda, 114 Bd Mokhtar Ben Ahmed Al Guerraoui, Casablanca, Morocco",33.611426,-7.4950528
Elakil assurances Allianz,ALLIANZ,Casablanca,"HG38+HMR, Tit Mellil, Morocco",33.5539948,-7.4833661
Bureau Direct d'Assurances Allianz Bouskoura,ALLIANZ,Casablanca,"Complexe résidentiel Bassatine immeuble 1, GH7A local 159, Bouskoura, Morocco",33.4675016,-7.6655418
Bureau Direct Allianz Bourgogne,ALLIANZ,Casablanca,"125 Bd de Bourgogne, Casablanca 20250, Morocco",33.5973945,-7.6454642
Lalla mariam Assurance Allianz,ALLIANZ,Casablanca,"HCF6+63W, Casablanca 20250, Morocco",33.5731029,-7.5898116
Assurances Oued Sebou,ALLIANZ,Casablanca,"185 Bd Oued Sebou, Casablanca, Morocco",33.5526117,-7.6786396
Assurances Le Chalet,ALLIANZ,Casablanca,"392 Bd Ibn Tachfine, Casablanca 20250, Morocco",33.5842458,-7.5726035
Central Assur,ALLIANZ,Casablanca,"Ahm Loghlam Res Salam 2 Imm 1 Mag 3, Casablanca, Morocco",33.5884458,-7.485021
Sanlam - Arj Assurances,Sanlam,Casablanca,"157 Av. du 6 Novembre 1975, Casablanca 20000, Morocco",33.5484969,-7.5786641
AKL ASSURANCES,ALLIANZ,Casablanca,"222 Bd Dakhla, Casablanca 20440, Morocco",33.5452262,-7.5745663
سانلام، تأمينات فيدليس، المعاريف.,ALLIANZ,Casablanca,"Résidence Ramzi 119, imm.b, Boulevard Bir Anzarane, Casablanca 20000, Morocco",33.5818992,-7.6397577
Acmar,ALLIANZ,Casablanca,"104 Bd Abdellatif Ben Kaddour, Casablanca 20050, Morocco",33.5909124,-7.6438808
Benabou Assurances ( S.A.R.L),ALLIANZ,Casablanca,"MJV9+RX2, Mohammedia, Morocco",33.6945756,-7.3802128
Nextcare Maroc,ALLIANZ,Casablanca,"1er étage, 28 Bd Al Massira Al Khadra, Casablanca 20100, Morocco",33.5869837,-7.6362062
Assurances Amqor,ALLIANZ,Casablanca,"166 Av. Mehdi Ben Barka, Casablanca 20250, Morocco",33.6015195,-7.6427374
Euler Hermes,ALLIANZ,Casablanca,"37 Bd Abdellatif Ben Kaddour, Casablanca 20000, Morocco",33.5909182,-7.6437377
ALLIANCE TRAVEL,ALLIANZ,Casablanca,"47 Bd Sidi Mohamed Ben Abdellah, Casablanca 20250, Morocco",33.6034817,-7.6421389
IDYANE ASSURE,ALLIANZ,Casablanca,"RUE 16 N 5 ANGLE BD EL KHALIL HAY MLY ABDELLLAH, Casablanca 20000, Morocco",33.5338589,-7.5831493
Yanitri Assurances Sarl,ALLIANZ,Casablanca,"131 Boulevard Mouad Ben Jabal Mansour 2 Katafa, Casablanca, Casablanca 20100, Morocco",33.6108685,-7.5041167
Maroc Assistance Internationale,ALLIANZ,Casablanca,"25 Bd Rachidi, Casablanca 20100, Morocco",33.5926628,-7.6266579
Allianz Assurance Lahcen,ALLIANZ,Casablanca,"Lotissement 104-106 H Iminwaday N°15 ( a coté de BIM, Berrchid 26100, Morocco",33.2689734,-7.5842851
Allianz,ALLIANZ,Casablanca,"App N°4, Lotissement 211, Hay El Qods, Berrchid, Morocco",33.260959,-7.5755296
Assurances khouili,ALLIANZ,Casablanca,"250 Boulevard Joudar n 3 imm chakoury Hay, Casablanca 20670, Morocco",33.5684512,-7.5322638
Assurances EL KHALFI,ALLIANZ,Casablanca,"Bd abdelkader Sahraoui Résidence Al Manzeh GH2 Magasin n°10, Casablanca, Morocco",33.5607547,-7.5354181
Alinqad Assurance,ALLIANZ,Casablanca,"H9W4+Q42, Rue Aïn Chifa, Casablanca 20100, Morocco",33.596889,-7.644723
ASSURANCES ET CONSEILS BAROUTI,ALLIANZ,Casablanca,"Les Jardins de Dar Bouazza, Tamaris 27223, Morocco",33.5229475,-7.817606
Bedassur S.A.,ALLIANZ,Casablanca,"1°Ét, 10 Rue de Karachi, Casablanca 20100, Morocco",33.5949874,-7.6041195
iCoral Assurance Maroc,ALLIANZ,Casablanca,"17, rue mimosas ( ex rue des écoles), Beauséjour, (proche bd ghandi, Casablanca 20200, Morocco",33.5701353,-7.6459146
ASSURANCES ATAAMOL,AtlantaSanad,Casablanca,"HAY RIAD EL OULFA GROUPE 06، NUMÉRO 206، Dar-el-Beida 20240, Morocco",33.5558006,-7.698209
Assurances AL HADIKA,AtlantaSanad,Casablanca,"2 Bd Ali Yaâta, Casablanca 20250, Morocco",33.6009906,-7.5332805
AL MOUNA ASSURANCE,AtlantaSanad,Casablanca,"91 Bd Al Qods, Casablanca 20190, Morocco",33.532292,-7.6484318
Assurance ATLANTA SANAD DEROUA-GESTASSUR,AtlantaSanad,Casablanca,"17 ONA 1, Deroua, Morocco",33.3859172,-7.5351539
SANAD Assurance,AtlantaSanad,Casablanca,"54 Av. du 10 Mars 1982, Casablanca 20700, Morocco",33.5632306,-7.5683383
"SalmaAssurances, AtlantaSanad",AtlantaSanad,Casablanca,"19 HAY AL YOUSSR, Bd Mohamed 5, Berrechid 26100, Morocco",33.2636422,-7.5815354
Assurances Ouled Abdellah,AtlantaSanad,Casablanca,"179 Place Dcheira, Laayoune, Casablanca 20100, Morocco",33.5916359,-7.5857708
Ahmady Assurance,AtlantaSanad,Casablanca,"Ex F, 87 Bd Baghdad, Casablanca 20100, Morocco",33.5497419,-7.5901794
Imassur,AtlantaSanad,Casablanca,"Ex Batignolles, 3 Rue Ibnou Essali, Casablanca 20100, Morocco",33.5916501,-7.5907935
LE FOYER D ASSURANCE,AtlantaSanad,Casablanca,"H888+GMH, Casablanca, Morocco",33.5663097,-7.6832655
Assurances Oum Rabii,AXA,Casablanca,"Rue 78, Numero 10 et 12, Bd Oued Oum Rabia, Casablanca, Morocco",33.5561194,-7.683013
Axa Assurance,AXA,Casablanca,"11 Avenue Taoujtat, Casablanca 20000, Morocco",33.5944435,-7.641771
Axa Assurance ain chok,AXA,Casablanca,"1, Casablanca, Morocco",33.5387888,-7.5841056
Axa Assurance,AXA,Casablanca,"N 159, MLEK DANDOUNE, ROUTE SIDI MASOUD CT 1100, SIDI MAAROUF, 1100 ‫شارع سيدي معروف، Casablanca, Morocco",33.5146761,-7.648507
AXA / Comptoir Professionnel des Assurances,AXA,Casablanca,"Résidence el koutoubia Imm 5 local commercial N.1, Hay Ennassim، Dar-el-Beida 20190, Morocco",33.526144,-7.659748
Axa Assurance,AXA,Casablanca,"275 BD LALLA ASMAA, Casablanca 20400, Morocco",33.5848033,-7.5193093
أكسا للتأمين، تأمينات بسام، البرنوصي.,AXA,Casablanca,"10 Rue 13 Quartier Tarik, JF4J+MGX, Casablanca 20000, Morocco",33.6065847,-7.5186221
AXA Futur Assurance,AXA,Casablanca,"45 Bd Ghandi, Casablanca 20250, Morocco",33.5763648,-7.6523169
AXA Assurance ES-SAADA,AXA,Casablanca,"HCRJ+GJ5, Casablanca 20250, Morocco",33.5912695,-7.568401
Axa Assurance,AXA,Casablanca,"267 Bd Mohamed Zerktouni, Casablanca 20100, Morocco",33.5918646,-7.6367974
hanane kamal assurance (agent AXA),AXA,Casablanca,"Rue de Craonne, Casablanca 20250, Morocco",33.5903568,-7.5982998
"BK ASSURANCES, agent général AXA",AXA,Casablanca,"Résidence Abouab Oum Rabii, Angle rue oum rabii et, N° 15, Rte Moulay Thami, Casablanca 20250, Morocco",33.5626363,-7.6688454
Assurance M2A (AXA),AXA,Casablanca,"HCMW+4FR, Casablanca 20670, Morocco",33.5828651,-7.5538618
Axa Assurance,AXA,Casablanca,"HFCM+4PJ, Casablanca 20250, Morocco",33.570343,-7.5157198
أكسا التأمين المغرب، المكتب المباشر إفريقيا، الدارالبيضاء.,AXA,Casablanca,"386 Av. Al Wahda Al Ifriquia, Casablanca, Morocco",33.5567133,-7.5856049
AXA-Relay Assurances,AXA,Casablanca,"20,، Bd Allait Ibn Asaad, Dar-el-Beida 20250, Morocco",33.6198986,-7.4864901
Rail AXA Assurance Maroc,AXA,Casablanca,"Route 109 - Bouskoura Centre، Bouskoura, Morocco",33.4541942,-7.6499008
Axa Assurance Chamila,AXA,Casablanca,"HCC4+9GW, Casablanca 20250, Morocco",33.5709869,-7.5936785
Axa Assurance,AXA,Casablanca,"JF6P+FMQ, Casablanca 20250, Morocco",33.6112215,-7.5132728
axa assurance ain sebaa,AXA,Casablanca,"JF35+PCF, Casablanca 20250, Morocco",33.6043117,-7.5414423
Axa Assurance,AXA,Casablanca,"G8MH+62M, Bd jbel Toubqal, Casablanca, Morocco",33.5330887,-7.6724376
Axa Assurance,AXA,Casablanca,"HC75+C7W, Casablanca, Morocco",33.5636026,-7.5917937
Axa Assurance,AXA,Casablanca,"639 Bd Dakhla, Casablanca, Morocco",33.5480894,-7.5696512
Axa Assurance,AXA,Casablanca,"JG88+Q46, Bd Allait Ibn Asaad, Casablanca 20250, Morocco",33.6169061,-7.4847471
AXA Assistance Maroc,AXA,Casablanca,"409 Rte d'El Jadida, Casablanca, Morocco",33.5570512,-7.644042
Axa assurance,AXA,Casablanca,"Magasin, n° 5 Bd Oued Sebou, Casablanca, Morocco",33.5291649,-7.7349661
Assurance voyage AXA,AXA,Casablanca,"5 Rue Ahmed Enassiri, Casablanca 20250, Morocco",33.5793145,-7.6258605
Cabinet d’Assurances FARIS,AXA,Casablanca,"73 Av. Houmane El Fetouaki, Casablanca 20080, Morocco",33.5935349,-7.6133931
Axa Assurance,AXA,Casablanca,"68, Bloc 137, bd Abdelkader Sahraoui، Casablanca, Casablanca 20670, Morocco",33.5519212,-7.551767
Les assurances mourid,AXA,Casablanca,"LOTISSEMENT JAWHARA BOULEVARD MOHAMED EL BAKKALI ETG RDC N 8, Casablanca 20000, Morocco",33.5944385,-7.5178747
Na,AXA,Casablanca,"Bd Commandant Driss Al Harti, Casablanca 20670, Morocco",33.5636638,-7.5475767
Bureau Direct AXA Assurance Ain Harrouda,AXA,Casablanca,"38, Batiment C Residance BELAIR, Bd de Palestine, Âïn-Harrouda, Morocco",33.6321531,-7.4551575
Axa Assurance Maroc Massira,AXA,Casablanca,"HFC3+G57, Casablanca 20670, Morocco",33.5712852,-7.5470656
AXA Assurances - Addahabia Litaamine,AXA,Casablanca,"G9H2+F83, Casablanca, Morocco",33.5286252,-7.6492172
AXA Assurance Dar Bouazza,AXA,Casablanca,"Centre commercial le Mercato ,route d'azemmour, Tamaris, Morocco",33.5136162,-7.8187602
Axa assurance maroc,AXA,Casablanca,"G77R+QFH, Casablanca 20250, Morocco",33.5698669,-7.6514699
Assurances El Machtani,AXA,Casablanca,"lotissement sidi abderrahmane rue 34 n، 5، 5 Rue 34, Dar-el-Beida 20240, Morocco",33.547325,-7.6807121
Bureau Direct ES-SAADA - AXA ASSURACES MAROC,AXA,Casablanca,"271, Boulevard Chouhada, Bloc 17, Casablanca 20320, Casablanca 20320, Morocco",33.583714,-7.5724098
Axa Banque,AXA,Casablanca,"JG87+XVX, Bd Allait Ibn Asaad, Casablanca 20250, Morocco",33.617486,-7.4852742
Consensur Axa Assurance Maroc,AXA,Casablanca,"5 Bd Hassan II, Mohammédia, Morocco",33.6953695,-7.3892283
Assurances Haider,AXA,Casablanca,"164 BD AMBASSADEUR BEN AÏCHA, ROCHES NOIRES، Dar-el-Beida 20303, Morocco",33.6000208,-7.5884391
ASSURANCES RADA,AXA,Casablanca,"Unnamed Road, Casablanca 20250, Morocco",33.5885717,-7.5753271
JAD ASSURANCES (AXA),AXA,Casablanca,"Alia، N° 17 Bd de Riyad, المُحمدّيه 28810, Morocco",33.6870067,-7.3770341
Seddiki Assurances,AXA,Casablanca,"4 Rue Al Bachir Al Ibrahimi Gauthier, Casablanca, Casablanca 20100, Morocco",33.5878444,-7.6038807
Ste Boufrouri Assurances Axa Sarl,AXA,Casablanca,"80 Boulevard Hassan Ii Quartier Centre Ville, Al Hoceima, Casablanca 20100, Morocco",33.5904302,-7.6196124
ACTIVASSUR,AXA,Casablanca,"235 Bd Yacoub El Mansour, Casablanca 20100, Morocco",33.5696633,-7.6515397
إقامة ماجوريل الأزهر,AXA,Casablanca,"Panorama, Bd Attadamone, Casablanca, Morocco",33.6020121,-7.4910821
ASSURANCES CHAMI,AXA,Casablanca,"32 Rue Sidi Belyout, à côté de l'hôtel Royal Mansour, Angle Av. des FAR, Casablanca 20000, Morocco",33.5974503,-7.6139252
Assurance El Mouhajir Sarl,AXA,Casablanca,"Bd Monastir, Mohammédia 20650, Morocco",33.68842,-7.3850125
BAB RAHMA Assurances,AXA,Casablanca,"Boulevard Moulay Thami, Arrahma, Morocco",33.5304447,-7.7315079
"ASSURANCES ""GROUPASSUR""",AXA,Casablanca,"1, PLACE DE L'ISTIQLAL (EX PLACE MIRABEAU), Casablanca, Morocco",33.5964579,-7.6036571
PREVAXE Assurances,AXA,Casablanca,"134, Angle Boulevard Bir Anzarane et Rue A. El Joumari، Résidence Aya - Maarif،، Dar-el-Beida 20330, Morocco",33.5818458,-7.6390986
ASSURANCES SALAH,AXA,Casablanca,"Lot Amal Tit Mellil,1er Tranche N° 296, Bouleard Attawhid, Tit Mellil, Casablanca, Morocco",33.5507563,-7.4841222
Cap'assur S.a.r.l.,AXA,Casablanca,"661, Bd De Goulmima, Bourgogne, Grand Casablanca, 20000, Casabla, Casablanca 20100, Morocco",33.6006845,-7.6355589
Axa Credit,AXA,Casablanca,"225 Bd Mohammed V, Casablanca 20250, Morocco",33.5942611,-7.6103332
مامدا، وكالة سقراط، الدارالبيضاء المعاريف.,MAMDA,Casablanca,"1-3، Les résidences MASUREL, Rue Socrate, Dar-el-Beida 20380, Morocco",33.5756111,-7.6433311
MAMDA MCMA MAEM Sbata,MAMDA,Casablanca,"Av Oued Eddahab, Casablanca 20000, Morocco",33.5394875,-7.5758558
Mamda Mcma Errahma,MAMDA,Casablanca,"lot 145 fbt, Casablanca 20570, Morocco",33.53162,-7.72813
Mamda Mcma Sidi Othmane,MAMDA,Casablanca,"240 boulevard bouziane propieté sanaa 71 rdc, Casablanca 20700, Morocco",33.563205,-7.557483
MCMA MAEM Belvédère,MAMDA,Casablanca,"Immeuble Yassine, 14 Rue de Sijilmassa, Casablanca 20000, Morocco",33.5947409,-7.593747
التعاضدية الفلاحية و التعاضدية المركزية,MAMDA,Casablanca,"38 Rue Omar Slaoui، Dar-el-Beida 20250, Morocco",33.5864064,-7.6213845
MAMDA MCMA MAEM HAD SOUALEM,MAMDA,Casablanca,"lot n196, lotissement raja 2, Had Soualem 26402, Morocco",33.4242189,-7.8524776
Mamda,MAMDA,Casablanca,"7C79+H8R, Berrechid, Morocco",33.2638893,-7.5816962
MAMDA MCMA MAEM BERRECHID,MAMDA,Casablanca,"17 Bd Mohamed 5, Berrchid, Morocco",33.268687,-7.5843171
Mutuelle Agricole Marocaine d'Assurances El jadida. Mamda/Mcma/Maem,MAMDA,Casablanca,"6GG4+FM2, El Jadida, Morocco",33.2261475,-8.4933597
Mamda Assurance : Mutuelle Agricole Marocaine d'Assurance,MAMDA,Casablanca,"N7, Sidi Bennour, Morocco",32.6509767,-8.4243412
MAMDA : Mutuelle Agricole Marocaine d'Assurance,MAMDA,Casablanca,"El Kelaa des Sraghna, Morocco",32.0520057,-7.4075985
MAMDA-MCMA,MAMDA,Casablanca,1 BD MOHAMED V، الفقيه بن صالح، Morocco,32.5053636,-6.6867114
Mamda Mcma Settat 2,MAMDA,Casablanca,"avenue princesse lalla aicha immeuble 103, n107, magasin, Settat 26010, Morocco",32.9966966,-7.6175223
Assurance MAMDA,MAMDA,Casablanca,"7F2X+9H6 Résidence Villa max, Av. Mohamed VI, El Jadida, Morocco",33.2509095,-8.5011103
التعاضدية الفلاحية المغربية للتأمين، والتعاضدية المركزية، سطات.,MAMDA,Casablanca,"20 N9, Settat, Morocco",32.9978121,-7.6207197
Assurance MAMDA-MCMA,MAMDA,Casablanca,"rdc 10, résidence ferdaousse, boulevard mohamed 6, Khouribga 25000, Morocco",32.886715,-6.910608
Matu Assurance,MATU,Casablanca,"N°, RESIDENCE ILHAM, 58 Rue 64, Casablanca 20250, Morocco",33.5600946,-7.6907742
Matu Assurance,MATU,Casablanca,"87 AL, BD DAKHLA, Rue 10 Jamila 3, Casablanca, Morocco",33.5429502,-7.5783852
Matu Office,MATU,Casablanca,"40 Bd d'Anfa, Casablanca 20250, Morocco",33.5951804,-7.627278
Matu Assurance,MATU,Casablanca,"201, Cooperative Chabab Tranche 2 Etage 1, Deroua, Morocco",33.3751595,-7.5386656
Matu Assurance,MATU,Casablanca,"Angle avenue Mohamed V et avenue Hassan II, lotissement Safi 1er Etage porte N° 1, Berrchid, Morocco",33.2663306,-7.5789353
RMA Watanya,RMA,Casablanca,"GCP7+CCC, Casablanca 20500, Morocco",33.5360696,-7.5864869
Assurance RMA Maarif Al Hikma,RMA,Casablanca,"32 Boulevard Bir Anzarane, Casablanca, Morocco",33.5808105,-7.6375972
RMA ASSURANCE SEBKI,RMA,Casablanca,"RES LAOUIJA, CENTRE, Bouskoura, Morocco",33.4530154,-7.6493916
الملكية المغربية للتأمين، تأمينات التعاون، الحي الحسني.,RMA,Casablanca,"25, Bd Sidi Abderrahman, Hay El Hanaa, Casablanca 20100, Morocco",33.5763292,-7.6725273
Assurance MOUHSSINE RMA,RMA,Casablanca,"Hay panorama boulverd azhar, Casablanca 20600, Morocco",33.600372,-7.490217
RMA Assurance,RMA,Casablanca,"91 Bd Moulay Hassan I, Casablanca 20100, Morocco",33.5945584,-7.6209303
الملكية المغربية للتأمين، تأمينات جيرس.,RMA,Casablanca,"54, Bd De La Grande Ceinture (H.Mohammadi), n°1Bis Hay Taiba, 1er étage، Dar-el-Beida 20100, Morocco",33.5819805,-7.5612501
RMA Assurance,RMA,Casablanca,"G9R5+P2F, Zénith, Casablanca, Morocco",33.541817,-7.642447
RMA,RMA,Casablanca,"153 Bd Moulay Idriss I, Casablanca 20250, Morocco",33.5722559,-7.6184399
Agence Vecteur Assurances RMA,RMA,Casablanca,"N°, LOTISSEMENT HABIBA, 210 Bd Laymoune, Casablanca 20260, Morocco",33.5405429,-7.6756141
ASSURANCES ANNASR,RMA,Casablanca,"Groupe 6, N, 22 Rue Annasrine, Casablanca 27223, Morocco",33.5347884,-7.7317057
Rma Watanya Projet Mpls (Standard),RMA,Casablanca,"8 Avenue Achariate El Masjid, Oued Eddahab, Casablanca 20100, Morocco",33.5394284,-7.5755084
ASSURANCE KARMOUCHI RMAASSURANCE,RMA,Casablanca,"JG53+HHM, Casablanca, Morocco",33.6089625,-7.4960781
Assurances Riah,RMA,Casablanca,"87 . Lotissement Iminwaday- H, Berrechid, Berrechid 20000, Morocco",33.554352,-7.591981
Assurance Almaarifa RMA,RMA,Casablanca,"Anassi 22 Nr 15 El Bernossi Casablanca،, Casablanca, Morocco",33.5897112,-7.4966984
RMA olkom assurance,RMA,Casablanca,"G8W9+RJR, Rdpt Chahdia, Casablanca 20240, Morocco",33.5471083,-7.6809749
Assurance RMA ABOUAB DAR BOUAZZA,RMA,Casablanca,"H824+CHJ, Casablanca, Morocco",33.5510813,-7.6936246
Rma Wataniya (Bgd Essaouira,RMA,Casablanca,"H9VM+99H, Rue du Prince Moulay Abdellah, Casablanca 20100, Morocco",33.5934265,-7.6165129
Conseil Pro Assurance,RMA,Casablanca,"Ecole Hay Essalam, Benslimane 20250, Morocco",33.5645458,-7.6020569
RMA SALAMA CASA,RMA,Casablanca,"JFGW+G95, Casablanca 20250, Morocco",33.6392001,-7.5234977
Rma club,RMA,Casablanca,"H72G+VP4, Rte d'Azemmour, Casablanca, Morocco",33.5521416,-7.7231644
al wattanya assurance,RMA,Casablanca,"HFCC+P77, Casablanca 20670, Morocco",33.5717885,-7.529313
Services Techniques D'Assurances Et De Gestion,RMA,Casablanca,"22, Bd Moulay Youssef, 2°Ét., 21000 Quartier: Lusitania, Casabla, 22 Bd Moulay Youssef, Casablanca 20100, Morocco",33.5924459,-7.6275803
BGD SALAMA RMA CASA,RMA,Casablanca,"JFGW+G94, Casablanca 20250, Morocco",33.6262741,-7.5040363
RMA Assurance,RMA,Casablanca,"C4CW+CHP, Bd Moulay Rachid, Had Soualem, Morocco",33.4210866,-7.8535506
RMA,RMA,Casablanca,"9F69+X6C, Nouaceur, Morocco",33.3624458,-7.5319383
Point Assur S.a.r.l.,RMA,Casablanca,"Q. Gauthier, 37 Rue Moussa Ben Noussair, Casablanca 20100, Morocco",33.5895392,-7.6290254
Ait Assur,RMA,Casablanca,"Avenue Khalid Bnou Loualid, JF38+G8H, Casablanca 20100, Morocco",33.6038139,-7.534154
ASSURANCES ELBERNOUSSI SABIMA SAHAM,Saham,Casablanca,"JF3J+755 Cte Police Ber, Casablanca 20250, Morocco",33.603134,-7.51951
Agence Assurances Arrahma SAHAM,Saham,Casablanca,"Boulevard taza , rue 89, numéro 112 Hay mly Abdellah, Casablanca, Morocco",33.5435522,-7.5939072
Check auto saham,Saham,Casablanca,"H9PC+C3F, Bd Mohamed Zerktouni, Casablanca 20250, Morocco",33.586059,-7.6298253
"SAHAM Assurance , Casa sud Sidi Maarouf",Saham,Casablanca,"Boulevard 1209 Magasin, 270 Rte de Bouskoura, Casablanca 20000, Morocco",33.5114294,-7.6561675
SAHAM CHÈQUE AUTO,Saham,Casablanca,"HCXJ+Q55, Bd Moulay Ismaïl, Casablanca 20290, Morocco",33.5993967,-7.5695192
Sanlam Assurance,Sanlam,Casablanca,"HF99+3G7, Casablanca 20670, Morocco",33.5676728,-7.5312138
Assurance Racine / Saham Assurance,Saham,Casablanca,"Rue angle Rue Le Titien, Casablanca, Morocco",33.5759692,-7.6364332
ASSURANCE SAHAM DEROUA,Saham,Casablanca,"BLOC A, N 15, Deroua, Morocco",33.4160547,-7.537028
Saham Immobilier (Almaz),Saham,Casablanca,"G85C+QCF, Rocade Sud-Ouest, Casablanca, Morocco",33.5094485,-7.6789478
Sanlam - Assurances Haddaouia,Sanlam,Casablanca,"angle av 2 mars & panomarique, haddaouia 3, n°, 5 Rue 30، Casablanca 20000, Morocco",33.5531137,-7.6036978
GO ASSUR | SAHAM Assurance,Saham,Casablanca,"prés de lydec Dar Touzani, 147 Av. Abdellah Senhaji, Casablanca, Morocco",33.5530664,-7.5873878
Assurance Amana EAPS / SAHAM Assurance,Saham,Casablanca,"Casablanca Ain chock par boulevard qods a côté de la maison Renault imm 402، N 29-،Essafa Hay Omaria Casablanca, Bd El Qods, Casablanca 20000, Morocco",33.5335278,-7.6116271
Sanlam Assurance,Sanlam,Casablanca,"Boulevard Emile Zola, Angle rue de Lille et rue Abdelwahab Ezzakak، H9RX+M6F, Dar-el-Beida 20000, Morocco",33.5916902,-7.6019636
Sanlam - Fast Assurances,Sanlam,Casablanca,"Lot Dandoune n°170, n° 4, Route 1100 magasin, Casablanca 20000, Morocco",33.5147299,-7.6479565
Sanlam - Izassur,Sanlam,Casablanca,"218 Bd de la Grande Ceinture, Casablanca 20570, Morocco",33.5831136,-7.5526344
سانلام للتأمين,Saham,Casablanca,"10 Bd de Riyad, Mohammédia, Morocco",33.6753113,-7.3911552
Sanlam - Bureau Direct Siège,Sanlam,Casablanca,"216 Bd Mohamed Zerktouni, Casablanca 20000, Morocco",33.5879963,-7.6326898
سهام للتأمين، تأمينات آدم عزوز، عين السبع.,Saham,Casablanca,"HFR6+V93, Rte des Chaux et Ciments, Casablanca 20250, Morocco",33.5921449,-7.5390631
HOULM ASSURANCE - AGENT GENERAL SANLAM ASSURANCE (SAHAM ASSURANCE),Sanlam,Casablanca,"N°8 (A coté Café Kounouz), RDC Cooperative Ibnou Yassine , Boulevard Qods، Rue 187 Hay Moulay Abdellah, Dar-el-Beida 20610, Morocco",33.5427359,-7.5857078
Sanlam - Am Assurances,Sanlam,Casablanca,"144 Boulevard de madrid (en face lycée med v, Casablanca 20000, Morocco",33.5787263,-7.6144865
Sanlam - Sifaw-Assur,Sanlam,Casablanca,"Boulevard El Qods Résidence Al majd, IMM C, Casablanca 20000, Morocco",33.5389789,-7.6010823
Saham Immobilier,Saham,Casablanca,"villa Le Palais, 76 Rue Du Corail, Casablanca 21000, Morocco",33.5952224,-7.665853
Sanlam - Assurances Sidi Maarouf,Sanlam,Casablanca,"Résidence médina n° 2 imm.j, Route 1029، Casablanca 20000, Morocco",33.5274215,-7.6497921
Sanlam - Akmeb Assurances,Sanlam,Casablanca,"02Bis allée des sophoras, Place Tisi Ousli, Casablanca 20000, Morocco",33.6075976,-7.5398954
Sanlam - FZ Assurances,Sanlam,Casablanca,"81, boulevard Ali Yaata, ex Foum Lahcen - Lot n°34 Hay Smara, Casablanca 20000, Morocco",33.601369,-7.5332121
BO25 saham,Saham,Casablanca,"C9X8+WQ2, Bouskoura, Morocco",33.4497542,-7.633113
سانلام للتأمين,Saham,Casablanca,"Lotissement Communal, Lot 69, Casablanca 20000, Morocco",33.5225996,-7.6445572
Sanlam - Assurances Dahbi,Sanlam,Casablanca,"40, Boulevard Palestine - Lot Ben Hamdoune, Mohammédia 20650, Morocco",33.6863127,-7.3745935
Sanlam - Assurance Machroue Arrahma,Sanlam,Casablanca,"Machroue arrahma, lot 54 bloc 17, Casablanca 20000, Morocco",33.5355049,-7.7215341
Sanlam - Assurances Chahdia,Sanlam,Casablanca,"alia 2, rue 57, n° 25, Casablanca 20000, Morocco",33.5475449,-7.6829408
Sanlam - Assurances Al Ittifaq,Sanlam,Casablanca,"RDC IMM N°3 Groupe d'habitation Riad Sofia Groupe 4 n°116, Casablanca 20000, Morocco",33.5224909,-7.6797373
Sanlam - Assurances Al Jiha,Sanlam,Casablanca,"Cité Rachidia III n° 220, bloc B, 2ème étage en face, Station Petromin, Mohammédia 20650, Morocco",33.6849859,-7.3789484
Sanlam - Assurances Dinar,Sanlam,Casablanca,"route d'eljadida n°410 lissasfa 01, Casablanca 20000, Morocco",33.5320107,-7.6735532
Sanlam - Assurances Oudassur,Sanlam,Casablanca,"Angle Boulevard Abdelmoumen et rue Bachir Laalaj 1er étage Appartement N°1, Casablanca 20000, Morocco",33.5718472,-7.6268643
Sanlam - Agence ASM,Sanlam,Casablanca,"36 Boulevard Houcine Soussi, Casablanca 20000, Morocco",33.5894232,-7.520209
Sanlam - Assurances Assur'Pro,Sanlam,Casablanca,"Boulevard Sebta, magasin 3 immeuble 7 gh1 yasmine anfa, Mohammédia 20650, Morocco",33.6933307,-7.3763611
Sanlam - AV AL MANZAH,Sanlam,Casablanca,"74, Avenue Arrahmouni Boualam Lot Al Manzah, Casablanca 23000, Morocco",33.5604112,-7.5353734
Sanlam - Solidaire Assurance,Sanlam,Casablanca,"Sahat sraghna, 127, 129 Pl. Sraghna, Casablanca 20000, Morocco",33.5698485,-7.6013301
Sanlam - Assurances Nadassur,Sanlam,Casablanca,"Boulevard Abdelmoumen place charles nicolles imm.pasteur build, 2ème étage n°7, Casablanca 20000, Morocco",33.5734206,-7.6255392
Sanlam - Bureau Direct Assurance,Sanlam,Casablanca,"Imm. 21 Boulevard Colonel Driss Allam A côté de Poste Maroc, Casablanca 20000, Morocco",33.5620102,-7.5530957
Bureau de vente LE 25 Casablanca (SAHAM IMMOBILIER),Saham,Casablanca,"b4 Route de Bouskoura, Casablanca, Morocco",33.5111245,-7.6325261
Sanlam - Assurance Biladi,Sanlam,Casablanca,"N° 2, Bouskoura 27182, Morocco",33.4522636,-7.6489676
Sanlam - Salamate Assurances,Sanlam,Casablanca,"Av. du 10 Mars 1982, Casablanca 20670, Morocco",33.5591213,-7.5612046
Sanlam - Assurances Feddan El Kheir,Sanlam,Casablanca,"fdan el kheir n° 235, Casablanca 20000, Morocco",33.6106505,-7.5068766
Sanlam - Barzakh Assurances,Sanlam,Casablanca,"Boulevard Iben Zair Abdessalam Bloc Elkoudia 101 N° 2, Casablanca 20000, Morocco",33.584739,-7.5627975
Sanlam - Intermed Assurance,Sanlam,Casablanca,"153 Hassania 1 Alia, Bd de la Résistance, Mohammédia 20650, Morocco",33.6769643,-7.3940643
تأمينات سهام للتكنلوجيا - International Technology services,Saham,Casablanca,"6ème étage، 104 Bd Abdelmoumen, Dar-el-Beida 20042, Morocco",33.5787682,-7.6255886
سانلام للتأمين,Saham,Casablanca,"JG35+F33, Bd Mbarek Ben Boubker Hammadi, Casablanca 20300, Morocco",33.6036368,-7.4923182
Sanlam - Assurances Al Firdaous,Sanlam,Casablanca,"Ensemble résidentiel AlFirdaous, Imm 29 Mag 4 Oum Errabii - Hay, Casablanca 20000, Morocco",33.560541,-7.6718207
Sanlam - Assurances Al Oukhoua,Sanlam,Casablanca,"4 Avenue Allal Ben Abdellah, Mediouna, Morocco",33.4531874,-7.5162374
Sanlam - Assurances City,Sanlam,Casablanca,"n°5 angle boulevard Anoual & boulevard Bir Anzarane Centre commercial abdelmoumen ERAC, Casablanca 20000, Morocco",33.569719,-7.6276872
Wafa Assurance,Wafa assurance,Casablanca,"1 Bd Abdelmoumen, Casablanca 20250, Morocco",33.5826224,-7.6235639
Wafa Assurance,Wafa assurance,Casablanca,"185 Bd de Smara, Casablanca, Morocco",33.5396442,-7.5936449
Wafa Assurance AL HAY AL HASSANI,Wafa assurance,Casablanca,"Résidence Selma, Résidence Selma Oulfa، 102 Bd Oued Oum Rabia, Casablanca 20200, Morocco",33.5636515,-7.6682311
Bureau Direct BOUSKOURA WAFA ASSURANCE تأمين الوفاء وكالة بوسكورة,Wafa assurance,Casablanca,"F932+V2M, P3011, Bouskoura BOUSKOURA, Casablanca 20300, Morocco",33.4546515,-7.6499091
Wafa Assurance | تأمين الوفاء,Wafa assurance,Casablanca,"Numéro 141 lot Moulat Thami Taha2 Quartier el Oulfa Hay Hassani Arrahma Sidi Maarouf Casa Anfa Laymoune Ain Diab, Casablanca 20220, Morocco",33.5529117,-7.6898931
Wafa Assurance Assurance El Oualidi,Wafa assurance,Casablanca,"166 bis Angle Bd Omar El Khayam et, Rue Al Oukhouane, Casablanca 20250, Morocco",33.5655286,-7.6473367
Bureau Direct LISSASFA WAFA ASSURANCES تأمين الوفاء وكالة ليساسفة,Wafa assurance,Casablanca,"N° 216, 2eme etage , Bloc B, Lissasfa, Casablanca 20232, Morocco",33.5324184,-7.6712522
NOBLE ASSURANCE WAFA ASSURANCE,Wafa assurance,Casablanca,"HC3F+99W, Casablanca, Morocco",33.5534831,-7.5765614
Wafa assurance,Wafa assurance,Casablanca,"23 LOT WAFA 02 1ER ETAGE APPT B EN FACE DE LA CATHÉDRALE، Aïn Harrouda 28630, Morocco",33.638133,-7.449074
Wafa ASSURANCE OPTIMUM,Wafa assurance,Casablanca,"127 Bd Moulay Youssef, Casablanca 20250, Morocco",33.5981381,-7.6322781
WAFA Assurance NADIASSUR,Wafa assurance,Casablanca,"JG97+QGJ, Bd Allait Ibn Asaad, Casablanca 20250, Morocco",33.6194598,-7.4862298
Wafa IMA Assistance,Wafa assurance,Casablanca,"No.2 Lotissement Mandarona Imm Casablanca Business Center, Casablanca 20270, Morocco",33.539472,-7.6435856
Wafa Assurances Andalouss,Wafa assurance,Casablanca,"Rue Pierre Parent Quartier Fonciere, Casablanca, H9VR+QCR, Casablanca 20100, Morocco",33.5944955,-7.6089763
Wafa Assurance,Wafa assurance,Casablanca,"8 Lotissement Ennassr Lotissement Ennassr, Mohammedia, Mohammédia 20650, Morocco",33.6818079,-7.3826271
wafa assurance,Wafa assurance,Casablanca,"JF4V+VVQ, Casablanca 20250, Morocco",33.607222,-7.505278
Wafa assurance,Wafa assurance,Casablanca,"Unnamed Road, HGMC+GG8, Casablanca, Morocco",33.5837941,-7.4786601
تأمين الوفاء، تأمينات دار الحمراء، الحي الحسني.,Wafa assurance,Casablanca,"rue 4 hay missimi, Casablanca 20250, Morocco",33.5701723,-7.6712632
Wafa Assurance Dar Bouazza,Wafa assurance,Casablanca,"Lotissement Ansari, Tamaris 27223, Morocco",33.5220297,-7.8159092
تأمين الوفاء، الاقتصادية للتأمين، المعاريف.,Wafa assurance,Casablanca,"36 Boulevard Bir Anzarane, Casablanca, Morocco",33.5811303,-7.6379614
CHIHAB ASSURANCES,Wafa assurance,Casablanca,"BOUCHRA 11 IMMEUBLE C TRANCHE 1 NUMERO 19-03 AL AZHAR, Casablanca 20620, Morocco",33.5988321,-7.4887759
تأمين الوفاء، تأمينات بنزيت، الحي الحسني.,Wafa assurance,Casablanca,"H9C2+GHG, Bd Yacoub El Mansour, Casablanca, Morocco",33.5713157,-7.6485601
Assurance Mostafa el maani,Wafa assurance,Casablanca,"35 Rue Al Woroud, Casablanca 20250, Morocco",33.584409,-7.6211812
Wafa assurance تأمينات الوفاء,Wafa assurance,Casablanca,"22 Bd Oued Beht, Casablanca 20220, Morocco",33.5585828,-7.6779033
Wafa assurance,Wafa assurance,Casablanca,"JF3J+F4G, Bd Moulay Mohamed El Bouamrani, Casablanca 20250, Morocco",33.6036993,-7.519668
Wafa Assurance - Bureau Direct Stendhal,Wafa assurance,Casablanca,"Angle Bd.Stendhal, Res.Benber, Porte G, Rue Georges Sand, Casablanca 20390, Morocco",33.5768149,-7.6341933
Wafa Assurance,Wafa assurance,Casablanca,"H9PV+CRF, Bd de la Résistance, Casablanca 20250, Morocco",33.5860594,-7.6054477
Wafa Assurance,Wafa assurance,Casablanca,"2 Bd Mohamed Zerktouni, Casablanca 20140, Morocco",33.5830796,-7.6165948
Wafa Assurance,Wafa assurance,Casablanca,"H9RF+364, Bd Moulay Youssef, Casablanca 20250, Morocco",33.5901464,-7.6269175
ASSURANCES ESSADRI,Wafa assurance,Casablanca,"82 AVENUE DES FORCES AUXILIAIRES, Casablanca 20670, Morocco",33.5694804,-7.5580454
ASSURANCES LA GARE,Wafa assurance,Casablanca,"270 avenue al mahatta derb menjra, Casablanca 20250, Morocco",33.5751767,-7.5903643
Wafa assurance,Wafa assurance,Casablanca,"210 Bd Laymoune, Casablanca, Morocco",33.5406708,-7.6753661
Wafa assurance (mon assureur),Wafa assurance,Casablanca,"HC2J+HC5, Boulevard Al Joulane, Casablanca, Morocco",33.5513959,-7.5688936
Majdoubi Assur (Agence Wafa Assurance),Wafa assurance,Casablanca,"JGMX+MHH, Aïn Harrouda, Morocco",33.6341909,-7.4510019
WAKIL Assurances,Wafa assurance,Casablanca,"HCM9+JFX, Casablanca 20320, Morocco",33.5841217,-7.5812569
Assurance Oulad Saleh Bouskoura,Wafa assurance,Casablanca,"Lot Ennour N°113 ETG 1 Z.I Oulad Saleh Ennouacer, Casablanca 27182, Morocco",33.57308,-7.589776
Wafa assurence تأمينات الوفاء,Wafa assurance,Casablanca,"HC6M+4G4 Tribunal Adminstratif, Casablanca 20670, Morocco",33.5602506,-7.5661777
Assurances Ahmed Yassine,Wafa assurance,Casablanca,"79 Bd Mouad Bnou Jabal, Casablanca 20250, Morocco",33.6103778,-7.5123048
Ain Sebaa Assurances,Wafa assurance,Casablanca,"1 place tizi ousli, allée de la poste, Casablanca 20250, Morocco",33.6061697,-7.5383022
ASSURANCE GALLILEE,Wafa assurance,Casablanca,"95 Rue Taha Hussein, Casablanca 20250, Morocco",33.5901929,-7.6310741
ASSURANCES BINE ELOUIDANE,Wafa assurance,Casablanca,"315, 317 Bd Oued Oum Rabia, Casablanca 20220, Morocco",33.558572,-7.6780402
ASSURANCE RHIAT,Wafa assurance,Casablanca,"159, LOT HADDIOUI, BD, Av. Abou Bakr el Kadiri, Casablanca 20270, Morocco",33.5126924,-7.6562404
Assurances Derb Omar S.A.R.L.,Wafa assurance,Casablanca,"Rue De Strasbourg Ang. Rue Moha Ou Hammou N?52 Derb Omar, Casablanca 20100, Morocco",33.5924248,-7.6116104
AL WAKALA LITAAMINE,Wafa assurance,Casablanca,"HFJ4+3H3, Casablanca 20250, Morocco",33.5801291,-7.5435745
Assurance Alkhalil,Wafa assurance,Casablanca,"Bd Hassan II, Mohammédia 20650, Morocco",33.7005727,-7.3790651
Assurance wafaa,Wafa assurance,Casablanca,"FF3M+6QF, P3034, Mediouna, Morocco",33.453059,-7.5155632
Assurances Safaa Mrani,Wafa assurance,Casablanca,"Bd Victor Hugo, Casablanca 20100, Morocco",33.5787178,-7.6096391
ASSURANCES ATTASSAHOUL,Wafa assurance,Casablanca,"H9X4+PQJ, Casablanca 20250, Morocco",33.5993264,-7.6431187
Assurance ELKODIA,Wafa assurance,Casablanca,"120 Bd de la Grande Ceinture, Casablanca 20250, Morocco",33.5825525,-7.5622228
Yamna Assurances,Wafa assurance,Casablanca,"26, Bd Brahim Roudani, 3?Et., Grand Casablanca, 20000, Casablanc, Casablanca 20100, Morocco",33.5768232,-7.6381237
Assurance voyage wafa ima casablanca,Wafa assurance,Casablanca,"52 Bd Abdelmoumen, Casablanca 20360, Morocco",33.5799862,-7.6252511
Al Alamia Assurances,Wafa assurance,Casablanca,"179 Boulevard Taza Hay Moulay Abdellah, Casablanca, Casablanca 20100, Morocco",33.5462603,-7.5953808
تأمين الوفاء، تأمينات بالمريس، المعاريف.,Wafa assurance,Casablanca,"H997+V9M، Rue Théodore de Banville، Dar-el-Beida, Morocco",33.5697192,-7.636566
Pyramides Assurances,Wafa assurance,Casablanca,"Ex H, 77-79 Avenue Souhaib Erroumi، Dar-el-Beida 20100, Morocco",33.6040893,-7.5119116
Wafa Assurance,Wafa assurance,Casablanca,"7CF7+5FF, Berrechid, Morocco",33.2729309,-7.5863321
Allianz Maroc assurance bentabit,ALLIANZ,Tangier,"N2, Tanger 90060, Morocco",35.7623021,-5.7951246
Allianz Taawid Auto Tanger,ALLIANZ,Tangier,"107 Rue RGAIA L.SALIMA LT 26 LOCAL 90000 Tanger, Tanger 90060, Maroc, Tanger 90060, Morocco",35.755556,-5.7982966
Allianz Assurance Bureau Direct,ALLIANZ,Tangier,"Q69P+PQG, Tangier, Morocco",35.7693053,-5.7630513
Assrances Majjout ALLIANZ,ALLIANZ,Tangier,"21 complexe fettah، Num 9 B MESNANA، Tanger 90000, Morocco",35.7556865,-5.852951
Assurances Cherradi,ALLIANZ,Tangier,"Av. Moulay Rachid, Tanger 90060, Morocco",35.7738609,-5.8290734
Ste Tangeroise D'Assurance,ALLIANZ,Tangier,"Q692+82G، Rue Ibn Achir، Tanger 90060, Morocco",35.7683102,-5.799931
Assurances AARAB ABDESSAMAD ALLIANZ,ALLIANZ,Tangier,"1er étage -n° 1, Résidence la colombe, Quartier Slaoui, Tétouan 93000, Morocco",35.5696915,-5.3861559
Allianz Seguros - Agente Juan Francisco Diaz Navarro,ALLIANZ,Tangier,"Prolong, Av. Virgen del Carmen, 54, 11204 Algeciras, Cádiz, Spain",36.1443046,-5.4541298
Allianz Seguros - Agente Jeronimo Serrano Molina,ALLIANZ,Tangier,"plaza mayor portal oficin, 1, 11202 Algeciras, Cádiz, Spain",36.1378763,-5.4528826
DETROIT PLUS,ALLIANZ,Tangier,"Km 4, Rte de Tetouan, Tanger 90000, Morocco",35.741549,-5.7734432
Assurance Zurich - ACHGHAF,ALLIANZ,Tangier,"HJHV+5F6, Tetouan, Morocco",35.5779231,-5.356354
Allianz Seguros - Agente Juan Manuel Lobato Salguero,ALLIANZ,Tangier,"AVDA. ROSA GARCIA LOPEZ CEPERO, 11-A, 11370 Los Barrios, Cádiz, Spain",36.1865447,-5.488076
Allianz,ALLIANZ,Tangier,"Unnamed Road, 5VJ4+M8H, Larache, Morocco",35.1816923,-6.1441484
Assurance Azdine تأمينات عزالدين,ALLIANZ,Tangier,"Avenue Royaume Arabie Saoudite Quartier، N 3216، Cimetière Sidi Bouhaja, Tanger 90000, Morocco",35.7428018,-5.8135872
Galaxy Assurances,ALLIANZ,Tangier,"Rue, Tanger 90000, Morocco",35.7763651,-5.8012426
Amchachti Assurances.,ALLIANZ,Tangier,"Rue Lafayette, Tanger 90000, Morocco",35.7768297,-5.8100182
Allianz Seguros - Agente Manuel Maria Martin-Madariaga Castro,ALLIANZ,Tangier,"C. Islas Baleares, 59, 11160 Barbate, Cádiz, Spain",36.190627,-5.920817
Allianz Seguros - Agente Jose Antonio Jaques Nuche,ALLIANZ,Tangier,"Av. Almirante León Herrero, 31, 11100 San Fernando, Cádiz, Spain",36.4644391,-6.2023206
Allianz Seguros - Agente Andres Fernandez Cuevas,ALLIANZ,Tangier,"Carretera de Cadiz, ESCOLLERA, 188, 29600 Marbella, Málaga, Spain",36.507965,-4.883282
LiV Seguros - Allianz Estepona,ALLIANZ,Tangier,"C. Caravaca, 66, 1D, 29680 Estepona, Málaga, Spain",36.4247465,-5.1487169
Allianz Seguros - Agente Rocio Panes Rodriguez,ALLIANZ,Tangier,"Calle Ntra. Sra. de los Remedios, 15, 11130 Chiclana de la Frontera, Cádiz, Spain",36.421165,-6.148929
Allianz seguros - Agente Maxmart Broker,ALLIANZ,Tangier,"C. Susana Marcos, 1, 11204 Algeciras, Cádiz, Spain",36.1426859,-5.4501303
Allianz Seguros - Agente Francisco Javier Guerra Cebada,ALLIANZ,Tangier,"Pl. Santo Cristo, 10, Local 2, 11130 Chiclana de la Frontera, Cádiz, Spain",36.416483,-6.1459842
Allianz Assurance,ALLIANZ,Tangier,"RWGH+CP9, P1, Khémisset, Morocco",33.8260373,-6.0706456
Assurance Allianz *AMZIL,ALLIANZ,Tangier,"9F33+3QG, 11 Av. Moulay Ali Cherif, Inezgane 80000, Morocco",30.3526575,-9.5454981
ATLANTA Assurance TANGER BOULEVARD DES ASSURANCES,AtlantaSanad,Tangier,"6, Rue Moussa Ibn Noussair, Edifice Ibnou Sina 10, 1° étage N°7، Tanger 90000, Morocco",35.779276,-5.809263
Assurances AtlantaSANAD Chourouk Chams تأمينات أطلنطاسند,AtlantaSanad,Tangier,"à, côté d Orange, 99 Av. Imam Mouslim, Tanger, Morocco",35.7856294,-5.8298447
ASSURANCES KHATIBتامينات الخطيب,AtlantaSanad,Tangier,"Rue de Fès، Tanger 90060, Morocco",35.7689777,-5.8144787
AtlantaSanad Assurance,AtlantaSanad,Tangier,"EN FACE DU LYCÉE RÉGNAULT, 16 Rue Omar Al Khayam, Tanger, Morocco",35.7784482,-5.8090747
LA IBERICA D'ASSURANCES Agent général AtlantaSanad à Tanger,AtlantaSanad,Tangier,"N°77 Av. Ben Abi Zaraa, Tanger 90100, Morocco",35.7609917,-5.8338879
Atlanta Sanad,AtlantaSanad,Tangier,"Q53V+554, R. Moulay Ali Charif, Tanger 90060, Morocco",35.7529371,-5.8074583
Assurances Bitelmal (Atlanta Assurance),AtlantaSanad,Tangier,"Place ligue arabe, bv Moulay Youssef,résidence Ouchikh N15 Tanger، Tanger 90000, Morocco",35.7701932,-5.8045451
Atlanta assurance,AtlantaSanad,Tangier,"P4P5+8MP, Tangier, Morocco",35.7358498,-5.890794
AtlantaSanad Assurance,AtlantaSanad,Tangier,"Route de Sebta, en face de Marjane, JM37+CFX, BP4118،, Tétouan 93000, Morocco",35.603618,-5.3362807
تامينات اطلنطا سند,AtlantaSanad,Tangier,"Av. Tariq Ibn Ziyad, M'diq, Morocco",35.683711,-5.3218657
ASSURANCE FLEURA,AtlantaSanad,Tangier,"Q58G+W57, Tangier 90060, Morocco",35.7672918,-5.824577
ATLANTA SANAD ASSURANCES,AtlantaSanad,Tangier,"154 LOTISSEMENT EL, Larache 92000, Morocco",35.172429,-6.1424696
Maghreb Imtiaz Assurances (Miassur),AtlantaSanad,Tangier,"1°ét. n° 1, 1 Pl. du Maroc, Tanger 90060, Morocco",35.7679239,-5.8148243
HAJJAJ ASSURANCES,AtlantaSanad,Tangier,"Lotissemant Elanbar Avenue Aicha moussafir n 11, Tanger 90060, Morocco",35.7415255,-5.8058148
Axa Assurance,AXA,Tangier,"Q55H+H9J, Tangier 90060, Morocco",35.7589636,-5.8216189
Axa assurance boufrouri rais,AXA,Tangier,"n° 2, résidence hanae, Rue abi hassan chadili, Tanger 90000, Morocco",35.769444,-5.807358
SAMA ASSURANCES AXA,AXA,Tangier,"Angle Av. Hafid Ibn Abdelbar, Q5CJ+CC8, Rue Oued Eddahab, Tanger 90060, Morocco",35.7710327,-5.8189314
TangerSur Assurance,AXA,Tangier,"Avenue Al Qods Lot Al Majd Imm 185 Benimakada Aouama, Tanger 90060, Morocco",35.7387021,-5.8004649
Axa assurance plaza toro,AXA,Tangier,"N 35 Plaza toro, coligio anternado, rue, 5Tanger 90000, Morocco",35.7600994,-5.7943491
AL KOUFA ASSURANCE Axa TANGER,AXA,Tangier,"Avenue d'Espagne, n°9, Rés Hajar RDC, Rue, Tanger 90000, Morocco",35.7742413,-5.7965719
axa assurance maroc بوزكري جلول,AXA,Tangier,"P5V8+QV5, Bd Royaume d'Arabie Saoudite, Tanger, Morocco",35.7443081,-5.83283
FLORENCIA Assurances sarl ( Agent AXA ASSURANCE Maroc),AXA,Tangier,"84, Rue Rahal Ben Ahmed Bendibane Florencia, Tanger 90000, Morocco",35.7528283,-5.8147336
Axa Assurance,AXA,Tangier,"28 AV ALLAL BEN ABDELLAH 1ER ETAGE APPT N°3، Tanger, Morocco",35.7783763,-5.8096413
FLORENCIA Assurances sarl,AXA,Tangier,"Q55H+C9H, Av. Martyr El Alami Taghzouti, Tanger 90060, Morocco",35.7585628,-5.8215255
AXA ASSURANCE,AXA,Tangier,"Q52X+63M, Tangier 90060, Morocco",35.7505895,-5.8023403
assurances tanger,AXA,Tangier,"58 R. Moulay Ali Charif, Tanger 90070, Morocco",35.7517745,-5.8036996
AXA Crédit Tanger,AXA,Tangier,"résidence Halima, N° 3 Rue El Hariri, Tanger 90000, Morocco",35.7755267,-5.8055609
Star Assurances,AXA,Tangier,"28, Bd. Allal Ben Abdellah, 1° Ét Appt. N° 3, Tanger, Tanger 90000, Morocco",35.77779,-5.809997
Assurances Al Boughaz,AXA,Tangier,"3 Av. Moulay Youssef, Tanger 40000, Morocco",35.7706723,-5.81011
AGMA Tanger,AXA,Tangier,"Q5FX+XM3 Leonore Office, Av. Louis Van Beethoven, Tanger 90000, Morocco",35.7748912,-5.8008245
Assurances Akbib,AXA,Tangier,"Q5HR+72C, Rue Allal Ben Abdellah, Tanger, Morocco",35.7781794,-5.8099815
axa assurances 44-A,AXA,Tangier,"Villa Bouazza N° 1,، Av. Abdelkhalek Torres, Tétouan, Morocco",35.5748666,-5.3441887
AXA Assurance,AXA,Tangier,"HJGR+42Q, Av. des FAR, Tétouan, Morocco",35.5753263,-5.3598967
AXA Assurance Mdiq,AXA,Tangier,"N° 1 QUARTIER OCEAN BLVRD MLY IDRISS ZARHOUN, M'diq 93200, Morocco",35.682055,-5.3268079
Assurances,AXA,Tangier,"Q5CW+5P3, Av. Louis Van Beethoven, Tanger 90060, Morocco",35.7703869,-5.8032109
AXA Insurance,AXA,Tangier,"RJWW+76M, Fnideq, Morocco",35.8456786,-5.3544939
AXA Seguros - DOLORES CAMPOS MENDIETA,AXA,Tangier,"Av. Virgen de la Palma, 11203 Algeciras, Cádiz, Spain",36.1357367,-5.4586845
LEADER ASSURANCES,AXA,Tangier,"AVENUE DES FAR RÉSIDENCE AMINA, HJMX+289, Tétouan 93000, Morocco",35.582535,-5.351656
AXA Oficina Seguros Torres & Puerto Mediadores (Algeciras) - Agencia Exclusiva,AXA,Tangier,"C. Sevilla, 41, Bajo, 11201 Algeciras, Cádiz, Spain",36.1314159,-5.4489673
Axa assurance AYA SUR,AXA,Tangier,"Av. Sidi Al Mandri, Tétouan, Morocco",35.5690978,-5.3722705
AXA Oficina Seguros Miguel & M. A. Torres (Ceuta) - Agencia Exclusiva,AXA,Tangier,"P.º del Revellín, 22, 51001 Ceuta, Spain",35.8876728,-5.3114852
AXA Oficina Seguros Jimenez Recio & Bernal (Cádiz) - Agencia Exclusiva,AXA,Tangier,"Av. Constitución de 1812, 2, 11008 Cádiz, Spain",36.5178669,-6.2807141
ASSURANCE ARSASSUR,AXA,Tangier,"50 Av. Allal Al Fassi, Tétouan, Morocco",35.5892199,-5.3437603
LA FIERTE D'ASSURANCE,AXA,Tangier,"1ére étage, Résidence Ahlam, Av. Abdelkrim El Khatib, Tétouan 93040, Morocco",35.5894311,-5.3354021
AXA Oficina Seguros Plazuela de San Carlos (Chiclana de la Frontera) - Agencia Exclusiva,AXA,Tangier,"Plaza San Carlos 1, C. Huerta Chica, 3, 11130 Chiclana de la Frontera, Cádiz, Spain",36.4191125,-6.1455428
axa assurance bureau direct oued laou,AXA,Tangier,"Av. Hassan II, Oued Laou 93000, Morocco",35.1939363,-6.1516574
AXA Agencia de Seguros 1988 RUMAR (Estepona) - Agencia exclusiva,AXA,Tangier,"29680 MALAGA, Málaga, Spain",36.4238797,-5.1521855
AXA Assurance,AXA,Tangier,"JPGC+JC6, Av. Moulay Rachid, Martil, Morocco",35.6265119,-5.2788774
Axa,AXA,Tangier,"Av. los Canos, 30, 11360 Pueblo Nuevo, Cádiz, Spain",36.2938734,-5.3021958
AXA Assurances,AXA,Tangier,"5RWW+PR, Larache, Morocco",35.1968274,-6.1530732
AXA,AXA,Tangier,"2XCG+2JG, Rue Zaryab, Fès, Morocco",34.020066,-5.0234181
AXA Oficina Seguros Cecal Asesores (Conil de la Frontera) - Agencia Exclusiva,AXA,Tangier,"C. Baleares, 12, 11140 Conil de la Frontera, Cádiz, Spain",36.2796889,-6.085455
Seguros Axa-Yáñez & Sabir Seguros e Inversiones,AXA,Tangier,"C. Pereira, 3, BAJO, 11009 Cádiz, Spain",36.5114464,-6.2808751
MAMDA/MCMA assurance placa toro Tanger,MAMDA,Tangier,"Rte de Tetouan, Tanger 90060, Morocco",35.763054,-5.7958118
MAMDA MCMA EL AOUAMA,MAMDA,Tangier,"75 Quartier Al Majd, Tanger 90060, Morocco",35.7468653,-5.7983102
Mamda Mcma Tanger 2,MAMDA,Tangier,"angle rue farabi, immeuble méditerranée, 7 rdc Av. Youssef Ibn Tachfine, Tanger 90040, Morocco",35.7783807,-5.8028109
Mamda Mcma Placa Toro,MAMDA,Tangier,"rdc, collegio internado, 35 lotissement, Tanger 90001, Morocco",35.76719,-5.7965
Mamda Mcma Aouama,MAMDA,Tangier,"rdc de l'immeuble, ali chérif, R. Moulay Ali Charif, Tanger 90001, Morocco",35.7553154,-5.7991052
Mamda,MAMDA,Tangier,"P4J9+72R, Av. Moulay Rachid, Tanger, Morocco",35.7307253,-5.8824701
MCMA - Mutuelle Centrale Marocaine d'Assurances,MAMDA,Tangier,"Rue Al Farabi et, Q5HW+9WP, Av. Youssef Ibn Tachfine, Tanger, Morocco",35.7784688,-5.8026738
Mamda-Mcma Tetouan,MAMDA,Tangier,"Résidence Florence, Av. des FAR, Tétouan, Morocco",35.5826933,-5.3515115
MAMDA - MCMA,MAMDA,Tangier,"n189, lotissement, Larache 92000, Morocco",35.1720078,-6.1435051
MAMDA : Mutuelle Agricole Marocaine d'Assurance.,MAMDA,Tangier,"Route de larache Avenue Attahrir, Face Café temsamani, Ksar El-Kébir, Morocco",35.002786,-5.9120127
Mamda Mcma Ksar Kbir,MAMDA,Tangier,"lotissement atta allah lot n36, 361 rdc, propriété bouhout, Ksar El-Kébir 92150, Morocco",35.019083,-5.909209
Assurance MAMDA MCMA MAEM - Fes Allal Ben Abdellah,MAMDA,Tangier,"Avenue Allal Benabdellah entre Assouan et Clinique Rais, en face du café miroir, Fès 30050, Morocco",34.0339998,-5.0056685
Mamda Mcma Houciema,MAMDA,Tangier,"15 bd abd el karim el khatabi, Al Hoceïma 32000, Morocco",35.2411736,-3.9314273
Mamda Mcma Ain Taoujdat,MAMDA,Tangier,"immeuble n3 rdc, lotissement al omrane assalam, Ain Taoujdate 51100, Morocco",33.943039,-5.207445
Mamda Mcma Meknes 2,MAMDA,Tangier,"rdc lot rizana lot, n1 route d'agouray, Meknès 50000, Morocco",33.861789,-5.577012
ASSURANCE MAMDA,MAMDA,Tangier,"9Q9Q+9JR, Karia Be Mohammed, Morocco",34.3684986,-5.2109906
Assurance Mamda Mcma Maem Fes -Narjis,MAMDA,Tangier,"30 av el ouafae, Rte de Sefrou, Fès 30000, Morocco",34.0104111,-4.9778886
Assurances MAMDA,MAMDA,Tangier,"Tour bâtiment urbain, زنقة العربية السعودية، Fès 30050, Morocco",34.0423817,-5.0006592
MAMDA : Mutuelle Agricole Marocaine D'Assurances,MAMDA,Tangier,"386 Av. Taouima, Nador 62000, Morocco",35.1609471,-2.9310777
Matu Assurance,MATU,Tangier,"73, RTE DE TETOUAN ""L"" LOTISSEMENT ASSALAM 53, Tanger, Morocco",35.7802447,-5.812703
MATU TANGER 2,MATU,Tangier,"Bd Aicha Al Moussafir App N°14 1ére Etage, Tanger 60000, Morocco",35.7523935,-5.8094897
Matu Assurance,MATU,Tangier,"Touijer 1, N° 53 Av. Arabie Saoudite, Tanger, Morocco",35.7438078,-5.8304127
MATU TANGER 3,MATU,Tangier,"Jardin Place 20 Aout, Tanger 90060, Morocco",35.7702318,-5.8217864
Matu Assurance,MATU,Tangier,"LOTISSEMENT BOUZINA N° 162, Av. Imam Mouslim, Tanger, Morocco",35.7858965,-5.8332655
Assurance Matu ahlan,MATU,Tangier,"Bd Royaume d'Arabie Saoudite, Tanger 90000, Morocco",35.7439639,-5.8310443
assurance Matu,MATU,Tangier,"plaza de tores، Tanger 90060, Morocco",35.7585021,-5.8017929
Matu Assurance,MATU,Tangier,"1er étage, 85 Av. Hassan II, Asilah, Morocco",35.465028,-6.038
MATU Assurance,MATU,Tangier,"3, Tetouan 93000, Morocco",35.5883553,-5.3458096
Matu Assurance,MATU,Tangier,"Av. Hassan II, Tétouan, Morocco",35.567998,-5.374338
Matu Assurance,MATU,Tangier,"IMM CAFE MARRAKECH, RUE MED V, Fnideq, Morocco",35.845111,-5.354444
MATU Assurance,MATU,Tangier,"Avenue omar ben abdelaziz résidence abraj dubai bloc c RDC locale N° 3, Larache, Morocco",35.188306,-6.147972
Matu Assurance,MATU,Tangier,"RDC RUE 20 AOUT, N° 18, ROUTE DE RABAT, Ksar El-Kébir, Morocco",35.0006881,-5.9048136
"RMA, Tanger Assurance Conseil",RMA,Tangier,"16, Place des Nations, Rue Antaki, Tanger 90000, Morocco",35.7769805,-5.8042899
RMA MBM Assurances,RMA,Tangier,"Avenue Anfa 140 Résidence val fleuri entre sol، n9، Tanger 90000, Morocco",35.7708514,-5.8299017
RMA ASSURANCE B.G.D TANGER,RMA,Tangier,"200 Av. Prince Héritier, Tanger 90060, Morocco",35.7704566,-5.8061575
RMA Assurance Razzouki,RMA,Tangier,"Route de Tétouan Plaza Torro، N 6، Tanger 90060, Morocco",35.7627763,-5.7963941
RMA DAR DMANA,RMA,Tangier,"Avenue AL ARABIA SAOUDIA Immeuble RIAD ZALGA 3 A Entresol, N° 33, Tanger 90000, Morocco",35.7446806,-5.8327527
RMA wataniya BRANES,RMA,Tangier,"Q569+525, Av. Ibn Ardoune, Tanger 90060, Morocco",35.7603836,-5.8324059
rma watanya assurance,RMA,Tangier,"P5V8+VVJ, Av. Arabie Saoudite, Tanger, Morocco",35.7446687,-5.8330586
ALTO assurances,RMA,Tangier,"Av Hassani, Résidence Brahim Al Khalil, Immeuble D2, RDC N°5، Tanger 90040, Morocco",35.7459975,-5.8499319
MAJBOUR Assurances SARL,RMA,Tangier,"Q53Q+PV5, Tangier 90060, Morocco",35.7542519,-5.8102807
RMA Watanya,RMA,Tangier,"47 Av. Mohamed V, Tétouan, Morocco",35.5701072,-5.3736229
RMA Assurance,RMA,Tangier,"163 Av. Abdelkhalek Torres, Tétouan 93000, Morocco",35.5743604,-5.3479386
RMA ASSURANCE AUTO HALL,RMA,Tangier,"Tetouan, Morocco",35.580587,-5.3312754
Saham assurance,Saham,Tangier,"Boulevard , Arabie Saoudite, Lot Al Oyoun, Rés Azizia n°76/78/80, Appt n°7, Tanger 90000, Morocco",35.7451011,-5.834678
Assurance AFAILAL (سهام للتامين) Sanlam ASSURANCE TANGER SAHAM TANGER تأمينات افيلال,Sanlam,Tangier,"48 avenue Moulay Ismail résidence El ari 1 RDC NUMÉRO 1 Avenue Moulay Ismail Residence El ASRI N°1 RDC، Tanger 90000, Morocco",35.767396,-5.8077217
SAHAM assurance,Saham,Tangier,"108 Av. Ibn Ardoune, Tanger 90000, Morocco",35.7634045,-5.8304581
Assurance sanlam (saham),Sanlam,Tangier,"3 Av. Sidi Amar, Tanger 90000, Morocco",35.7802795,-5.8250823
Saham Assurance,Saham,Tangier,"étage 01 apprt 06, 26 Rue Mahatma Gandhi, Tanger 90000, Morocco",35.7773171,-5.8212567
Saham Insurance,Saham,Tangier,"Q568+5PM, Av. Ben Abi Zaraa, Tanger 90060, Morocco",35.7604525,-5.8331951
Sangam Insurance,Saham,Tangier,"8, place de france - BP 2089, Tanger 90000, Morocco",35.7809989,-5.8129412
Sanlam Assurance,Sanlam,Tangier,"Souani, N°06, Av. Anfa, Tanger 90060, Morocco",35.7702415,-5.8224928
Sanlam Assurance,Sanlam,Tangier,"9 Rue Martyr Abdelhadi Taib, Tanger 90060, Morocco",35.7573514,-5.8220129
Sanlam - Agence Tanger Al Irfane,Sanlam,Tangier,"Immeuble 345 route de rabat, Tanger 90000, Morocco",35.7323462,-5.8823083
Sanlam - La Maison De L'Assure,Sanlam,Tangier,"N° 108 rdc Av. Ibn Ardoune, Tanger 90000, Morocco",35.7637759,-5.8302272
Sanlam - Agence Tanger Moulay Rachid,Sanlam,Tangier,"Avenue Moulay Rachid - Résidence Aida Village - Immeuble 1 magasin, N1, Tanger 90000, Morocco",35.7602784,-5.8422405
Sanlam - Assurances El Kasri,Sanlam,Tangier,"Av. Al Qods, Tanger 90000, Morocco",35.751267,-5.7994616
Sanlam - Agence Tanger Menara,Sanlam,Tangier,"Tajziat ousra el manara, n°22, Tanger 90000, Morocco",35.7525201,-5.8486375
Agence Cnia Saada,Saham,Tangier,"Q5CC+82X, Av. Anfa, Tanger 90060, Morocco",35.7708594,-5.8298939
Sanlam - Cm Assurance Conseil,Sanlam,Tangier,"123 Av. Al Qods, Tanger 90000, Morocco",35.7431905,-5.799322
Sanlam check auto,Sanlam,Tangier,"Q58P+J7F 2, Tanger 90060, Morocco",35.7665639,-5.8143418
Sanlam - Assurances Mourabet,Sanlam,Tangier,"1er étage n°29, 54 Bd Pasteur, Tanger 90000, Morocco",35.7797439,-5.8094908
Saham Assurance AMRAOUI,Saham,Tangier,"Av. Khaled Ibn Oualid, Tétouan, Morocco",35.5722812,-5.3830186
SAHAM Assurance,Saham,Tangier,"Bd, Arabie Saoudite, lot, Al Oyoun, Rés. Azizia n° 76/78/80، appt N°3، Tanger 90060, Morocco",35.7595061,-5.8340281
Wafa Assurance Gzenaya,Wafa assurance,Tangier,"P34Q+QHX, Gueznaia, Morocco",35.706997,-5.9110006
Wafa Assurance,Wafa assurance,Tangier,"Q5GV+JGJ, Tangier, Morocco",35.7765969,-5.8062275
Wafa Assurance Boukhalef,Wafa assurance,Tangier,"320 N°32, Av. Moulay Rachid, Tanger, Morocco",35.7325631,-5.8818605
Wafa Assurance,Wafa assurance,Tangier,"P5PV+RQH, Tangier 90060, Morocco",35.7370682,-5.8055231
Wafa Assurance Dradeb,Wafa assurance,Tangier,"Avenue Imam Muslim 107, Tanger 90000, Morocco",35.7854673,-5.8306183
Assurances Chourouk Chams Atlantasanadتأمينات أطلنطا سند درادب,Wafa assurance,Tangier,"99 Av. Imam Mouslim, Tanger, Morocco",35.7854027,-5.8292893
Assurances El Hamadi,Wafa assurance,Tangier,"P5W6+V5P, Boulevard Royaume d'Arabie Saoudite, Tanger 90044, Morocco",35.7472197,-5.8395515
Wafa Assurance,Wafa assurance,Tangier,"HJCG+7H2, Av. Prince Héritier, Tétouan, Morocco",35.5706291,-5.3735968
SAAD ASSUR,Wafa assurance,Tangier,"173 Avenue Al Qods, Lotissement Al Majd، سعد للتأمين، Route Aouama، Tanger 90000, Morocco",35.7396996,-5.8002107
Wafa Assurance,Wafa assurance,Tangier,"HJ82+5M2, Av. Al Hassan Ben Al Mehdi, Tétouan, Morocco",35.5653851,-5.3983447
Wafa Assurance,Wafa assurance,Tangier,"25 Av. Moulay Rachid, M'diq 93200, Morocco",35.6825984,-5.3220113
Wafa Assurance,Wafa assurance,Tangier,"5RWX+8CG, Larache, Morocco",35.1958242,-6.1514308
Wafa assurance,Wafa assurance,Tangier,"HMG4+R9P, Av. Khartoum, Tétouan, Morocco",35.577091,-5.3440513
Allianz,ALLIANZ,Rabat,"119 Avenue La Résistance. Magasin n°4. Quartier L'océan، Rabat, Morocco",34.0173824,-6.8530317
Allianz,ALLIANZ,Rabat,"La Belle Vue 2, Av. Hassan II, Sala Al Jadida, Morocco",33.9978486,-6.7385652
Allianz Assurances,ALLIANZ,Rabat,"21 Av. Tadla, Rabat 10000, Morocco",33.994461,-6.8251296
Globe Assurances,ALLIANZ,Rabat,"Bd Omar Ibn Al Khattab, Témara, Morocco",33.9257872,-6.8889126
Sanlam - Assurances Al Mihania,Sanlam,Rabat,"n°1071, Av. Bouregreg, Sala Al Jadida 11000, Morocco",33.9945107,-6.7305208
Sanlam Assurance Rabat Akkari,Sanlam,Rabat,"4 Av. Sidi Mohamed Ben Abdellah, Rabat 10050, Morocco",34.0112509,-6.8589694
Sanlam - Assurances El Kheir,Sanlam,Rabat,"Avenue Hassan El Ouazzani, hay salam, secteur 3 n° 851, Salé 11000, Morocco",34.0402062,-6.7874031
Allianz Assurances,ALLIANZ,Casablanca,"57 Lotissement Boutayna, Bouznika 13100, Morocco",33.7764046,-7.160329
Sanlam - Right Brain Insurance,Sanlam,Rabat,"n°1, Immeuble 23 Avenue du Congo, Rabat 10000, Morocco",34.0191913,-6.8449908
Saham Assurance,Saham,Rabat,"Rue Al Kaki, Immeuble 20 Appt.2, Rabat 10000, Morocco",34.013167,-6.8377319
Matu assurance Rabat Salé,MATU,Rabat,"Bâtiment diyar3 A côté de café Bella Vista, Salé, Morocco",34.0405914,-6.8166859
Sanlam - Assurances Raissi,Sanlam,Rabat,"Av. 6 Novembre, Salé 11000, Morocco",34.0518023,-6.8047364
AtlantaSanad Assurance,AtlantaSanad,Rabat,"N° 36 etg 1 Avenue Haouz TAKDOUM, Rabat, Morocco",33.9866618,-6.8201907
أليانز المغرب، الدارالبيضاء.,ALLIANZ,Casablanca,"166 Bd Mohamed Zerktouni, Casablanca 20060, Morocco",33.5864346,-7.6303165
Mamda,MAMDA,Rabat,"Rabat, Morocco",33.9978269,-6.8273477
Wafa Assurance,Wafa assurance,Rabat,"Rabat, Morocco",33.9533811,-6.8829942
Sanlam - Assurances R'Bati,Sanlam,Rabat,"4 Rue Benzart, Rabat 10000, Morocco",34.0164076,-6.8330076
ASSURANCE ALLIANZ,ALLIANZ,Casablanca,"LOTISSEMENT MASSIRA FB 29, Mohammédia, Morocco",33.6967775,-7.3673962
ALLIANZ MOHAMMEDIA AL RACHID ASSURANCE,ALLIANZ,Casablanca,"Boulevard Mohammed VI, Mohammedia, Morocco",33.6967772,-7.3675246
Axa rabat Anya assurance,AXA,Rabat,"N°1052 Amal 5، N°2، C.Y.M، Magasin، Rabat 10140, Morocco",33.974061,-6.8899051
Allianz Mohammedia Pro Assurances,ALLIANZ,Casablanca,"HAY EL FALAH BLOC 16 N°11, Mohammédia 28830, Morocco",33.6829415,-7.3814122
Al amane Assurance,AtlantaSanad,Rabat,"Salé, Morocco",34.0588285,-6.7860197
Axa Assurance,AXA,Rabat,"Salé, Morocco",34.0621094,-6.7720484
AtlantaSanad Assurance,AtlantaSanad,Rabat,"Avenue hassan 2 IMM CIH N 3, CENTRE, Témara 12000, Morocco",33.9240608,-6.9188425
AtlantaSanad Security Assurances,AtlantaSanad,Rabat,"HAY EL MENZAH, N°1205 Av. Al Massira, Rabat 10052, Morocco",33.9708273,-6.8943698
"AtlantaSanad, Management et Conseil en Assurance",AtlantaSanad,Rabat,"54, Angle Avenue de la Résistance et Rue de Paris - Magasin N° 4 - Océan، Rabat, Morocco",34.0214726,-6.8473597
ATLANTA ASSURANCES,AtlantaSanad,Rabat,"6 Av. du Caire, Témara, Morocco",33.9130929,-6.9202501
Assurances Al GHAYTH (Atlantasanad) / تأمينات الغيث (أطلنطاسند),AtlantaSanad,Rabat,"N° 28, Lot. Wifaq Oued Eddahab، Avenue Abdelkrim El Khattabi، Temara 12010, Morocco",33.9120302,-6.9151642
AtlantaSanad Assurance,AtlantaSanad,Rabat,"7, Boulevard de Palestine, Bd Al Houria, Mohammédia, Morocco",33.6902535,-7.3817557
AtlantaSanad Assurance,AtlantaSanad,Casablanca,"H9MP+8F5, Bd de la Résistance, Casablanca 20250, Morocco",33.5832509,-7.613767
AtlantaSanad Assurance,AtlantaSanad,Casablanca,"Alaman 1 Addoha, Av. Mohamed Balafrej, Casablanca 20250, Morocco",33.5842544,-7.5249775
AtlantaSanad Assurance,AtlantaSanad,Casablanca,"251 Bd Commandant Driss Al Harti, Casablanca, Morocco",33.5451716,-7.5777372
AtlantaSanad Assurance,AtlantaSanad,Casablanca,"Casablanca, Morocco",33.5350685,-7.5787899
AtlantaSanad Assurance,AtlantaSanad,Casablanca,"181 Bd d'Anfa, Casablanca 20100, Morocco",33.5899972,-7.6374371
Assurance Loughzal.ATLANTA,AtlantaSanad,Casablanca,"132 Ennasser Yamna 20250, Av. Mohamed Balafrej, Casablanca 20250, Morocco",33.5860785,-7.525299
Bureau Direct Haj Fateh - AtlantaSanad,AtlantaSanad,Casablanca,"Lotissement Habiba, N°86 Bd Haj Fateh, Casablanca 20260, Morocco",33.5402646,-7.6764689
AtlantaSanad Assurance,AtlantaSanad,Casablanca,"1 Rue 3 Lotissement Avenir, entre Bd Nice et en face des Résidences Alyoussr, Av. Ahmed Charci, Casablanca 20250, Morocco",33.5970713,-7.6519535
AtlantaSanad Assurance Riad Sofia,AtlantaSanad,Casablanca,"groupe n4 ENTREE N5 RIAD SOFIA, Casablanca, Morocco",33.5184668,-7.6774465
AtlantaSanad Assurance,AtlantaSanad,Casablanca,"Rue 21 N8 Hay My Abdelah, Casablanca, Morocco",33.5481279,-7.6016398
AtlantaSanad Assurance,AtlantaSanad,Casablanca,"G8QX+RW5, Casablanca, Morocco",33.5395234,-7.6501363
AtlantaSanad Assurance,AtlantaSanad,Casablanca,"HC7R+287, Av. Mohamed Bouziane, Casablanca 20670, Morocco",33.5625418,-7.5592063
Compagnie d'Assurances SANAD,AtlantaSanad,Casablanca,"181 Bd d'Anfa, Casablanca 20250, Morocco",33.5902496,-7.6375688
AtlantaSanad assurances OUM EL KHEIR,AtlantaSanad,Casablanca,"253 Av. Lalla Asmaa, Casablanca 20250, Morocco",33.5803979,-7.5429521
Atlanta Sanad - أطلنتا سند,AtlantaSanad,Casablanca,"1er étage, Appt, Lot 76, 2 Bd la Résistance, Berrchid, Morocco",33.2620366,-7.5775668
AtlantaSanad Assurance,AtlantaSanad,Casablanca,"Ard Driss 4,Mag N° 4 (Près de la Gare ferroviaire)، P3009, Bouskoura 25100, Morocco",33.4584966,-7.6513673
Assurance FILALI,AXA,Rabat,"Route de Kénitra, Salé, Salé, Rte de Rabat, Salé, Morocco",34.059507,-6.8034174
Agence Adlouni AtlantaSanad,AtlantaSanad,Casablanca,"173 Bd Abou Chouaib Doukkali, Casablanca 20320, Morocco",33.567315,-7.586779
أتلانتا سند للتأمين طنجة,AtlantaSanad,Tangier,"1er étage, Appartement n°3، 14 Av. Moulay Ismail, Tanger 90060, Morocco",35.768125,-5.806568
AtlantaSanad Assurance,AtlantaSanad,Casablanca,"Av. Al Moujahid Al Ayachi, El Jadida, Morocco",33.2464977,-8.5239227
Axa Assurance,AXA,Rabat,"40 Av. Moulay Ismail, Rabat 10020, Morocco",34.0205091,-6.8270045
Axa Assurance rabat,AXA,Rabat,"25G3+6RG, Rabat, Morocco",34.0255526,-6.845413
Assurance Al Mandar Al Jamil ( AXA Sala Al Jadida) ),AXA,Rabat,"Residence MArwa 4 IMM . E Mag 3 AV Panoramique Sala AL Jadida, Salé, Morocco",33.9928959,-6.7340447
Axa assurance,AXA,Rabat,"14 Avenue Bin Al Ouidane، Rabat, Morocco",34.0062727,-6.8502367
Cabinet D'Assurances La Capitale S.A.R.L,AXA,Rabat,"241 Bis, Avenue Hassan Ii, Rabat 10060, Morocco",34.0140542,-6.8479689
Cabinet D'Assurances La Capitale S.A.R.L,RMA,Rabat,"241 Bis, Avenue Hassan Ii, Rabat 10060, Morocco",34.0140542,-6.8479689
"RMA Watanya, Assurances Fikri",RMA,Rabat,"26R9+7R3, Av. du 20 Août, Salé, Morocco",34.040635,-6.780446
Wafa Assurance - Bureau Direct SKHIRAT,Wafa assurance,Rabat,"Résidence ADDAHABIA IMM 7 APPT 8 N°2، 1 er ETAGE، Skhirat, Morocco",33.850078,-7.039948
RMA ASSURANCE RABAT - BUREAU DE GESTION DIRECTE,RMA,Rabat,"8 Rue Amman, Rabat 10000, Morocco",34.0208759,-6.8353594
MAMDA-MCMA,MAMDA,Rabat,"Av. Mohammed VI, Rabat 10020, Morocco",33.9990298,-6.8271995
Mutuelle Agricole Marocaine D'Assurances (M.A.M.D.A.),MAMDA,Rabat,"Av. Abou Inane, Rabat, Morocco",34.0172038,-6.8333062
Mamda-Mcma Ain ATIG,MAMDA,Rabat,"53 Av. Hassan II, AIN ATIQ, Morocco",33.8886538,-6.9707849
MAMDA_MCMA : Mutuelle Agricole Marocaine D'Assurance,MAMDA,Rabat,"idriss 1er, 325 Ave Moulay Ali Chrif, Témara 12000, Morocco",33.930586,-6.897138
MAMDA-MCMA Bureau Direct Al Manal CYM,MAMDA,Rabat,"RDC Imm, 1095 Av. Al Massira, Rabat 10120, Morocco",33.9726352,-6.8919522
Mamda Mcma Al Kamra,MAMDA,Rabat,"el kamra, Av. Al Kifah, Rabat 10000, Morocco",33.9909745,-6.8697022
MAMDA-MCMA Rabat Océan,MAMDA,Rabat,"imm Fouzia - Océan, 138 Av. Abdelkrim Al Khattabi, Rabat, Morocco",34.0236215,-6.8483841
MAMDA تعاضدية,MAMDA,Rabat,"X7V4+4R3, Av. Hassan II, Salé, Morocco",33.9927655,-6.7429441
Mamda Mcma Rabat Agdal,MAMDA,Rabat,"Angle Avenue Michlifen, Errachid, Imm N° 24, Rue Haroun Arrachid، Rabat, Morocco",33.9947762,-6.8505733
Mamda Mcma Centre Ville,MAMDA,Rabat,"14 abou inane, Av. Moulay Hassan, Rabat 10010, Morocco",34.0173903,-6.8329058
Mamda Mcma Sala El Jadida,MAMDA,Rabat,"angle rue mohammed, bel hassan et, Av. Hassan II, Sala Al Jadida 11100, Morocco",33.99403,-6.744472
Mamda Mcma Ain Aatiq,MAMDA,Rabat,"rdc residence amine, n27, ain aatiq, lot essaada, Rabat 12003, Morocco",33.90088,-6.97289
Mamda Mcma Hay Riad,MAMDA,Rabat,"magasin n1, immeuble annajah, Av. Al Araar, Rabat 10000, Morocco",33.9535459,-6.8736523
Mamda Re Rabat,MAMDA,Rabat,"Lamar Center Avenue Mohammed VI &, X59C+99R, Rue Aknoul, Rabat, Morocco",33.9684916,-6.8291204
MAMDA-MCMA Kenitra,MAMDA,Rabat,"RESIDENCE GOLD، 86 Avenue Moulay Abdelaziz, القنيطرة 14000, Morocco",34.2585963,-6.5904338
MAMDA - MCMA KENITRA BD 1,MAMDA,Rabat,"162 Av. Mohamed Diouri, Kénitra, Morocco",34.2546611,-6.5818908
Mamda Mcma Kenitra 2,MAMDA,Rabat,"rdc lot n86, avenue moulay abdelaziz, Kénitra 14020, Morocco",34.2586259,-6.5903902
Mamda Mcma Benslimane,MAMDA,Casablanca,"rdc lotissement sophal 20, Benslimane 13000, Morocco",33.6268325,-7.1315561
التعاضدية المركزية والتعاضدية الفلاحية، وكالة 2 مارس، مرس السلطان.,MAMDA,Casablanca,"H9FP+543, Av. 2 Mars, Casablanca 20250, Morocco",33.5728792,-7.6147004
MAMDA_MCMA : Mutuelle Agricole Marocaine D'Assurance,MAMDA,Casablanca,"Ang Boulevard Ba Hmad et Rue César Franck, Casablanca 20250, Morocco",33.5932068,-7.5884893
Mamda-Mcma Anasi,MAMDA,Casablanca,"HGV2+VHJ, Bd Mohamed Zefzaf, Casablanca, Morocco",33.59462,-7.4986008
التعاضدية الفلاحية والتعاضدية المركزية، وكالة البرنوصي.,MAMDA,Casablanca,"110, amal 3 boulevard abi dar ghaffarie, Casablanca 20610, Morocco",33.606936,-7.517066
MCMA MAMDA,MAMDA,Casablanca,"254, hay salama 3 20700, Av. Mohamed Bouziane, Casablanca 20670, Morocco",33.5631377,-7.5574292
التعاضدية الفلاحية والتعاضدية المركزية,MAMDA,Casablanca,"98 Bd Lahcen Ou Ider, Casablanca 20100, Morocco",33.5847277,-7.609426
MAMDA MCMA MAEM Mohammedia,MAMDA,Casablanca,"MJVC+M8C, P3313, Mohammédia, Morocco",33.6941801,-7.3792472
التعاضدية الفلاحية والتعاضدية المركزية,MAMDA,Casablanca,"GH1 IMM3 C9, Av. Abou Bakr el Kadiri, Casablanca 20520, Morocco",33.527005,-7.649622
Axa Assurance,AXA,Tangier,"41 Ave Mohammed V, Tangier 90000, Morocco",35.777706,-5.8062423
MAMDA/MCMA,MAMDA,Tangier,"41 Ave Mohammed V, Tangier 90000, Morocco",35.7788889,-5.8077966
Mamda Mcma Casa Abdelmoumen,MAMDA,Casablanca,"av des pléiades, Étage 2, Porte droite, Bd Abdelmoumen, Casablanca 20000, Morocco",33.5734164,-7.625727
Mamda Mcma Bouskoura,MAMDA,Casablanca,"rdc résidence jasmine gh 11 i5 m2 route, p3011, Casablanca 27182, Morocco",33.46637,-7.64587
MAMDA & MCMA BOURGOGNE,MAMDA,Casablanca,"Bd de Bourgogne, Casablanca 20250, Morocco",33.598148,-7.6440542
la marocaine vie,MAROCAINE VIE,Casablanca,"H9RC+HWQ, Bd Moulay Youssef, Casablanca 20250, Morocco",33.5914707,-7.6276279
Matu Assurance,MATU,Casablanca,"215 Bd Mohamed Zerktouni, Casablanca 20100, Morocco",33.5887327,-7.6340876
Matu Assurance,MATU,Casablanca,"DERB CHABAB -C- EL ALIA, 703 Bd Monastir, Mohammédia, Morocco",33.6894854,-7.3868094
Matu Assurance,MATU,Casablanca,"Av. Abdellah Senhaji, Casablanca 20320, Morocco",33.5659,-7.5891268
Matu Assurance,MATU,Casablanca,"DERB MARRAKECH BLOC 9, N° 74, Mohammédia, Morocco",33.6878542,-7.3917518
Matu Assurance,MATU,Casablanca,"ANGLE BD CHEFCHAOUNI ET RUE L, EGLISE JEAN D'ARC, Casablanca, Morocco",33.5563041,-7.5702924
Matu Assurance,MATU,Casablanca,"LOTISSEMENT ENNASR N° 3, Casablanca, Morocco",33.5875639,-7.5246474
Matu Assurance,MATU,Casablanca,"ET 266, N° 264 Bd Oued Tensift, Casablanca, Morocco",33.552965,-7.684208
Matu Assurance,MATU,Casablanca,"N° 283 Bd Moutana Ibn Harita, Casablanca 20250, Morocco",33.605572,-7.509629
Matu Assurance,MATU,Casablanca,"N° 72, HAY Rajaa, 2 Av. des Forces Auxiliaires, Casablanca 20670, Morocco",33.5744417,-7.5508498
Matu Assurance,MATU,Casablanca,"263 Bd de la Grande Ceinture, Casablanca 20670, Morocco",33.5828158,-7.5579054
Matu Assurance,MATU,Casablanca,"Bd Bouziane, Résidence FARHATINE N° 207 et 209 Salama 3, Casablanca 20670, Morocco",33.5631915,-7.5582776
Matu Assurance,MATU,Casablanca,"Av. Abou Bakr el Kadiri, Casablanca, Morocco",33.517742,-7.6538285
الملكية المغربية للتأمين,RMA,Casablanca,"Angle boulevard Kadi Tazi, lot Hassania، 1، 176 Bd de la Résistance, Mohammedia, Morocco",33.677041,-7.3960512
"RMA, Headquarters, Casablanca.",RMA,Casablanca,"Av. des FAR, Casablanca, Morocco",33.5970867,-7.6113102
Rma Capital,RMA,Casablanca,"H9WP+RVG, Av. des FAR, Casablanca 20100, Morocco",33.5970624,-7.6128092
RMA Assurance,RMA,Casablanca,"83, Av. de l'Arm?e Royale -, Casablanca 20000, Morocco",33.595981,-7.6119642
Centre Rma Service,RMA,Casablanca,"15 Rue Omar Slaoui، Dar-el-Beida 20670, Morocco",33.5883325,-7.6188292
RMA INTEGRITE ASSURANCES,RMA,Casablanca,"12 Résidence KOUTOUBIA Nassim, Casablanca 20190, Morocco",33.5247283,-7.6598773
RMA Assurance,RMA,Casablanca,"G9J2+XVP, Casablanca, Morocco",33.532471,-7.6477961
RMA LA FRATERNITE,RMA,Casablanca,"GCX6+FJ2 Rue Alkhalil, Rue 300 Hay Moulay Abdellah, Casablanca, Morocco",33.5486435,-7.5884752
RMA - MAROC ASSURANCES,RMA,Casablanca,"Angle Bd. 2 Mars et Bd. Al Qods Rés. Al Majd, Imm. E, Casablanca 20450, Morocco",33.5392245,-7.6007691
RMA Assurance,RMA,Casablanca,"83 Avenue des Forces Armées Royales, Casablanca 20250, Morocco",33.5731029,-7.5898116
RMA Assurance RASSURA,RMA,Casablanca,"HFH5+6FM, Av. Lalla Asmaa, Casablanca 20250, Morocco",33.5780932,-7.5413228
CENTRE MEDICAL RMA,RMA,Casablanca,"H9RF+H5P, Bd Hassan I, Casablanca 20250, Morocco",33.5914704,-7.6270326
RMA Assurance,RMA,Casablanca,"HFJG+H55, Casablanca, Morocco",33.5813848,-7.5245005
SAHAM Group,Saham,Casablanca,"216 Bd Mohamed Zerktouni, Casablanca 20100, Morocco",33.587924,-7.6326824
Saham Digital Factory,Saham,Casablanca,"117 Avenue Hassan II, et la, Rue d'Agadir, Casablanca 20250, Morocco",33.5873562,-7.6210346
Saham,Saham,Casablanca,"Résidence Andalous N° 1 Imm 7, Bouskoura, Morocco",33.4604831,-7.6460106
Saham Holding,Saham,Casablanca,"H8QJ+6R2, All. Des Erables, Casablanca, Morocco",33.5880052,-7.667989
Assurances saham,Saham,Casablanca,"G8CC+M7X, Casablanca, Morocco",33.5217494,-7.6792584
Wafa Assurance,Wafa assurance,Casablanca,"Bd de la Résistance, Mohammédia, Morocco",33.6902769,-7.3779205
WAFA ASSURANCE ABDELKADER SAHRAOUI,Wafa assurance,Casablanca,"74 Av. Abdelkader Essahraoui, Casablanca 20670, Morocco",33.5557661,-7.5454164
WAFA ASSURANCES,Wafa assurance,Casablanca,"JG57+J77 AL AZHAR, Casablanca, Morocco",33.6090338,-7.4868283
Assurances Porte D'anfa : Allianz Maroc,ALLIANZ,Casablanca,"41 Rue Mohamed Sediki, Casablanca 20250, Morocco",33.5931262,-7.6345051
California Insurance Agency - Allianz Morocco,ALLIANZ,Casablanca,"Bd El Qods, Casablanca, Morocco",33.5337605,-7.6122488
NADA Assurances,Wafa assurance,Casablanca,"Bd El Qods, Casablanca, Morocco",33.53372,-7.612797
Allianz,ALLIANZ,Casablanca,"Place Essalam Hay Essalam 2 GH 18. 2 résidence 5 N° 82, Casablanca, Morocco",33.5456752,-7.672937
allianz assurance,ALLIANZ,Casablanca,"HC43+G5H, Bd Panoramique, Casablanca, Morocco",33.5563012,-7.5970006
Assurance Allianz,ALLIANZ,Casablanca,"HC5V+6CV, Bd Commandant Driss Al Harti, Casablanca 20670, Morocco",33.5581158,-7.5564397
WAFA assurances,Wafa assurance,Casablanca,"HC5V+6CV, Bd Commandant Driss Al Harti, Casablanca 20670, Morocco",33.5581158,-7.5564397
ASSURANCES EL JOUNAIDI,ALLIANZ,Casablanca,"LITTORAL 2 N° 9 DAR BOUAZZA CASA, Nouasseur 27223, Morocco",33.5218981,-7.8172285
AXA Assurance Maroc,AXA,Casablanca,"120 Bd Hassan II, Casablanca 20250, Morocco",33.5851874,-7.6231677
Axa Assurance,AXA,Casablanca,"JG39+C23 Esp.barcelone, Casablanca, Morocco",33.6035037,-7.4824616
AXA Kimassur,AXA,Casablanca,"836 Bd El Qods, Casablanca 20150, Morocco",33.5332315,-7.6139262
assurance el oulfa rma el archi,RMA,Casablanca,"239 Bd Oued Tensift, Casablanca 20220, Morocco",33.5541925,-7.6799493
Assurance Tit Mellil Watanya,RMA,Casablanca,"GGX7+JQ3, Tit Mellil, Morocco",33.5490051,-7.4855904
MAMDA-MCMA ERRAHMA,MAMDA,Casablanca,"G7PF+JQ3, Madinat Arrahma, Morocco",33.5364613,-7.7256856
Mamda Mcma 2 Mars,MAMDA,Casablanca,"immeuble n120, rdc l, Av. 2 Mars, Casablanca 20502, Morocco",33.5739253,-7.6144872
تأمينات مامدا,MAMDA,Casablanca,"Angle Boulevard Abdelmoumen, FFPX+2HQ, rue des pléiades, Casablanca, Morocco",33.4850853,-7.5010254
Mamda,MAMDA,Casablanca,"2ème Etage Appt 16, 78 Bd de la Résistance, Casablanca 20250, Morocco",33.59242,-7.6037963
Mamda Mcma Casa A,MAMDA,Casablanca,"80 bd de la resistance, Casablanca 20000, Morocco",33.5755696,-7.6434688
MAMDA_MCMA : Mutuelle Agricole Marocaine D'Assurance,MAMDA,Casablanca,"183 Rue Mohammed el Beqal, Marrakech 40000, Morocco",31.6334262,-8.0149976
MAMDA,MAMDA,Casablanca,"i29 Bd Amir Moulay Abdallah, Meknès, Morocco",33.9020136,-5.5474547
MAMDA_MCMA : Mutuelle Agricole Marocaine D'Assurance,MAMDA,Casablanca,"X82P+R5, Khenifra, Morocco",32.9520492,-5.66469
saham Assurance,Saham,Casablanca,"Lotissement de la CIVIM, Lot n° 131 QI, Casablanca, Morocco",33.5411814,-7.6435624
Sanlam Assurance,Sanlam,Casablanca,"Casablanca 20250, Morocco",33.5908973,-7.6273451
Assurances Ahlan Tanger. Allianz تأمينات أهلا,ALLIANZ,Tangier,"Bd Royaume d'Arabie Saoudite, Tanger, Morocco",35.7445672,-5.8327716
Wafa assurances Val Fleuri,Wafa assurance,Tangier,"residence mariama n3, Av. Moulay Rachid, Tanger, Morocco",35.7635602,-5.8372772
Wafa Assurance,WAFA,Tangier,"14 Avenue Moulay Ismail, Tanger, Tanger 90000, Morocco",35.769245,-5.804398
Sanlam - Assurance Azdine,Sanlam,Tangier,"Avenue Royaume Arabie Saoudite - Quartier Sidi Bouhaja n° 3216, Tanger 90000, Morocco",35.7428477,-5.8137629
Sanlam - Total Assur,Sanlam,Tangier,"Avenue Al Qods Complexe Anouar 3 Bloc n° 70, Tanger 90000, Morocco",35.7317103,-5.8023355
Sanlam - Assurances Al Ghali,Sanlam,Tangier,"n° 118, Résidence Bouzina - magasin, Av. Imam Mouslim, Tanger 90000, Morocco",35.7867111,-5.8338488
Sanlam - Assurances Haimoud & Bourachdi,Sanlam,Tangier,"149 Avenue Mohamed V , Immeuble, n°16, Rue Mimousa, Tanger 90000, Morocco",35.7744585,-5.7983133
Sanlam - El Jirari Assurances,Sanlam,Tangier,"Benimakada lot jirrari 3 lot 1048, Tanger 90000, Morocco",35.7480438,-5.8092167
Assurances T.F.Z تأمينات طنجة المنطقة الحرة,ALLIANZ,Tangier,"P38R+2P8, Gueznaia, Morocco",35.7150625,-5.9081875
Assurances T.F.Z تأمينات طنجة المنطقة الحرة,Wafa assurance,Tangier,"P38R+2P8, Gueznaia, Morocco",35.7150625,-5.9081875
Sanlam - Chaairi Assurances,Sanlam,Tangier,"Avenue de la Résistance Imm. 67 N° 3 - 90000, Tanger 90000, Morocco",35.7761136,-5.8096185
AXA ASSURANCE YAALAOUI (TANGER),AXA,Tangier,"Route de Rabat irfan 1av Moulay Rachid، Tanger 90090, Morocco",35.732417,-5.8824059
Sanlam - Assurances Boumouhsen,Sanlam,Tangier,"Résidence Hamza, entre sol, Av. Moulay Youssef, Tanger 90000, Morocco",35.7709854,-5.8112902
تأمينات الإدريسية,ALLIANZ,Tangier,"Tangier 90060, Morocco",35.7540434,-5.8005376
RMA Assurance Rachidi,RMA,Tangier,"Boulevard Hassan 2, Résidence Al Qods, Martil 93150, Morocco",35.6127873,-5.2859307
Wafa Assurance Bureau Direct Fnideq,Wafa assurance,Tangier,"AVENUE ALMOUAHIDINE KONDISSA SOUFLA, Fnideq 93102, Morocco",35.8414084,-5.3561761
